,name,country,region,wmo,icao,latitude,longitude,elevation,timezone,monthly_start,monthly_end,distance
328,Macquarie Island*,AU,TAS,94998,YMMQ,-54.5,158.9,6.0,Australia/Hobart,1950-01-01,2022-01-01,55966.607793390474
733,Chatham Island,NZ,CI,93986,NZCI,-43.95,-176.5667,44.0,Pacific/Chatham,1950-01-01,1993-01-01,35115.81535911552
1535,Punta Arenas,CL,MA,85934,SCCI,-53.0,-70.85,37.0,America/Punta_Arenas,1967-01-01,2021-01-01,10037.814774584363
1903,Ushuaia Aerodrome,AR,V,87938,SAWH,-54.8,-68.3167,16.0,America/Argentina/Ushuaia,1950-01-01,2021-01-01,49022.83205874736
2264,Rio Grande B. A.,AR,V,87934,SAWE,-53.8,-67.75,13.0,America/Argentina/Ushuaia,1975-01-01,2021-01-01,27619.54237770401
2981,Rio Gallegos Aerodrome,AR,Z,87925,SAWG,-51.6167,-69.2833,20.0,America/Argentina/Rio_Gallegos,1953-01-01,2021-01-01,46860.46786933012
3343,Santa Cruz Aerodrome,AR,Z,87912,SAWU,-50.0167,-68.5667,113.0,America/Argentina/Rio_Gallegos,1951-01-01,2019-01-01,31020.204687505768
3345,San Julian Aerodrome,AR,Z,87909,SAWJ,-49.3167,-67.75,58.0,America/Argentina/Rio_Gallegos,1973-01-01,2021-01-01,39631.02939118406
3656,Isla De Pascua,CL,VS,85469,SCIP,-27.15,-109.4167,51.0,America/Santiago,1958-01-01,2021-01-01,44501.080691620315
3706,Puerto Deseado Aerodrome,AR,Z,87896,SAWD,-47.7333,-65.9167,81.0,America/Argentina/Rio_Gallegos,1969-01-01,2022-01-01,30299.692759660193
4056,Gobernador Gregores Aerodrome,AR,Z,87880,SAWR,-48.7833,-70.1667,358.0,America/Argentina/Rio_Gallegos,1950-01-01,2020-01-01,27002.647811355466
4299,Invercargill Aerodrome,NZ,SO,93844,NZNV,-46.7,168.55,0.0,Pacific/Auckland,1950-01-01,2010-01-01,47789.878338644594
4775,Perito Moreno Aerodrome,AR,Z,87852,SAWP,-46.5167,-71.0167,429.0,America/Argentina/Rio_Gallegos,1977-01-01,2021-01-01,53755.5629360039
4778,Comodoro Rivadavia Aerodrome,AR,U,87860,SAVC,-45.7833,-67.5,58.0,America/Argentina/Rio_Gallegos,1956-01-01,2022-01-01,45585.5749114665
5122,Puerto Aysen,CL,AI,85862,SCAS,-45.4,-72.6667,11.0,America/Santiago,1989-01-01,1994-01-01,51577.63109127189
5133,Balmaceda,CL,AI,85874,SCBA,-45.9167,-71.6833,520.0,America/Santiago,1973-01-01,2022-01-01,26174.754919495637
5492,Coyhaique,CL,AI,85864,SCCY,-45.5833,-72.1167,310.0,America/Santiago,1975-01-01,2021-01-01,65499.26511888563
5853,Paso De Indios,AR,U,87814,SAVP,-43.8167,-68.8833,460.0,America/Argentina/Rio_Gallegos,1971-01-01,2021-01-01,22423.836833620935
5857,Trelew Aerodrome,AR,U,87828,SAVT,-43.2,-65.2667,39.0,America/Argentina/Rio_Gallegos,1949-01-01,2021-01-01,63554.51624894879
6211,Esquel Aerodrome,AR,U,87803,SAVE,-42.9333,-71.15,789.0,America/Argentina/Rio_Gallegos,1957-01-01,2022-01-01,14281.821277762543
6221,Viedma Aerodrome,AR,R,87791,SAVV,-40.85,-63.0167,6.0,America/Argentina/Buenos_Aires,1971-01-01,2021-01-01,16738.147282102047
6568,Puerto Montt,CL,LL,85799,SCTE,-41.4167,-73.0833,85.0,America/Santiago,1967-01-01,2021-01-01,65227.55294916095
6928,Bariloche Aerodrome,AR,R,87765,SAZS,-41.15,-71.1667,845.0,America/Argentina/Mendoza,1949-01-01,2022-01-01,21759.03609129074
6934,San Antonio Oeste Aerodrome,AR,R,87784,SAVO,-40.7833,-65.1,20.0,America/Argentina/San_Luis,1969-01-01,2021-01-01,25520.011917176285
6941,Tres Arroyos,AR,B,87688,SAZH,-38.3333,-60.25,115.0,America/Argentina/Buenos_Aires,1971-01-01,2021-01-01,43025.69844101907
7029,"Port Elizabeth, Port E Apt",ZA,EC,68842,FAPE,-33.9833,25.6,61.0,Africa/Lusaka,1950-01-01,2022-01-01,36924.23300213786
7282,Valdivia,CL,LL,85766,SCVD,-39.6167,-73.0833,19.0,America/Santiago,1973-01-01,2021-01-01,43210.86844090689
7290,Neuquen Aerodrome,AR,R,87715,SAZN,-38.95,-68.1333,270.0,America/Argentina/San_Luis,1956-01-01,2021-01-01,12794.281760959486
7298,Bahia Blanca Aerodrome,AR,B,87750,SAZB,-38.7333,-62.1667,75.0,America/Argentina/Buenos_Aires,1956-01-01,2021-01-01,32981.11425343802
7645,Temuco,CL,AR,85743,SCTC,-38.75,-72.6333,114.0,America/Santiago,1967-01-01,2021-01-01,42195.44958622029
7751,East London Airport,ZA,EC,68858,FAEL,-33.0333,27.8333,125.0,Africa/Lusaka,1940-01-01,2021-01-01,15977.798391488068
7999,Concepcion,CL,BI,85682,SCIE,-36.7667,-73.05,12.0,America/Santiago,1973-01-01,2021-01-01,16774.412377187815
8004,Los Angeles / El Array√°n,CL,BI,85703,SCGE,-37.4,-72.4167,114.0,America/Santiago,1967-01-01,1975-01-01,76125.98397455177
8014,Pigue Aerodrome,AR,B,87679,SAZE,-37.6,-62.3833,304.0,America/Argentina/Buenos_Aires,1975-01-01,2021-01-01,55789.15455000882
8018,Tandil Aerodrome,AR,B,87645,SAZT,-37.2333,-59.25,175.0,America/Argentina/Buenos_Aires,1973-01-01,2021-01-01,34122.532271377444
8019,Mar Del Plata Aerodrome,AR,B,87692,SAZM,-37.9333,-57.5833,18.0,America/Argentina/Buenos_Aires,1949-01-01,2021-01-01,37274.307190841755
8100,Mossel Bay Cape Saint Blaize,ZA,WC,68928,FAMO,-34.1833,22.15,59.0,Africa/Lusaka,1989-01-01,1998-01-01,24621.526924479644
8113,Port St Johns,ZA,EC,68674,FAPJ,-31.6333,29.55,47.0,Africa/Lusaka,1923-01-01,2020-01-01,58910.66925760058
8222,Moorabbin Airport,AU,VIC,94870,YMMB,-38.0,145.1,13.0,Australia/Melbourne,1950-01-01,2022-01-01,8762.279372696063
8364,Chillan,CL,BI,85672,SCCH,-36.5667,-72.0333,124.0,America/Santiago,1957-01-01,2021-01-01,48271.941994263834
8366,Malargue Aerodrome,AR,M,87506,SAMM,-35.5,-69.5833,1426.0,America/Argentina/Mendoza,1875-01-01,2021-01-01,67120.2671432222
8370,Santa Rosa Aerodrome,AR,L,87623,SAZR,-36.5667,-64.2667,190.0,America/Argentina/San_Luis,1950-01-01,2021-01-01,53716.917693215415
8378,Dolores Aerodrome,AR,B,87648,SAZD,-36.35,-57.7333,10.0,America/Argentina/Buenos_Aires,1968-01-01,2021-01-01,45691.135552648215
8605,Kaitaia,NZ,NTL,93012,NZKT,-35.1,173.2667,54.0,Pacific/Auckland,1985-01-01,2021-01-01,26702.946270245695
8723,Linares / Vara Gruesa,CL,ML,85657,SCLN,-35.85,-71.55,156.0,America/Santiago,1967-01-01,1974-01-01,43818.354256370025
8728,San Rafael Aerodrome,AR,M,87509,SAMR,-34.5833,-68.4,745.0,America/Argentina/Mendoza,1968-01-01,2021-01-01,59000.95440830696
8731,General Pico Aerodrome,AR,L,87532,SAZG,-35.7,-63.75,139.0,America/Argentina/San_Luis,1973-01-01,2021-01-01,40255.32804310609
8733,Pehuajo Aerodrome,AR,B,87544,SAZP,-35.8667,-61.9,87.0,America/Argentina/Buenos_Aires,1959-01-01,2021-01-01,17342.497000911168
8838,Fort-Dauphin,MG,U,67197,FMSD,-25.0333,46.95,8.0,Indian/Antananarivo,1951-01-01,2021-01-01,6252.495502312039
8944,Cooma,AU,NSW,94923,YSCM,-36.2,149.1,778.0,Australia/Sydney,1973-01-01,2021-01-01,23985.253123253893
9081,Curico,CL,ML,85629,SCIC,-34.9667,-71.2333,228.0,America/Santiago,1957-01-01,2021-01-01,21574.700249787944
9088,Villa Reynolds Aerodrome,AR,D,87448,SAOR,-33.7333,-65.3833,485.0,America/Argentina/San_Luis,1971-01-01,2021-01-01,46172.40233929873
9091,Laboulaye,AR,X,87534,SAOL,-34.1333,-63.3667,136.0,America/Argentina/San_Luis,1950-01-01,2021-01-01,36886.64448975244
9093,Junin Aerodrome,AR,B,87548,SAAJ,-34.55,-60.9167,82.0,America/Argentina/Buenos_Aires,1968-01-01,2021-01-01,50612.82022032404
9095,Ezeiza Aerodrome,AR,B,87576,SAEZ,-34.8167,-58.5333,20.0,America/Argentina/Buenos_Aires,1957-01-01,2021-01-01,47186.16416029018
9096,La Plata Aerodrome,AR,B,87593,SADL,-34.9667,-57.9,21.0,America/Argentina/Buenos_Aires,1974-01-01,2021-01-01,9834.133704347882
9098,Carrasco,UY,CA,86580,SUMU,-34.8333,-56.0,32.0,America/Montevideo,1957-01-01,2022-01-01,18536.1942716473
9298,Balranald,AU,NSW,94696,YBRN,-34.6,143.6,61.0,Australia/Sydney,1879-01-01,2022-01-01,57551.78583371218
9301,Wagga Wagga,AU,NSW,94910,YSWG,-35.2,147.5,221.0,Australia/Sydney,1941-01-01,2022-01-01,50632.34668782686
9442,Rancagua / Yungay,CL,LI,85608,SCRG,-34.1667,-70.7667,441.0,America/Santiago,1967-01-01,1975-01-01,28376.39406526431
9446,San Luis Aerodrome,AR,D,87436,SAOU,-33.2667,-66.35,710.0,America/Argentina/San_Luis,1950-01-01,2021-01-01,44063.27489623443
9455,Colonia,UY,CO,86560,SUCA,-34.45,-57.8333,23.0,America/Montevideo,1957-01-01,2021-01-01,52332.28513953218
9532,Cape Town Airport,ZA,WC,68816,FACT,-33.9833,18.6,42.0,Africa/Lusaka,1950-01-01,2022-01-01,36924.23300213786
9655,Mildura,AU,VIC,94693,YMMI,-34.2,142.1,50.0,Australia/Melbourne,1946-01-01,2021-01-01,24069.739387365134
9679,Norfolk Island,AU,NSW,94996,YSNF,-29.0,167.9,113.0,Australia/Sydney,1948-01-01,2022-01-01,9725.327127596025
9716,Tubuai,PF,IC,91954,NTAT,-23.35,-149.4833,2.0,Pacific/Gambier,1966-01-01,2022-01-01,62891.75335678624
9804,San Martin,AR,M,87416,SAMI,-33.0833,-68.4167,653.0,America/Argentina/Mendoza,1980-01-01,2021-01-01,39930.50348461236
9807,Rio Cuarto Aerodrome,AR,X,87453,SAOC,-33.1167,-64.2333,420.0,America/Argentina/Cordoba,1969-01-01,2021-01-01,25320.171375382302
9809,Marcos Juarez Aerodrome,AR,X,87467,SAOM,-32.7,-62.15,110.0,America/Argentina/Cordoba,1973-01-01,2021-01-01,36181.8538907878
9811,Rosario Aerodrome,AR,S,87480,SAAR,-32.9167,-60.7833,25.0,America/Argentina/Buenos_Aires,1950-01-01,2021-01-01,22238.82835395064
9813,Gualeguaychu Aerodrome,AR,E,87497,SAAG,-33.0,-58.6167,23.0,America/Argentina/Buenos_Aires,1968-01-01,2021-01-01,35744.97140534714
9814,Mercedes,UY,SO,86490,SUME,-33.25,-58.0667,22.0,America/Montevideo,1931-01-01,2021-01-01,28484.208070478002
10004,Thevenard,AU,SA,95652,YPCD,-32.1,133.6,23.0,Australia/Adelaide,1906-01-01,2021-01-01,39304.527995332974
10009,Whyalla,AU,SA,95664,YWHA,-33.1,137.5,13.0,Australia/Adelaide,1979-01-01,2022-01-01,47909.69462124636
10023,Cessnock Airport,AU,NSW,95771,YCNK,-32.8,151.3,64.0,Australia/Sydney,1968-01-01,2021-01-01,35763.70922612182
10156,Quintero Santiago,CL,VS,85543,SCER,-32.7833,-71.5167,8.0,America/Santiago,1976-01-01,1994-01-01,98210.9731945246
10162,San Juan Aerodrome,AR,J,87311,SANU,-31.5667,-68.8667,597.0,America/Argentina/San_Juan,1949-01-01,2021-01-01,49800.949510851606
10165,Villa Dolores Aerodrome,AR,X,87328,SAOD,-31.95,-65.1333,561.0,America/Argentina/Cordoba,1973-01-01,2021-01-01,13747.800485682523
10167,Pilar Observatorio,AR,X,87349,SACI,-31.6667,-63.8833,338.0,America/Argentina/Cordoba,1968-01-01,2022-01-01,38666.24956551753
10171,Parana Aerodrome,AR,E,87374,SAAP,-31.7833,-60.4833,74.0,America/Argentina/Cordoba,1956-01-01,2021-01-01,51599.884044229424
10173,Paysandu,UY,PA,86430,SUPU,-32.3333,-58.0333,61.0,America/Montevideo,1935-01-01,2021-01-01,37193.577666404126
10175,Tacuarembo,UY,TA,86370,SUTB,-31.7,-55.9833,134.0,America/Montevideo,1964-01-01,2008-01-01,33395.74973876186
10176,Melo,UY,CL,86440,SUMO,-32.3667,-54.2167,100.0,America/Montevideo,1964-01-01,2022-01-01,45590.66719757742
10251,Calvinia,ZA,NC,68618,FACV,-31.4667,19.7667,975.0,Africa/Lusaka,1905-01-01,2021-01-01,56436.55943069576
10252,Fraserburg,ZA,NC,68624,FAFR,-31.9167,21.5167,1264.0,Africa/Lusaka,1878-01-01,2021-01-01,46526.49678040608
10266,"Durban, Durban International Airport",ZA,NL,68588,FADN,-29.9667,30.95,14.0,Africa/Johannesburg,1950-01-01,2022-01-01,6074.662315365628
10294,Rodrigues,MU,RO,61988,FIMR,-19.6833,63.4167,58.0,Indian/Mauritius,1954-01-01,2021-01-01,56033.05509517534
10525,Cordoba Aerodrome,AR,X,87344,SACO,-31.3167,-64.2167,484.0,America/Argentina/Cordoba,1949-01-01,2022-01-01,40808.131169000204
10528,Ceres Aerodrome,AR,S,87257,SANW,-29.8833,-61.95,87.0,America/Argentina/Cordoba,1956-01-01,2021-01-01,13841.911545262885
10532,Concordia Aerodrome,AR,E,87395,SAAC,-31.3,-58.0167,35.0,America/Argentina/Buenos_Aires,1950-01-01,2021-01-01,33396.31172478338
10533,Artigas,UY,AR,86330,SUAG,-30.3833,-56.5,123.0,America/Montevideo,1981-01-01,2021-01-01,83594.87722034597
10652,Plaisance Mauritius,MU,GP,61990,FIMP,-20.4333,57.6667,55.0,Indian/Mauritius,1951-01-01,2021-01-01,59421.27653493291
10711,Kalgoorlie-Boulder,AU,WA,94637,YPKG,-30.8,121.5,367.0,Australia/Perth,1939-01-01,2022-01-01,52635.04962234142
10726,Woomera,AU,SA,94659,YPWR,-31.2,136.8,165.0,Australia/Adelaide,1949-01-01,2022-01-01,29277.78731869011
10728,Leigh Creek,AU,SA,94674,YPLC,-30.6,138.4,261.0,Australia/Adelaide,1982-01-01,2022-01-01,58633.45705632721
10873,La Serena,CL,CO,85488,SCSE,-29.9,-71.2,142.0,America/Santiago,1949-01-01,2021-01-01,22247.37671868864
10882,La Rioja Aero.,AR,F,87217,SANL,-29.3833,-66.8167,438.0,America/Argentina/La_Rioja,1951-01-01,2021-01-01,46186.06632452693
10884,Villa De Maria Del Rio Seco,AR,X,87244,SACV,-29.9,-63.6833,341.0,America/Argentina/Cordoba,1977-01-01,2021-01-01,32475.74267878933
10967,Springbok,ZA,NC,68512,FASB,-29.6667,17.8667,1006.0,Africa/Lusaka,1878-01-01,2021-01-01,39228.36044499595
10990,Tulear,MG,U,67161,FMST,-23.3833,43.7333,8.0,Indian/Antananarivo,1951-01-01,2021-01-01,50592.642304906585
11242,Catamarca Aero.,AR,K,87222,SANC,-28.6,-65.7667,454.0,America/Argentina/Catamarca,1974-01-01,2021-01-01,49950.70379799153
11251,Paso De Los Libres Aerodrome,AR,W,87289,SARL,-29.6833,-57.15,69.0,America/Argentina/Buenos_Aires,1968-01-01,2021-01-01,77358.10224376485
11328,"Upington, Up-Apt",ZA,NC,68424,FAUP,-28.4,21.2667,839.0,Africa/Lusaka,1951-01-01,2022-01-01,51588.342836682226
11333,"Kimberley, Kim-Apt",ZA,NC,68438,FAKM,-28.8,24.7667,1198.0,Africa/Lusaka,1940-01-01,2022-01-01,31786.248433847526
11334,"Bloemfontein, Bloemfontein Airport",ZA,FS,68442,FABL,-29.1,26.3,1354.0,Africa/Lusaka,1909-01-01,2021-01-01,31209.87349281864
11338,Ladysmith,ZA,KN,68476,FALY,-28.5667,29.7667,1078.0,Africa/Lusaka,1979-01-01,2000-01-01,53276.008987374924
11422,Geraldton Airport,AU,WA,94403,YPGN,-28.8,114.7,37.0,Australia/Perth,1941-01-01,2021-01-01,24473.37094915233
11450,Tibooburra Airport,AU,NSW,95485,YTIB,-29.4,142.1,178.0,Australia/Sydney,1998-01-01,2022-01-01,45524.76590647264
11462,Ballina,AU,NSW,94596,YBNA,-28.8,153.6,2.0,Australia/Sydney,1992-01-01,2022-01-01,44841.99917977076
11598,Tinogasta,AR,K,87211,SANI,-28.0667,-67.5667,1201.0,America/Argentina/La_Rioja,1989-01-01,1991-01-01,43169.76575888779
11605,Presidencia Roque Saenz Pena Aerodrome,AR,H,87149,SARS,-26.8167,-60.45,91.0,America/Argentina/Tucuman,1956-01-01,2021-01-01,49054.92249020577
11607,Resistencia Aero.,AR,H,87155,SARE,-27.45,-59.05,53.0,America/Argentina/Tucuman,1958-01-01,2021-01-01,50281.350944363585
11609,Corrientes Aero.,AR,W,87166,SARC,-27.45,-58.7667,62.0,America/Argentina/Tucuman,1968-01-01,2021-01-01,97134.53040144674
11611,Posadas Aero.,AR,N,87178,SARP,-27.3667,-55.9667,131.0,America/Argentina/Buenos_Aires,1950-01-01,2021-01-01,70496.04201870642
11705,Inhambane,MZ,IN,67323,FQIN,-23.8667,35.3833,14.0,Africa/Maputo,1949-01-01,2021-01-01,41680.89708506602
11814,Bollon,AU,QLD,94513,YBLL,-28.0167,147.4667,183.0,Australia/Brisbane,1886-01-01,2021-01-01,45854.31253753558
11821,Coolangatta,AU,QLD,94592,YBCG,-28.2,153.5,6.0,Australia/Brisbane,1983-01-01,2022-01-01,53850.534480326714
11968,Pilar,PY,P,86255,SGPI,-26.85,-58.3167,59.0,America/Asuncion,1955-01-01,2021-01-01,35553.27016339926
11970,Encarnacion,PY,IT,86297,SGEN,-27.3167,-55.8333,91.0,America/Asuncion,1951-01-01,2021-01-01,38886.111272388465
12050,Vryburg,ZA,NW,68338,FAVB,-26.95,24.6333,1234.0,Africa/Lusaka,1920-01-01,2019-01-01,36761.8610043984
12060,Maputo / Mavalane,MZ,MP,67341,FQMA,-25.9167,32.5667,39.0,Africa/Maputo,1949-01-01,2021-01-01,44299.075863966995
12061,Xai Xai,MZ,GZ,67335,FQXA,-25.05,33.6333,4.0,Africa/Maputo,1951-01-01,2021-01-01,37363.294200881464
12144,Meekatharra,AU,WA,94430,YPMR,-26.6,118.5,522.0,Australia/Perth,1944-01-01,2022-01-01,62262.18434795378
12156,Yulara,AU,NT,94462,YDYL,-25.2,131.0,493.0,Australia/Darwin,1984-01-01,2022-01-01,88955.94131564711
12164,Birdsville,AU,QLD,95482,YBDV,-25.9,139.3,47.0,Australia/Brisbane,2000-01-01,2022-01-01,31989.864570896618
12172,Charleville,AU,QLD,94510,YBCV,-26.4,146.3,306.0,Australia/Brisbane,1942-01-01,2022-01-01,53611.17742602896
12246,Mururoa,PF,IC,91952,NTTX,-21.8167,-138.8,2.0,Pacific/Gambier,1981-01-01,1994-01-01,29002.487097994803
12318,Salta Aerodrome,AR,A,87047,SASA,-24.85,-65.4833,1238.0,America/Argentina/Salta,1950-01-01,2021-01-01,51510.24220441506
12322,Rivadavia,AR,A,87065,SASR,-24.1667,-62.9,205.0,America/Argentina/Jujuy,1949-01-01,2021-01-01,21133.97242379238
12326,Formosa Aerodrome,AR,P,87162,SARF,-26.2,-58.2333,59.0,America/Argentina/Tucuman,1969-01-01,2022-01-01,32207.065253886423
12330,Iguazu Aerodrome,AR,N,87097,SARI,-25.7333,-54.4667,270.0,America/Argentina/Buenos_Aires,1963-01-01,2021-01-01,61046.19370693616
12332,B. De Irigoyen Aerodrome,AR,N,87163,SATI,-26.25,-53.15,815.0,America/Sao_Paulo,1994-01-01,2019-01-01,31575.716315211746
12410,Mafikeng Intl. Ad,ZA,NW,68242,FAMM,-25.7833,25.5333,1281.0,Africa/Johannesburg,1997-01-01,2021-01-01,58537.08412029774
12411,Lichtenburg / Ooseinde,ZA,NW,68341,FALI,-26.1331,26.1669,1485.0,Africa/Johannesburg,1903-01-01,2020-01-01,22292.485943620595
12680,Jujuy Aerodrome,AR,Y,87046,SASJ,-24.3833,-65.0833,921.0,America/Argentina/Jujuy,1971-01-01,2022-01-01,43450.406355214946
12683,Las Lomitas,AR,P,87078,SATK,-24.7,-60.5833,130.0,America/Argentina/Jujuy,1956-01-01,2021-01-01,53670.7314242034
12686,Asuncion / Aeropuerto,PY,PH,86218,SGAS,-25.2667,-57.6333,101.0,America/Asuncion,1973-01-01,2022-01-01,47351.3113886838
12856,Carnarvon,AU,WA,94300,YCAR,-24.9,113.7,4.0,Australia/Perth,1945-01-01,2022-01-01,32224.570276496346
12879,Alice Springs Airport,AU,NT,94326,YBAS,-23.8,133.9,545.0,Australia/Darwin,1941-01-01,2022-01-01,24452.416438818847
12883,Bedourie,AU,QLD,94334,YBIE,-24.4,139.5,91.0,Australia/Brisbane,1932-01-01,2022-01-01,67453.19230568841
12889,Blackall,AU,QLD,95351,YBCK,-24.4,145.4,283.0,Australia/Brisbane,2001-01-01,2022-01-01,75375.42342891176
12896,Bundaberg,AU,QLD,94387,YBUD,-24.9,152.3,33.0,Australia/Brisbane,1942-01-01,2022-01-01,32224.570276496346
13023,Antofagasta,CL,AN,85442,SCFA,-23.4333,-70.4333,135.0,America/Santiago,1947-01-01,2022-01-01,65437.07358608832
13039,Oran Aerodrome,AR,A,87016,SASO,-23.15,-64.3167,357.0,America/Argentina/Jujuy,1961-01-01,2021-01-01,36439.29283789067
13056,Sao Paulo/Congonhas Aeroporto,BR,SP,83780,SBSP,-23.6167,-46.65,803.0,America/Sao_Paulo,1940-01-01,2022-01-01,55536.94796054297
13129,Seretse Khama International Airport,BW,SE,68240,FBSK,-24.2167,25.9167,1005.0,Africa/Gabarone,1985-01-01,2000-01-01,25536.14370640971
13248,Barcaldine,AU,QLD,94350,YBAR,-23.6,145.3,267.0,Australia/Brisbane,1887-01-01,2021-01-01,53943.07539803872
13254,Gladstone Airport,AU,QLD,94381,YGLA,-23.9,151.2,20.0,Australia/Brisbane,1993-01-01,2022-01-01,23167.140290391704
13395,La Quiaca Observatorio,AR,Y,87007,SASQ,-22.1,-65.6,3462.0,America/Argentina/Jujuy,1950-01-01,2021-01-01,42697.97921414899
13399,Tartagal Aerodrome,AR,A,87022,SAST,-22.65,-63.8167,450.0,America/Argentina/Jujuy,1995-01-01,2021-01-01,92306.83367345601
13402,Mariscal Estigarribia,PY,BO,86068,SGME,-22.0167,-60.6,172.0,America/Asuncion,1955-01-01,2021-01-01,41278.60522059107
13411,Londrina Aeroporto,BR,PR,83768,SBLO,-23.3333,-51.1333,569.0,America/Sao_Paulo,1973-01-01,2022-01-01,39487.139453044896
13415,Campinas Aeroporto,BR,SP,83721,SBKP,-23.0,-47.1333,661.0,America/Sao_Paulo,1951-01-01,2022-01-01,13643.983635304163
13417,Guaratingueta,BR,SP,83708,SBGW,-22.7833,-45.2,537.0,America/Sao_Paulo,1930-01-01,2021-01-01,31628.32201329798
13572,Learmonth,AU,WA,94302,YPLM,-22.2,114.1,5.0,Australia/Perth,1945-01-01,2022-01-01,24509.475580426
13601,Boulia,AU,QLD,94333,YBOU,-22.9167,139.9,157.0,Australia/Brisbane,1886-01-01,2021-01-01,13806.722886414362
13606,Longreach,AU,QLD,94346,YBLR,-23.4,144.3,192.0,Australia/Brisbane,1942-01-01,2022-01-01,54022.01255135888
13756,Tarija,BO,T,85364,SLTJ,-21.55,-64.7,1854.0,America/La_Paz,1966-01-01,2021-01-01,58850.82105351697
13757,Yacuiba,BO,T,85365,SLYA,-21.95,-63.65,645.0,America/La_Paz,1956-01-01,2021-01-01,36516.42409308926
13774,Pirassununga,BR,SP,83671,SBYS,-21.9833,-47.3333,597.0,America/Sao_Paulo,1943-01-01,2021-01-01,34414.7616605625
13842,Ghanzi,BW,GH,68024,FBGZ,-21.7,21.65,1131.0,Africa/Gabarone,1922-01-01,2014-01-01,49169.20147006692
13848,Francistown,BW,NE,68054,FBFT,-21.2167,27.5,1001.0,Africa/Gabarone,1922-01-01,2021-01-01,57190.78760527852
13855,Vilanculos,MZ,IN,67315,FQVL,-22.0,35.3167,20.0,Africa/Maputo,2001-01-01,2021-01-01,32651.17532499132
13863,Morombe,MG,U,67131,FMSR,-21.75,43.3667,5.0,Indian/Antananarivo,1998-01-01,2009-01-01,46952.95247888666
13868,Fianarantsoa,MG,F,67137,FMSF,-21.45,47.1,1115.0,Indian/Antananarivo,1971-01-01,2021-01-01,51099.99940127087
13870,Mananjary,MG,F,67143,FMSM,-21.2,48.3667,5.0,Indian/Antananarivo,1962-01-01,2021-01-01,44064.88234065864
14088,Pisco,PE,IC,84691,SPSO,-13.75,-76.2833,8.0,America/Lima,1949-01-01,2021-01-01,41328.53161373157
14104,Iquique / Diego Arac,CL,TA,85418,SCDA,-20.5333,-70.1833,52.0,America/Santiago,1967-01-01,2021-01-01,55283.41452493259
14118,Nueva Asuncion,PY,BQ,86017,SGNA,-20.7167,-61.9167,318.0,America/Asuncion,1967-01-01,1986-01-01,32668.998377687283
14203,Maun,BW,NG,68032,FBMN,-19.9833,23.4167,945.0,Africa/Gabarone,1921-01-01,2021-01-01,43582.46403232767
14213,Chipinge,ZW,ML,67983,FVCH,-20.2,32.6167,1131.0,Africa/Harare,1949-01-01,2015-01-01,45788.45007583091
14214,Beira,MZ,SO,67297,FQBR,-19.8,34.9,8.0,Africa/Maputo,1949-01-01,2021-01-01,24574.18063755343
14234,Saint-Denis / Gillot,RE,RE,61980,FMEE,-20.8833,55.5167,21.0,Indian/Reunion,1951-01-01,2022-01-01,51840.99496843361
14319,Mount Isa,AU,QLD,94332,YBMA,-20.7,139.5,342.0,Australia/Brisbane,1932-01-01,2022-01-01,61743.61828701743
14326,Charters Towers,AU,QLD,94356,YCHT,-20.0,146.3,291.0,Australia/Brisbane,1993-01-01,2022-01-01,31346.71142228658
14330,Mackay Racecourse,AU,QLD,94352,YBMK,-21.2,149.2,30.0,Australia/Brisbane,1943-01-01,2022-01-01,85919.61393751639
14387,Tahiti-Faaa,PF,IC,91938,NTAA,-17.55,-149.6167,2.0,Pacific/Gambier,1950-01-01,2022-01-01,64428.39085885084
14465,Ilo,PE,MO,84773,SPLO,-17.6833,-71.35,9.0,America/Lima,1999-01-01,2001-01-01,51113.275497854775
14473,Potosi,BO,P,85293,SLPO,-19.55,-65.7333,3935.0,America/La_Paz,1979-01-01,2021-01-01,57293.624962687805
14476,Camiri,BO,S,85315,SLCA,-20.0,-63.5333,798.0,America/La_Paz,1956-01-01,2021-01-01,55723.9879204394
14570,Masvingo,ZW,MV,67975,FVMV,-20.0667,30.8667,1094.0,Africa/Harare,1951-01-01,2017-01-01,15777.364504764642
14577,Quelimane,MZ,ZA,67283,FQQL,-17.8833,36.8833,6.0,Africa/Maputo,1949-01-01,2021-01-01,17910.816326218526
14586,Antsirabe,MG,T,67107,FMME,-19.8167,47.0667,1523.0,Indian/Antananarivo,2009-01-01,2013-01-01,21541.96725818796
14657,Port Hedland,AU,WA,94312,YPPD,-20.4,118.6,9.0,Australia/Perth,1942-01-01,2022-01-01,60997.50631889362
14672,Tennant Creek,AU,NT,94238,YDTC,-19.6,134.2,375.0,Australia/Darwin,1969-01-01,2022-01-01,49153.951067692935
14682,Richmond,AU,QLD,94341,YRMD,-20.7,143.1,206.0,Australia/Brisbane,1998-01-01,2022-01-01,34412.09592184125
14708,Burtonfield Tanna,VU,TA,91565,NVVW,-19.5333,169.25,70.0,Pacific/Efate,1973-01-01,2022-01-01,58115.7246359219
14805,Lima-Callao / Aerop. Internacional Jorgechavez,PE,CL,84628,SPIM,-12.0,-77.1167,12.0,America/Lima,1961-01-01,2021-01-01,12692.881323146545
14827,Arica,CL,TA,85406,SCAR,-18.3333,-70.3333,58.0,America/Santiago,1949-01-01,2021-01-01,82028.12574676753
14830,Oruro,BO,O,85242,SLOR,-17.9667,-67.0667,3072.0,America/La_Paz,1945-01-01,2021-01-01,7967.105414373555
14836,Santa Cruz / El Trompillo,BO,S,85245,SLET,-17.8,-63.1833,418.0,America/La_Paz,1951-01-01,2021-01-01,29508.549205775333
14837,San Jose De Chiquitos,BO,S,85247,SLJE,-17.8,-60.7333,284.0,America/La_Paz,1988-01-01,2021-01-01,35929.79478970231
14838,Robore,BO,S,85268,SLRB,-18.3167,-59.7667,276.0,America/La_Paz,1979-01-01,2021-01-01,42985.34075232408
14840,Puerto Suarez,BO,S,85289,SLPS,-18.9833,-57.8167,134.0,America/La_Paz,1980-01-01,2021-01-01,19361.808214992066
14931,Chimoio,MZ,MN,67295,FQCH,-19.1167,33.4667,731.0,Africa/Maputo,1951-01-01,2021-01-01,50737.583522622146
14948,Tamatave,MG,A,67095,FMMT,-18.1167,49.4,5.0,Indian/Antananarivo,1951-01-01,2022-01-01,44233.25473781064
15045,Townsville,AU,QLD,94294,YBTL,-19.2,146.8,6.0,Australia/Brisbane,1940-01-01,2022-01-01,30597.216159467127
15187,Tacna,PE,TA,84782,SPTN,-18.0667,-70.3,468.0,America/Lima,1949-01-01,2021-01-01,32575.33298949766
15191,Cochabamba,BO,C,85223,SLCB,-17.4167,-66.1833,2548.0,America/La_Paz,1956-01-01,2022-01-01,50259.22620058773
15282,Kasane,BW,NW,68029,FBKE,-17.8167,25.15,968.0,Africa/Gabarone,1921-01-01,2020-01-01,25832.526114877666
15288,Harare Kutsaga,ZW,ME,67775,FVHA,-17.9167,31.1333,1479.0,Africa/Harare,1956-01-01,2020-01-01,16870.356427731567
15308,Sainte-Marie Aerodrome,MG,A,67072,FMMS,-17.0833,49.8167,2.0,Indian/Antananarivo,2008-01-01,2021-01-01,21576.407648119915
15379,Broome Port,AU,WA,95202,YBRM,-18.0,122.2,17.0,Australia/Perth,1939-01-01,2022-01-01,21150.530887463083
15396,Burketown Airport,AU,QLD,94260,YBKT,-17.7,139.5,6.0,Australia/Brisbane,2002-01-01,2022-01-01,62557.36320950307
15435,Nausori,FJ,C,91683,NFNA,-18.05,178.5667,5.0,Pacific/Fiji,1971-01-01,2022-01-01,60178.878647854785
15523,Chimbote,PE,AN,84531,SPEO,-9.1667,-78.5167,20.0,America/Lima,1964-01-01,2001-01-01,56210.76972103327
15548,La Paz / Alto,BO,L,85201,SLLP,-16.5167,-68.1833,4058.0,America/La_Paz,1942-01-01,2022-01-01,57174.547326102176
15554,Concepcion,BO,S,85196,SLCP,-16.15,-62.0167,497.0,America/La_Paz,1949-01-01,2021-01-01,16774.412377187815
15555,San Ignacio De Velasco,BO,S,85207,SLSI,-16.3833,-60.9667,413.0,America/La_Paz,1980-01-01,2021-01-01,42769.09446784854
15572,Montes Claros,BR,MG,83437,SBMK,-16.7167,-43.8667,646.0,America/Bahia,1950-01-01,2021-01-01,34548.05177204759
15642,Livingstone,ZM,SO,67743,FLLI,-17.8167,25.8167,985.0,Africa/Lusaka,1949-01-01,2021-01-01,92872.04486660122
15661,Besalampy,MG,M,67037,FMNQ,-16.75,44.4833,38.0,Indian/Antananarivo,2009-01-01,2013-01-01,61608.53501237542
15745,Argyle,AU,WA,94217,YARG,-16.6,128.5,159.0,Australia/Perth,1985-01-01,2022-01-01,69362.27299507544
15783,Lamap Malekula,VU,MA,91555,NVSL,-16.4167,167.8,26.0,Pacific/Efate,1973-01-01,2019-01-01,51019.22268546226
15803,Pago Pago / Int. Airport,UM,AS,91765,NSTU,-14.3333,-170.7167,3.0,Pacific/Pago_Pago,1945-01-01,2022-01-01,48025.40635525403
15826,Rangiroa / Tuamoto Island,PF,IC,91941,NTTG,-14.9667,-147.6667,3.0,Pacific/Gambier,1981-01-01,1994-01-01,35992.19270357427
15903,Arequipa,PE,AR,84752,SPQU,-16.3167,-71.55,2538.0,America/Lima,1946-01-01,2022-01-01,59581.72475914512
15905,Juliaca,PE,PU,84735,SPJL,-15.4833,-70.15,3826.0,America/Lima,1962-01-01,2021-01-01,56098.22390977587
15908,San Borja,BO,B,85152,SLSB,-14.8667,-66.8667,194.0,America/La_Paz,1977-01-01,2021-01-01,20610.931131623227
15910,Trinidad,BO,B,85154,SLTR,-14.8167,-64.9167,155.0,America/La_Paz,1956-01-01,2021-01-01,22260.793873744602
15911,Ascencion De Guarayos,BO,S,85175,SLAS,-15.7167,-63.1,247.0,America/La_Paz,2000-01-01,2021-01-01,33267.945510489735
15989,Lubango Sa Da Bandeira,AO,HUI,66390,FNUB,-14.9333,13.5667,1760.0,Africa/Luanda,1949-01-01,2020-01-01,47133.468298980195
16021,Majunga,MG,M,67027,FMNM,-15.6667,46.35,26.0,Indian/Antananarivo,1951-01-01,2022-01-01,52682.15013916654
16026,Antalaha,MG,D,67025,FMNH,-14.8833,50.25,87.0,Indian/Antananarivo,1960-01-01,2021-01-01,29829.25350021484
16104,Kununurra Airport,AU,WA,94216,YPKU,-15.8,128.7,44.0,Australia/Perth,1971-01-01,2022-01-01,39036.39631735443
16140,Pekoa Airport Santo,VU,SN,91554,NVSS,-15.5167,167.2167,41.0,Pacific/Efate,1952-01-01,2022-01-01,61979.08551370559
16259,Nazca / Nasca / Majorito,PE,IC,84720,SPZA,-14.85,-74.95,567.0,America/Lima,1999-01-01,2001-01-01,17523.051339536865
16265,Apolo,BO,L,85151,SLAP,-14.7333,-68.5,1415.0,America/La_Paz,1980-01-01,2021-01-01,61376.29659060559
16356,Mongu,ZM,NW,67633,FLMG,-15.25,23.15,1052.0,Africa/Lusaka,1949-01-01,2010-01-01,32125.156902702005
16368,Ulongue,MZ,TE,67229,FQUG,-14.7333,34.35,1270.0,Africa/Maputo,2017-01-01,2021-01-01,47899.678252833895
16446,Denpasar / Ngurah-Rai,ID,BA,97230,WRRR,-8.75,115.1667,1.0,Asia/Jakarta,1974-01-01,2022-01-01,33289.35607493041
16602,Chiclayo,PE,LY,84452,SPHI,-6.7833,-79.8333,29.0,America/Lima,1949-01-01,2021-01-01,30319.257417011955
16619,Andahuayla,PE,AP,84688,SPHY,-13.7167,-73.35,3444.0,America/Lima,1999-01-01,2001-01-01,49194.25541915645
16621,Cuzco,PE,CU,84686,SPZO,-13.55,-71.9833,3248.0,America/Lima,1953-01-01,2022-01-01,50070.20950724406
16622,Quincemil,PE,CU,84677,SPIL,-13.2667,-70.6667,619.0,America/Lima,1962-01-01,1985-01-01,46712.75370273124
16625,Rurrenabaque,BO,L,85141,SLRQ,-14.4667,-67.5667,204.0,America/La_Paz,1956-01-01,2021-01-01,69814.70754981259
16708,Huambo Nova Lisboa,AO,HUA,66318,FNHU,-12.8,15.75,1710.0,Africa/Luanda,1949-01-01,1982-01-01,35054.61059252576
16721,Kabwe,ZM,CB,67663,FLKW,-14.45,28.4667,1206.0,Africa/Lusaka,1957-01-01,2012-01-01,70952.081027092
16725,Chipata,ZM,ES,67581,FLCP,-13.55,32.5833,1028.0,Africa/Lusaka,1950-01-01,2016-01-01,67297.57142075078
16730,Marrupa,MZ,NI,67221,FQMR,-13.7333,37.55,836.0,Africa/Maputo,2012-01-01,2012-01-01,56915.85518200479
16737,Dzaoudzi / Pamanzi Mayotte,KM,YT,67005,FMCZ,-12.8,45.2833,8.0,Indian/Antananarivo,1951-01-01,2022-01-01,37913.82422423406
16743,Sambava,MG,D,67023,FMNS,-14.2833,50.1667,5.0,Indian/Antananarivo,1980-01-01,2021-01-01,36268.801252753394
16804,Surakarta / Adisumarmo,ID,JT,96845,WRSQ,-7.8667,110.9167,104.0,Asia/Jakarta,1981-01-01,1998-01-01,17431.588624057633
16811,Waingapu / Mau Hau,ID,NT,97340,WRRW,-9.6667,120.3333,12.0,Asia/Makassar,1959-01-01,2022-01-01,52028.928048692345
16830,Groote Eylandt Airport,AU,NT,94153,YGTE,-14.0,136.5,17.0,Australia/Darwin,1999-01-01,2022-01-01,53945.9710350472
16857,Sola Vanua Lava,VU,TO,91551,NVSC,-13.85,167.55,17.0,Pacific/Efate,1951-01-01,2021-01-01,51351.40088517927
16866,Rotuma,FJ,RO,91650,NFNR,-12.5,177.05,26.0,Pacific/Fiji,1973-01-01,2021-01-01,55861.28274034993
16963,Trujillo,PE,LD,84501,SPRU,-8.1,-79.0333,26.0,America/Lima,1949-01-01,2021-01-01,11708.3262352705
16977,Ayacucho,PE,AY,84673,SPHO,-13.1333,-74.2167,2740.0,America/Lima,1964-01-01,2021-01-01,27760.34089731716
16983,Puerto Maldonado,PE,MD,84658,SPTU,-12.6333,-69.2,265.0,America/Lima,1961-01-01,2021-01-01,46182.77015888574
16987,San Joaquin,BO,B,85104,SLJO,-13.0667,-64.8167,140.0,America/La_Paz,1956-01-01,2021-01-01,21196.85271802752
16988,Magdalena,BO,B,85114,SLMG,-13.3333,-64.1167,140.0,America/La_Paz,1977-01-01,2021-01-01,39155.94989613342
17063,Monbaca Benguela,AO,BGU,66310,FNBG,-12.5833,13.4167,33.0,Africa/Luanda,1973-01-01,1982-01-01,64719.36280344013
17069,Bie Silva Porto,AO,BIE,66325,FNKU,-12.3833,16.95,1701.0,Africa/Luanda,1949-01-01,1962-01-01,42966.068559044754
17071,Luena Luso,AO,MOX,66285,FNUE,-11.7833,19.9167,1357.0,Africa/Luanda,1949-01-01,1985-01-01,25744.239827277175
17087,Lichinga,MZ,NI,67217,FQLC,-13.3,35.2333,1364.0,Africa/Maputo,1949-01-01,2021-01-01,41844.12757026302
17092,Pemba,MZ,CD,67215,FQPB,-12.9833,40.5333,101.0,Africa/Maputo,1949-01-01,2021-01-01,50600.39379943456
17096,Ouani Anjouan,KM,A,67004,FMCV,-12.1167,44.4333,19.0,Indian/Antananarivo,1963-01-01,1984-01-01,48871.89098566721
17099,Fascene Nossi-Be,MG,D,67012,FMNN,-13.3167,48.3167,10.0,Indian/Antananarivo,1995-01-01,2021-01-01,49152.66796497842
17101,Diego-Suarez,MG,D,67009,FMNA,-12.35,49.3,114.0,Indian/Antananarivo,1951-01-01,2021-01-01,50773.19837075485
17189,Gove Airport,AU,NT,94150,YDGV,-12.3,136.8,52.0,Australia/Darwin,1944-01-01,2022-01-01,39817.716171620006
17343,Cobija,BO,AC,85041,SLCO,-11.0333,-68.7833,235.0,America/La_Paz,1956-01-01,2021-01-01,23939.980634070427
17344,Riberalta,BO,N,85043,SLRI,-11.0,-66.1167,141.0,America/La_Paz,1956-01-01,2021-01-01,12738.033961762683
17351,Vilhena Aeroporto,BR,RO,83208,SBVH,-12.7,-60.1,612.0,America/Cuiaba,1986-01-01,2021-01-01,78590.69925034328
17434,Mwinilunga,ZM,EA,67441,FLMW,-11.75,24.4333,1361.0,Africa/Lusaka,1950-01-01,1990-01-01,54734.39022211869
17438,Lubumbashi-Luano,CD,KA,64360,FZQA,-11.6667,27.4833,1276.0,Africa/Lubumbashi,1950-01-01,2011-01-01,64343.78345386866
17447,Songea,TZ,RV,63962,HTSO,-10.6833,35.5833,1067.0,Africa/Dar_es_Salaam,1949-01-01,2022-01-01,57542.05445206628
17542,Darwin Airport,AU,NT,94120,YPDN,-12.4,130.9,31.0,Australia/Darwin,1941-01-01,2022-01-01,45786.57846227181
17553,Scherger,AU,QLD,94171,YBWP,-12.6,142.1,12.0,Australia/Brisbane,2006-01-01,2022-01-01,67595.73162720593
17694,Huanuco,PE,HO,84564,SPNC,-9.9,-75.75,1859.0,America/Lima,1962-01-01,2021-01-01,29552.336610041046
17792,Saurimo Henrique Decarvalho,AO,LSU,66226,FNSA,-9.65,20.4,1081.0,Africa/Luanda,1951-01-01,1975-01-01,58611.499130226555
17801,Kasama,ZM,CE,67475,FLKS,-10.2167,31.1333,1382.0,Africa/Lusaka,1949-01-01,2005-01-01,28169.958516671202
17879,Cilacap,ID,JT,96805,WIIL,-7.7333,109.0167,6.0,Asia/Jakarta,1960-01-01,2022-01-01,29712.681601305285
17880,Jogyakarta / Adisucipto,ID,YO,96853,WIIJ,-7.7833,110.4333,107.0,Asia/Jakarta,1981-01-01,1999-01-01,53462.471296585776
17896,Oe-Cusse / Oe Cusse,TL,NT,97385,WPOC,-9.2,124.3667,5.0,Asia/Dili,1990-01-01,1999-01-01,45995.62167505528
18041,Talara,PE,PI,84390,SPYL,-4.5667,-81.25,85.0,America/Lima,1942-01-01,2022-01-01,68842.11821133332
18051,Anta Huaraz,PE,AN,84542,SPHZ,-9.35,-77.6,2750.0,America/Lima,1971-01-01,2001-01-01,58673.79712295423
18103,Fernando De Noronha,BR,RN,82400,SBFN,-3.85,-32.4167,56.0,America/Noronha,1943-01-01,2022-01-01,49143.277315024476
18134,Luanda,AO,LUA,66160,FNLU,-8.85,13.2333,74.0,Africa/Luanda,1949-01-01,2022-01-01,30577.354120036736
18145,Malange,AO,MAL,66215,FNMA,-9.55,16.3667,1139.0,Africa/Luanda,1949-01-01,1986-01-01,64175.18343566067
18161,Isoka,ZM,CE,67481,FLIK,-10.1167,32.6333,1360.0,Africa/Lusaka,2015-01-01,2016-01-01,42193.45896318856
18169,Mtwara,TZ,MT,63971,HTMT,-10.2667,40.1833,113.0,Africa/Dar_es_Salaam,1957-01-01,2021-01-01,35805.399705473654
18252,Kupang / El Tari,ID,NT,97372,WRKK,-10.1667,123.6667,108.0,Asia/Makassar,1949-01-01,2022-01-01,75305.50948877599
18255,Dilli / Dilli Airport,TL,NT,97390,WPDL,-8.5667,125.5667,6.0,Asia/Makassar,1963-01-01,1999-01-01,67739.44416787711
18268,Merauke / Mopah,ID,PA,97980,WAKK,-8.4667,140.3833,3.0,Asia/Jayapura,1942-01-01,2022-01-01,66875.5869156565
18412,Tingo Maria,PE,HO,84534,SPGM,-9.1333,-75.95,664.0,America/Lima,1951-01-01,2019-01-01,15806.431207414718
18413,Pucallpa,PE,UC,84515,SPCL,-8.4167,-74.6,148.0,America/Lima,1949-01-01,2021-01-01,63913.06738101454
18436,Conceicao Do Araguaia,BR,PA,82861,SBAA,-8.25,-49.2833,157.0,America/Araguaina,1965-01-01,2021-01-01,41776.68675697365
18450,Paulo Afonso,BR,BA,82986,SBUF,-9.4,-38.2167,253.0,America/Maceio,1940-01-01,2019-01-01,50438.676337617224
18605,Sumbawa Besar / Sumbawa Besar,ID,NB,97260,WRRS,-8.4333,117.4167,3.0,Asia/Makassar,1964-01-01,2022-01-01,66516.53228354802
18608,Ruteng / Satartacik,ID,NT,97284,WRKG,-8.6333,120.45,0.0,Asia/Makassar,2017-01-01,2021-01-01,64090.24085604339
18610,Maumere / Wai Oti,ID,NT,97300,WRKC,-8.6333,122.25,3.0,Asia/Makassar,1979-01-01,2022-01-01,49165.3087859835
18617,Saumlaki,ID,MA,97900,WAPI,-7.9833,131.3,24.0,Asia/Jayapura,1962-01-01,2021-01-01,33086.66192808404
18769,Cajamarca,PE,CJ,84472,SPJR,-7.1333,-78.4667,2620.0,America/Lima,1956-01-01,2021-01-01,53591.01200833709
18770,Juanjui,PE,SM,84474,SPJI,-7.2167,-76.7167,350.0,America/Lima,1956-01-01,2001-01-01,39468.50832588155
18775,Cruzeiro Do Sul,BR,AC,82704,SBCZ,-7.6333,-72.6667,170.0,America/Eirunepe,1960-01-01,2021-01-01,79436.68471055522
18874,Manono,CD,KA,64282,FZRA,-7.2833,27.4333,614.0,Africa/Lubumbashi,1965-01-01,1983-01-01,57252.48450649125
18950,Telukbetung / Beranti,ID,LA,96295,WIIT,-5.2667,105.1833,96.0,Asia/Jakarta,1976-01-01,2021-01-01,35938.28607944679
18963,Ampenan / Selaparang,ID,NB,97240,WRRA,-8.5333,116.0667,3.0,Asia/Makassar,1976-01-01,2021-01-01,59752.74105120689
18992,Goroka / Megusayafa,PG,EH,92010,AYGA,-6.0667,145.3833,1587.0,Pacific/Port_Moresby,2014-01-01,2014-01-01,43028.94019777318
19130,Tarapoto,PE,SM,84455,SPST,-6.45,-76.3833,281.0,America/Lima,1953-01-01,2021-01-01,74376.27172056538
19145,Manicore,BR,AM,82533,SBMY,-5.8167,-61.3,50.0,America/Manaus,1989-01-01,2021-01-01,38941.27581269439
19147,Jacareacanga,BR,PA,82640,SBEK,-6.2667,-57.7333,98.0,America/Manaus,1986-01-01,1995-01-01,41819.59490023449
19171,Joao Pessoa,BR,PB,82798,SBJP,-7.1,-34.8667,7.0,America/Recife,1912-01-01,2022-01-01,18439.999793196977
19235,Kalemie,CD,KA,64285,FZRF,-5.8833,29.1833,790.0,Africa/Lubumbashi,1951-01-01,1976-01-01,24069.975066522733
19245,Dar Es Salaam Airport,TZ,DS,63894,HTDA,-6.8667,39.2,55.0,Africa/Dar_es_Salaam,1949-01-01,2021-01-01,26590.701396759476
19316,Semarang / Ahmadyani,ID,JT,96839,WIIS,-6.9833,110.3833,3.0,Asia/Jakarta,1976-01-01,2021-01-01,42344.81629939245
19318,Surabaya / Perak,ID,JI,96933,WRSP,-7.2167,112.7167,3.0,Asia/Jakarta,1949-01-01,2021-01-01,39468.50832588155
19344,Tanah Merah / Tanah Merah,ID,PA,97876,WAKT,-6.1,140.3,16.0,Asia/Jayapura,1944-01-01,2022-01-01,34986.70576233013
19483,Piura,PE,PI,84401,SPUR,-5.1833,-80.6,49.0,America/Lima,1955-01-01,2021-01-01,48766.109391630096
19487,Chachapoyas,PE,AM,84444,SPPY,-6.2167,-77.8333,2540.0,America/Lima,1959-01-01,2019-01-01,30336.677458172067
19488,Moyobamba,PE,SM,84435,SPBB,-6.0333,-76.9667,832.0,America/Lima,1959-01-01,1988-01-01,5222.134419164142
19489,Yurimaguas,PE,LO,84425,SPMS,-5.9,-76.0833,179.0,America/Lima,1954-01-01,2021-01-01,14440.075730329467
19516,Maraba,BR,PA,82562,SBMA,-5.35,-49.15,95.0,America/Araguaina,1973-01-01,2022-01-01,42315.02090628458
19598,Tabora Airport,TZ,TB,63832,HTTB,-5.0833,32.8333,1181.0,Africa/Dar_es_Salaam,1949-01-01,2021-01-01,20657.481152863387
19600,Dodoma,TZ,DO,63862,HTDO,-6.1667,35.7667,1119.0,Africa/Dar_es_Salaam,1957-01-01,2022-01-01,31764.88247622564
19604,Zanzibar / Kisauni,TZ,ZU,63870,HTZA,-6.2167,39.2167,15.0,Africa/Dar_es_Salaam,1957-01-01,2022-01-01,33980.19673555765
19615,Seychelles International Airport,SC,PR,63980,FSIA,-4.6667,55.5167,3.0,Indian/Mahe,1949-01-01,2022-01-01,68198.99658495776
19668,Bengkulu / Padangkemiling,ID,BE,96253,WIPL,-3.8833,102.3333,16.0,Asia/Jakarta,1975-01-01,2022-01-01,39184.62767581357
19692,Ambon / Pattimura,ID,MA,97724,WAPP,-3.7,128.0833,12.0,Asia/Jayapura,1956-01-01,2022-01-01,34614.96293078482
19850,Iquitos,PE,LO,84377,SPQT,-3.75,-73.25,125.0,America/Lima,1949-01-01,2021-01-01,39268.415339223
19856,Leticia / Vasquez Cobo,CO,AM,80398,SKLT,-4.1667,-69.95,84.0,America/Bogota,1973-01-01,2021-01-01,19347.984948764464
19881,Teresina Aeroporto,BR,PI,82579,SBTE,-5.05,-42.8167,69.0,America/Fortaleza,1956-01-01,2022-01-01,21051.14507351417
19919,Tabou,CI,TAB,65592,DITB,4.4167,-7.3667,21.0,Africa/Abidjan,1943-01-01,2022-01-01,61648.842424758564
19921,Axim,GH,WP,65465,DGTX,4.8667,-2.2333,38.0,Africa/Accra,2009-01-01,2019-01-01,99782.90392206617
19935,Pointe-Noire,CG,KL,64400,FCPP,-4.8167,11.9,17.0,Africa/Brazzaville,1947-01-01,2021-01-01,23198.383196562176
19940,Kinshasa / N'Djili,CD,KN,64210,FZAA,-4.3833,15.4333,309.0,Africa/Lubumbashi,1950-01-01,2021-01-01,75934.88406077817
19947,Lusambo,CD,KE,64246,FZVI,-4.9667,23.4333,424.0,Africa/Lubumbashi,1970-01-01,1983-01-01,48141.24766420153
20042,Ujung Pandang / Hasanuddin,ID,SN,97180,WAAA,-5.0667,119.55,14.0,Asia/Makassar,1949-01-01,2022-01-01,50393.52463388597
20045,Kolaka / Poma,ID,SG,97142,WAAP,-4.3,121.5333,0.0,Asia/Makassar,2017-01-01,2017-01-01,67903.48728992708
20058,Kaimana / Utarom,ID,PA,97760,WASK,-3.6667,133.75,3.0,Asia/Jayapura,1981-01-01,2021-01-01,46290.938760715624
20062,Wamena / Wamena,ID,PA,97686,WAJW,-4.0667,138.95,1660.0,Asia/Jayapura,1957-01-01,2021-01-01,9260.956391767932
20230,Altamira,BR,PA,82353,SBHT,-3.2,-52.2,74.0,America/Manaus,1968-01-01,2021-01-01,31427.66367771318
20289,Port-Gentil,GA,OM,64501,FOOG,-0.7,8.75,3.0,Africa/Libreville,1949-01-01,2021-01-01,43421.02838633884
20295,Loubomo,CG,NI,64401,FCPL,-4.2,12.7,329.0,Africa/Brazzaville,1949-01-01,2021-01-01,80759.57027815029
20297,Mouyondzi,CG,BO,64402,FCBM,-3.9833,13.9167,509.0,Africa/Brazzaville,1954-01-01,2021-01-01,9424.815427611895
20298,Brazzaville / Maya-Maya,CG,BR,64450,FCBB,-4.25,15.25,319.0,Africa/Brazzaville,1947-01-01,2021-01-01,39262.43971885221
20300,Bandundu,CD,BN,64108,FZBO,-3.3,17.35,324.0,Africa/Lubumbashi,1969-01-01,2012-01-01,51213.66311549452
20308,Kindu,CD,D.,64155,FZOA,-2.95,25.9167,497.0,Africa/Lubumbashi,1950-01-01,1983-01-01,10792.324751153403
20322,Mombasa,KE,CO,63820,HKMO,-4.0333,39.6167,57.0,Africa/Nairobi,1957-01-01,2021-01-01,42677.26133895886
20324,Malindi,KE,CO,63799,HKML,-3.2333,40.1,20.0,Africa/Nairobi,1976-01-01,2022-01-01,28217.959173023297
20390,Tanjungpandan / Buluh Tumbang,ID,SS,96249,WIKD,-2.75,107.75,44.0,Asia/Pontianak,1974-01-01,2022-01-01,39288.594284865714
20393,Pangkalan Bun / Iskandar,ID,KT,96645,WRBI,-2.7,110.7,25.0,Asia/Makassar,1961-01-01,2021-01-01,47146.81850958127
20396,Banjarmasin / Syamsuddin Noor,ID,KS,96685,WRBB,-3.4333,114.75,20.0,Asia/Makassar,1954-01-01,2021-01-01,55603.22376979658
20405,Kendari / Woltermon-Ginsidi,ID,SG,97146,WAAU,-4.1,122.4333,50.0,Asia/Makassar,1959-01-01,2022-01-01,49329.9989543572
20415,Fak-Fak / Torea,ID,PA,97630,WASF,-2.8833,132.25,130.0,Asia/Jayapura,1981-01-01,2021-01-01,30645.10108967385
20641,Takoradi,GH,WP,65467,DGTK,4.8833,-1.7667,5.0,Africa/Accra,1952-01-01,2021-01-01,28920.062880397283
20653,Tchibanga,GA,NY,64507,FOOT,-2.85,11.0167,83.0,Africa/Libreville,1958-01-01,2021-01-01,16782.023576960128
20654,Makabana,CG,NI,64403,FCPA,-3.4833,12.6167,160.0,Africa/Brazzaville,1965-01-01,2021-01-01,68547.6017134297
20656,Djambala,CG,PL,64453,FCBD,-2.5333,14.7667,791.0,Africa/Brazzaville,1950-01-01,2021-01-01,58003.97492465751
20658,M'Pouya,CG,BN,64452,FCBO,-2.6167,16.2167,311.0,Africa/Brazzaville,1950-01-01,2021-01-01,48946.5968073781
20674,Mwanza,TZ,MW,63756,HTMW,-2.4667,32.9167,1139.0,Africa/Dar_es_Salaam,1950-01-01,2021-01-01,52713.57361625318
20746,Palembang / Talangbetutu,ID,SS,96221,WIPP,-2.9,104.7,10.0,Asia/Jakarta,1971-01-01,2022-01-01,35120.98460382115
20748,Pangkalpinang / Pangkalpinang,ID,SS,96237,WIKK,-2.1667,106.1333,33.0,Asia/Pontianak,1959-01-01,2022-01-01,23727.62292801763
20780,Sarmi,ID,PA,97580,WAJI,-1.8333,138.7167,3.0,Asia/Jayapura,1944-01-01,2022-01-01,36535.26625864199
20782,Jayapura / Sentani,ID,PA,97690,WAJJ,-2.5667,140.4833,99.0,Asia/Jayapura,1944-01-01,2022-01-01,72129.0791178551
20946,Santarem-Aeroporto,BR,PA,82244,SBSN,-2.4333,-54.7167,72.0,America/Manaus,1968-01-01,2022-01-01,57552.08453596972
21011,Mouila,GA,NG,64550,FOGM,-1.8667,11.0167,88.0,Africa/Libreville,1951-01-01,2020-01-01,14938.020327191352
21017,Gamboma,CG,PL,64454,FCOG,-1.8667,15.8667,476.0,Africa/Brazzaville,1950-01-01,2021-01-01,20955.90684781322
21022,Boende,CD,EQ,64126,FZGN,-0.2167,20.85,351.0,Africa/Lubumbashi,1967-01-01,1976-01-01,29305.460934829105
21030,Goma,CD,GS,64184,FZNA,-1.6833,29.2333,1552.0,Africa/Lubumbashi,1967-01-01,1974-01-01,43731.061386960195
21031,Kigali,RW,KV,64387,HRYR,-1.9667,30.1167,1491.0,Africa/Kigali,1975-01-01,2022-01-01,13486.92568894779
21104,Jambi / Sultan Taha,ID,JA,96195,WIPA,-1.6333,103.65,25.0,Asia/Jakarta,1975-01-01,2022-01-01,56353.49252519204
21114,Palangkaraya / Panarung,ID,KT,96655,WRBP,-1.0,114.0,27.0,Asia/Makassar,1981-01-01,2021-01-01,0.0
21131,Sorong / Jefman,ID,PA,97502,WASS,-0.9333,131.1167,3.0,Asia/Jayapura,1957-01-01,2021-01-01,14944.822502680745
21135,Manokwari / Rendani,ID,PA,97530,WASR,-0.8833,134.05,3.0,Asia/Jayapura,1957-01-01,2021-01-01,14117.03301988492
21310,Macapa,BR,AP,82098,SBMQ,0.0333,-50.05,15.0,America/Belem,1973-01-01,2022-01-01,6679.927949615081
21370,Lambarene,GA,MO,64551,FOGR,-0.7167,10.2333,27.0,Africa/Libreville,1951-01-01,2021-01-01,40806.485981526865
21372,Lastoursville,GA,OL,64560,FOOR,-0.8333,12.7167,483.0,Africa/Libreville,1953-01-01,2021-01-01,36546.9801430956
21384,Kisangani,CD,OR,64040,FZIA,0.5167,25.1833,415.0,Africa/Lubumbashi,1951-01-01,1995-01-01,57475.16088081884
21399,Garissa,KE,CO,63723,HKGA,-0.4667,39.6333,138.0,Africa/Nairobi,1957-01-01,2021-01-01,65997.2386549402
21462,Rengat / Japura,ID,RI,96171,WIPR,0.4667,102.3167,46.0,Asia/Pontianak,1977-01-01,2022-01-01,62714.8811909229
21465,Singkep / Dabo,ID,RI,96179,WIKS,-0.4833,104.5833,31.0,Asia/Pontianak,1959-01-01,2022-01-01,70957.14654968066
21477,Balikpapan / Sepinggan,ID,KI,96633,WRLL,-1.2667,116.9,3.0,Asia/Makassar,1975-01-01,2022-01-01,31671.03233395154
21479,Palu / Mutiara,ID,ST,97072,WAML,-0.6833,119.7333,6.0,Asia/Makassar,1976-01-01,2022-01-01,46036.88204463154
21488,Ternate / Babullah,ID,MA,97430,WAMT,0.7833,127.3833,23.0,Asia/Jayapura,1976-01-01,2022-01-01,48956.34009609007
21496,Biak / Mokmer,ID,PA,97560,WABB,-1.1833,136.1167,11.0,Asia/Jayapura,1944-01-01,2022-01-01,24161.00343272175
21720,Saltpond,GH,CE,65469,DGAS,5.2,-1.0667,44.0,Africa/Accra,2016-01-01,2016-01-01,23433.847201245375
21728,Libreville,GA,ES,64500,FOOL,0.45,9.4167,12.0,Africa/Libreville,1949-01-01,2021-01-01,68195.70615554095
21735,Makoua,CG,CU,64456,FCOM,-0.0167,15.5833,394.0,Africa/Brazzaville,1953-01-01,2021-01-01,46372.120754746116
21818,Sibolga / Pinangsori,ID,SU,96073,WIMS,1.55,98.8833,3.0,Asia/Pontianak,1959-01-01,2022-01-01,62518.06001861056
21820,Pakanbaru / Simpangtiga,ID,RI,96109,WIBB,0.4667,101.45,31.0,Asia/Pontianak,1959-01-01,2022-01-01,72088.65900286914
21827,Pontianak / Supadio,ID,KB,96581,WIOO,-0.15,109.4,3.0,Asia/Makassar,1975-01-01,2022-01-01,47502.44591248206
21832,Putusibau,ID,KB,96565,WIOP,0.8833,112.9333,0.0,Asia/Makassar,2017-01-01,2021-01-01,14945.928821390673
21841,Gorontalo / Jalaluddin,ID,SA,97048,WAMG,0.5167,123.0667,2.0,Asia/Makassar,1959-01-01,2022-01-01,54249.789914633846
21970,"Acapulco, Gro.",MX,GRO,76805,MMAA,16.8333,-99.9333,13.0,America/Mazatlan,1949-01-01,2022-01-01,19847.933417374476
22001,Pasto / Antonio Narin,CO,NAR,80342,SKPS,1.4167,-77.2667,1826.0,America/Bogota,1957-01-01,2022-01-01,55009.00057825095
22020,Lethem,GY,UT,81006,SYLT,3.3667,-59.8,82.0,America/Guyana,2016-01-01,2021-01-01,46429.09552125475
22057,Bonthe,SL,S,61866,GFBN,7.5333,-12.5,7.0,Africa/Freetown,1964-01-01,1997-01-01,80982.22358125057
22073,Sassandra,CI,SAS,65599,DISS,4.95,-6.0833,62.0,Africa/Abidjan,1959-01-01,2021-01-01,10773.121673306972
22091,Makokou,GA,OI,64556,FOOK,0.5667,12.8667,509.0,Africa/Libreville,1953-01-01,2021-01-01,50408.76691497566
22092,Mekambo,GA,OI,64545,FOOE,1.0167,13.9333,499.0,Africa/Libreville,1957-01-01,1999-01-01,7644.521552191486
22094,Ouesso,CG,SA,64458,FCOU,1.6167,16.05,352.0,Africa/Brazzaville,1950-01-01,2021-01-01,42981.750020646046
22096,Impfondo,CG,LI,64459,FCOI,1.6167,18.0667,335.0,Africa/Brazzaville,1949-01-01,2021-01-01,43260.87646560581
22113,Kitale,KE,RV,63661,HKKT,1.0167,35.0,1890.0,Africa/Nairobi,1957-01-01,2022-01-01,1856.9552749641268
22114,Eldoret,KE,RV,63686,HKEL,0.5333,35.2833,2120.0,Africa/Nairobi,1957-01-01,2022-01-01,95094.28729882663
22183,Tanjungpinang / Kijang,ID,RI,96091,WIKN,0.9167,104.5333,18.0,Asia/Pontianak,1974-01-01,2021-01-01,52707.663200167044
22189,Kuching,MY,SR,96413,WBGG,1.4833,110.3333,27.0,Asia/Kuching,1955-01-01,2022-01-01,68361.31785791268
22358,Tumaco / La Florida,CO,NAR,80336,SKCO,1.8167,-78.75,3.0,America/Bogota,1973-01-01,1974-01-01,34457.7859119558
22426,"Grand Bassa, Roberts Field",LR,MG,65660,GLRB,6.25,-10.35,18.0,Africa/Monrovia,1942-01-01,2021-01-01,47646.11161390005
22433,Abidjan,CI,ABI,65578,DIAP,5.25,-3.9333,7.0,Africa/Abidjan,1949-01-01,2022-01-01,28763.48232776099
22448,Bitam,GA,WN,64510,FOOB,2.0833,11.4833,600.0,Africa/Libreville,1953-01-01,2021-01-01,54499.27284110374
22450,Souanke,CG,SA,64460,FCOS,2.0667,14.1333,549.0,Africa/Brazzaville,1951-01-01,2021-01-01,16565.9575195012
22473,Lodwar,KE,RV,63612,HKLO,3.1167,35.6167,506.0,Africa/Nairobi,1957-01-01,2022-01-01,44494.57973625896
22479,Mandera,KE,NE,63624,HKMA,3.9333,41.8667,230.0,Africa/Nairobi,1957-01-01,2021-01-01,16542.55731747327
22538,Sepang/KL International Airport,MY,SL,48647,WMKK,2.7333,101.7,21.0,Asia/Kuala_Lumpur,1960-01-01,2022-01-01,44603.39150621324
22539,Malacca,MY,ML,48665,WMKM,2.2667,102.25,11.0,Asia/Kuala_Lumpur,1961-01-01,2022-01-01,40634.431210476585
22541,Mersing,MY,JH,48674,WMAU,2.45,103.8333,44.0,Asia/Kuala_Lumpur,1961-01-01,2022-01-01,53355.82402782233
22549,Sibu,MY,SR,96421,WBGS,2.3333,111.8333,8.0,Asia/Kuching,1961-01-01,2022-01-01,41432.30736644124
22552,Longbawan / Juvai Semaring,ID,KI,96505,WRLB,3.7333,115.6833,550.0,Asia/Makassar,2017-01-01,2017-01-01,45977.656064096795
22561,Menado / Dr. Sam Ratulangi,ID,SA,97014,WAMM,1.5333,124.9167,80.0,Asia/Makassar,1961-01-01,2022-01-01,52714.03600297212
22720,Cali / Alfonso Bonillaaragon,CO,VDC,80259,SKCL,3.55,-76.3833,961.0,America/Bogota,1961-01-01,2022-01-01,74503.77565054133
22721,Neiva / Benito Salas,CO,HUI,80315,SKNV,2.9667,-75.3,439.0,America/Bogota,1968-01-01,2021-01-01,33518.41882961957
22739,Ebini,GY,UD,81010,SYEB,5.5667,-57.7833,28.0,America/Guyana,2016-01-01,2021-01-01,53815.44155628305
22773,Lungi,SL,N,61856,GFLL,8.6167,-13.2,25.0,Africa/Freetown,1950-01-01,2019-01-01,47953.356201023606
22798,Ada,GH,GA,65475,DGAD,5.7833,0.6333,5.0,Africa/Accra,2014-01-01,2020-01-01,96094.44761647956
22806,Kribi,CM,SU,64971,FKKB,2.95,9.9,10.0,Africa/Douala,1965-01-01,1999-01-01,12418.56832728489
22812,Berberati,CF,MKD,64600,FEFT,4.25,15.8,582.0,Asia/Colombo,1949-01-01,2021-01-01,35563.77490474863
22835,Moyale,KE,OR,63619,HKMY,3.5333,39.05,1097.0,Africa/Nairobi,1935-01-01,2021-01-01,52190.365186781695
22888,Banda Aceh / Blangbintang,ID,AC,96011,WITT,5.5167,95.4167,21.0,Asia/Pontianak,1960-01-01,2022-01-01,73687.7765252818
22894,Medan / Polonia,ID,SU,96035,WIMM,3.5667,98.6833,25.0,Asia/Pontianak,1949-01-01,2022-01-01,72158.39207546637
22899,Kuantan,MY,PH,48657,WMKD,3.6167,103.2167,18.0,Asia/Kuala_Lumpur,1961-01-01,2022-01-01,48934.667909201795
22909,Bintulu,MY,SR,96441,WBGB,3.2,113.0333,2.0,Asia/Kuching,1955-01-01,2022-01-01,22544.24580668386
22914,Tarakan / Juwata,ID,KI,96509,WRLR,3.3333,117.5667,6.0,Asia/Makassar,1975-01-01,2022-01-01,60727.53203254463
23077,Buenaventura,CO,VDC,80252,SKBU,3.85,-76.9667,14.0,America/Bogota,1970-01-01,1983-01-01,17083.425479403613
23079,Armenia / El Eden,CO,QUI,80211,SKAR,4.5,-75.7167,1204.0,America/Bogota,1967-01-01,2021-01-01,63858.9653215351
23080,Girardot / Santiago Villa,CO,CAM,80219,SKGI,4.2833,-74.8,286.0,America/Bogota,1969-01-01,1985-01-01,38527.1027644183
23081,Villavicencio / Vanguardia,CO,MET,80234,SKVV,4.1667,-73.6167,423.0,America/Bogota,1977-01-01,2021-01-01,46378.11189364855
23102,Cayenne / Rochambeau,GF,GF,81405,SOCA,4.8333,-52.3667,105.0,America/Cayenne,1943-01-01,2022-01-01,44654.13348553035
23132,Cap-Skirring,SN,ZI,61697,GOGS,12.4,-16.75,16.0,Africa/Dakar,1980-01-01,2022-01-01,52120.48938681633
23162,Port Harcourt,NG,RI,65250,DNPO,4.85,7.0167,18.0,Africa/Lagos,1952-01-01,2022-01-01,16781.533863516073
23165,Douala Obs.,CM,LIT,64910,FKKD,4.0,9.7333,10.0,Africa/Douala,1948-01-01,2021-01-01,29583.447043257405
23168,Abong-Mbang,CM,ES,64960,FKAG,3.9667,13.2,693.0,Africa/Douala,1983-01-01,1996-01-01,22492.143112003305
23169,Batouri,CM,ES,64931,FKKI,4.4667,14.3667,656.0,Africa/Douala,1952-01-01,1994-01-01,65928.77244542072
23173,Bangui,CF,MP,64650,FEFF,4.4,18.5167,365.0,Asia/Colombo,1949-01-01,2021-01-01,72536.7517225462
23187,Juba,SD,BG,62941,HSSJ,4.8667,31.6,460.0,Africa/Khartoum,1949-01-01,2011-01-01,46726.42340715561
23255,Sitiawan,MY,PK,48620,WMBA,4.2167,100.7,7.0,Asia/Kuala_Lumpur,1961-01-01,2022-01-01,41081.49774094767
23269,Miri,MY,SR,96449,WBGR,4.3333,113.9833,17.0,Asia/Kuching,1955-01-01,2022-01-01,37107.515852539975
23437,Quibdo / El Carano,CO,CHO,80144,SKUI,5.7167,-76.6167,53.0,America/Bogota,1968-01-01,2022-01-01,90286.897514179
23457,Nickerie,SR,NI,81202,SMNI,5.95,-57.0333,2.0,America/Paramaribo,2020-01-01,2021-01-01,6668.79867981633
23460,Saint-Laurent-Du-Maroni,GF,GF,81401,SOOM,5.5,-54.0333,4.0,America/Cayenne,1991-01-01,2021-01-01,55719.394091589136
23511,Adiake,CI,ABO,65585,DIAD,5.3,-3.3,33.0,Africa/Abidjan,1961-01-01,2021-01-01,47080.8584865181
23517,Cotonou,BJ,AQ,65344,DBBB,6.35,2.3833,5.0,Africa/PortoNovo,1941-01-01,2021-01-01,57533.947788157304
23524,Nkongsamba,CM,LIT,64911,FKAN,4.95,9.9333,816.0,Africa/Douala,1979-01-01,1994-01-01,9246.867169348821
23526,Yoko,CM,CEN,64900,FKAY,5.55,12.3667,1027.0,Africa/Douala,1965-01-01,1993-01-01,64416.96925509253
23601,Batticaloa,LK,EA,43436,VCCB,7.7167,81.7,5.0,Asia/Colombo,2020-01-01,2021-01-01,45654.458632318325
23614,Penang / Bayan Lepas,MY,PNG,48601,WMKP,5.3,100.2667,3.0,Asia/Kuala_Lumpur,1961-01-01,2022-01-01,44555.12918818338
23630,Labuan,MY,SB,96465,WBKL,5.3,115.25,30.0,Asia/Kuching,1955-01-01,2022-01-01,82606.18748132823
23633,Sandakan,MY,SB,96491,WBKS,5.9,118.0667,12.0,Asia/Kuching,1955-01-01,2022-01-01,13343.89307566558
23637,Zamboanga,PH,ZSI,98836,RPMZ,6.9,122.0667,5.0,Asia/Manila,1945-01-01,2022-01-01,13335.85990324068
23665,"Weno Island, Chuuk Int. Airp.",FM,C,91334,PTKK,7.4667,151.85,3.0,Pacific/Ponape,1946-01-01,2022-01-01,54468.725308489855
23797,Medellin / Olaya Herrera,CO,ANT,80110,SKMD,6.2167,-75.6,1490.0,America/Bogota,1961-01-01,2021-01-01,50363.69530483053
23799,Barrancabermeja / Yariguies,CO,SAN,80091,SKEJ,7.0167,-73.8,126.0,America/Bogota,1964-01-01,2021-01-01,22150.79762251324
23800,Bucaramanga / Palonegro,CO,SAN,80094,SKBG,7.1,-73.2,1189.0,America/Bogota,1975-01-01,2021-01-01,24713.664497796944
23803,Arauca / Santiago Perez,CO,ARA,80099,SKUC,7.0667,-70.7333,128.0,America/Bogota,1968-01-01,2021-01-01,30352.613029840635
23805,Puerto Carreno / A. Guauquea,CO,VIC,80139,SKPC,6.1667,-67.5,55.0,America/Bogota,1969-01-01,2021-01-01,58309.09819692187
23812,Kamarang,GY,CM,81005,SYKM,5.8833,-60.5,494.0,America/Guyana,2016-01-01,2021-01-01,56800.90188431995
23814,Timehri Airport,GY,DM,81002,SYTM,6.5,-58.25,28.0,America/Guyana,1949-01-01,2021-01-01,99817.46925467241
23853,Bolama,GW,BL,61769,GGBO,11.5833,-15.4833,18.0,Africa/Bissau,1976-01-01,2010-01-01,85914.15056608032
23865,Man,CI,MAN,65548,DIMN,7.3833,-7.5167,339.0,Africa/Abidjan,1945-01-01,2021-01-01,68259.210497564
23867,Gagnoa,CI,GAG,65557,DIGA,6.1333,-5.95,205.0,Africa/Abidjan,1945-01-01,2021-01-01,15819.785255431956
23868,Dimbokro,CI,DIM,65562,DIDK,6.65,-4.7,92.0,Africa/Abidjan,1945-01-01,2021-01-01,79518.49849053587
23870,Sefwi Bekwai,GH,WP,65445,DGSB,6.2,-2.3333,171.0,Africa/Accra,2014-01-01,2020-01-01,43041.82387844142
23872,Akim Oda,GH,EP,65457,DGKA,5.9333,-0.9833,139.0,Africa/Accra,2014-01-01,2019-01-01,7643.198594925053
23873,Akuse,GH,EP,65460,DGAK,6.1,0.1167,17.0,Africa/Accra,2014-01-01,2020-01-01,17034.10559749844
23876,Lagos / Ikeja,NG,LA,65201,DNMM,6.5833,3.3333,40.0,Africa/Lagos,1952-01-01,2022-01-01,59171.34000146721
23882,Mamfe,CM,SW,64890,FKKF,5.7167,9.2833,126.0,Africa/Douala,1969-01-01,1998-01-01,44433.67366185316
23884,Koundja,CM,OU,64893,FKKM,5.65,10.75,1208.0,Africa/Douala,1957-01-01,1999-01-01,47743.43353035439
23888,Bouar,CF,NMM,64601,FEFO,5.9667,15.6333,1019.0,Asia/Colombo,1952-01-01,2021-01-01,40721.739567482706
23968,Sabang / Cut Bau,ID,AC,96001,WIAA,5.8667,95.3167,126.0,Asia/Pontianak,1958-01-01,2021-01-01,38033.86186078662
23975,Kota Bharu,MY,KN,48615,WMKC,6.1667,102.2833,5.0,Asia/Kuala_Lumpur,1960-01-01,2022-01-01,36397.677524787476
23989,Kota Kinabalu,MY,SB,96471,WBKK,5.9333,116.05,3.0,Asia/Kuching,1955-01-01,2022-01-01,9251.174607089877
24140,Acajutla,SV,SO,78650,MSAC,13.5667,-89.8333,15.0,America/El_Salvador,1969-01-01,2021-01-01,65545.65777291272
24167,Ciudad Bolivar,VE,B,80444,SVCB,8.15,-63.55,43.0,America/Caracas,1950-01-01,2014-01-01,52273.941232509525
24172,Mabaruma,GY,BW,81100,SYMB,8.2,-59.7833,50.0,America/Guyana,2016-01-01,2021-01-01,32613.787998407945
24173,Georgetown,GY,DM,81001,SYGT,6.8,-58.15,1.0,America/Guyana,1941-01-01,2021-01-01,58082.67764381033
24223,N'Zerekore,GN,NZR,61849,GUNZ,7.7333,-8.8333,470.0,Africa/Conakry,1965-01-01,2002-01-01,34879.982661967246
24229,Sunyani,GH,BA,65439,DGSN,7.3333,-2.3333,309.0,Africa/Accra,2002-01-01,2021-01-01,52208.17505849418
24232,Ho,GH,VO,65453,DGAH,6.6,0.4667,158.0,Africa/Accra,2014-01-01,2020-01-01,68070.40561652223
24233,Atakpame,TG,PL,65376,DXAK,7.5833,1.1167,400.0,Africa/Lome,1947-01-01,2021-01-01,48085.52685657414
24234,Bohicon,BJ,ZO,65338,DBBC,7.1667,2.0667,166.0,Africa/PortoNovo,1953-01-01,2021-01-01,19943.958247600553
24241,Makurdi,NG,BN,65271,DNMK,7.6833,8.6167,113.0,Africa/Lagos,1953-01-01,2000-01-01,54980.52564338687
24245,Ngaoundere,CM,AD,64870,FKKN,7.35,13.5667,1114.0,Africa/Douala,1952-01-01,2021-01-01,61642.45726189364
24247,Meiganga,CM,AD,64882,FKAM,6.5333,14.3667,1027.0,Africa/Douala,1983-01-01,1995-01-01,87081.13534854441
24268,Jimma,ET,CN,63402,HAJM,7.6667,36.8333,1676.0,Africa/Addis_Ababa,1952-01-01,2021-01-01,41361.15039796769
24308,Thiruvananthapuram,IN,KL,43372,VOTV,8.4667,76.95,4.0,Asia/Kolkata,1955-01-01,2022-01-01,52185.569868146646
24337,Ca Mau,VN,CM,48914,VVCM,9.1667,105.1667,3.0,Asia/Ho_Chi_Minh,1957-01-01,2022-01-01,26050.284641744947
24518,Cucuta / Camilo Daza,CO,NDS,80097,SKCC,7.9333,-72.5167,250.0,America/Bogota,1968-01-01,2021-01-01,53736.13768600289
24520,Merida,VE,L,80438,SVMD,8.6,-71.1833,1479.0,America/Caracas,1950-01-01,2016-01-01,48826.14376414267
24522,Guanare,VE,P,80428,SVGU,9.0167,-69.7333,163.0,America/Caracas,1975-01-01,2021-01-01,29348.70473734916
24574,Conakry / Gbessia,GN,CNK,61832,GUCY,9.5667,-13.6167,26.0,Africa/Conakry,1940-01-01,2020-01-01,63917.73263159618
24581,Macenta,GN,MCT,61847,GUMA,8.5333,-9.4667,543.0,Africa/Conakry,1945-01-01,1994-01-01,72962.60073801767
24585,Bouake,CI,BKE,65555,DIBK,7.7333,-5.0667,376.0,Africa/Abidjan,1945-01-01,2021-01-01,30552.196009721123
24588,Bondoukou,CI,BDK,65545,DIBU,8.05,-2.7833,369.0,Africa/Abidjan,1961-01-01,2021-01-01,24499.166051723318
24589,Wenchi,GH,BA,65432,DGSW,7.75,-2.1,339.0,Africa/Accra,2014-01-01,2020-01-01,29901.35982151534
24593,Save,BJ,ZO,65335,DBBS,8.0333,2.4667,199.0,Africa/PortoNovo,1953-01-01,2022-01-01,51520.764228426095
24606,Moundou,TD,LC,64706,FTTD,8.6167,16.0667,428.0,Africa/Ndjamena,1950-01-01,2021-01-01,43246.599215638904
24609,Sarh,TD,MC,64750,FTTA,9.15,18.3833,365.0,Africa/Ndjamena,1949-01-01,2021-01-01,45272.008877787244
24627,Gore,ET,CN,63403,HAGR,8.1667,35.55,1974.0,Africa/Addis_Ababa,1914-01-01,2021-01-01,52894.76836987195
24672,Trincomalee,LK,EA,43418,VCCT,8.5833,81.25,3.0,Asia/Colombo,1950-01-01,2021-01-01,53866.86249690516
24688,Phuket Airport,TH,PU,48565,VTSP,8.1167,98.3167,6.0,Asia/Bangkok,1952-01-01,2022-01-01,37204.097634527934
24692,Songkhla,TH,SG,48568,VTSH,7.2,100.6,4.0,Asia/Bangkok,1943-01-01,2021-01-01,99281.47968979688
24699,Phan Thiet,VN,BT,48887,VVPT,10.9333,108.1,8.0,Asia/Ho_Chi_Minh,1957-01-01,2021-01-01,13197.570884405352
24806,Hilo International Airport,US,HI,91285,PHTO,19.7167,-155.05,12.0,Pacific/Honolulu,1949-01-01,2022-01-01,31932.581126547168
24874,Monteria / Los Garzones,CO,COR,80063,SKMR,8.8167,-75.85,20.0,America/Bogota,1975-01-01,2021-01-01,26209.784066758988
24942,Odienne,CI,ODI,65528,DIOD,9.5,-7.5667,434.0,Africa/Abidjan,1950-01-01,2021-01-01,73115.47187890147
24944,Korhogo,CI,KOR,65536,DIKO,9.4167,-5.6167,381.0,Africa/Abidjan,1971-01-01,2021-01-01,62585.53716724117
24946,Bole,GH,NO,65416,DGLB,9.0333,-2.4833,299.0,Africa/Accra,2014-01-01,2020-01-01,53205.426144542966
24949,Tamale,GH,NO,65418,DGLE,9.5,-0.85,168.0,Africa/Accra,1953-01-01,2021-01-01,57976.67278529711
24951,Sokode,TG,CE,65361,DXSK,8.9833,1.15,386.0,Africa/Lome,1945-01-01,2022-01-01,16578.5960780628
24952,Parakou,BJ,BO,65330,DBBP,9.35,2.6167,392.0,Africa/PortoNovo,1966-01-01,2021-01-01,57314.81684204215
24954,Ilorin,NG,KW,65101,DNIL,8.4833,4.5833,308.0,Africa/Lagos,1953-01-01,2022-01-01,73473.33569090549
24959,Jos,NG,PL,65134,DNJO,9.8667,8.9,1295.0,Africa/Lagos,1953-01-01,2000-01-01,18429.97262435604
24962,Yola,NG,AD,65167,DNYO,9.2333,12.4667,191.0,Africa/Lagos,1953-01-01,2019-01-01,57431.87088125851
24963,Garoua,CM,NO,64860,FKKR,9.3333,13.3833,242.0,Africa/Douala,1952-01-01,2022-01-01,56071.21872972861
24965,Pala,TD,MK,64709,FTTP,9.3667,14.9167,467.0,Africa/Ndjamena,1952-01-01,2021-01-01,41787.84923811723
24988,Addis Ababa,ET,CN,63450,HAAB,8.9833,38.8,2355.0,Africa/Addis_Ababa,1898-01-01,2021-01-01,22044.045654451624
24992,Dire Dawa,ET,DD,63471,HADR,9.6,41.8667,1146.0,Africa/Addis_Ababa,1952-01-01,2021-01-01,46814.784312124604
25049,Surat Thani,TH,ST,48551,VTSB,9.1167,99.35,10.0,Asia/Bangkok,1951-01-01,2021-01-01,40564.41767149231
25053,Phu Quoc,VN,KG,48917,VVPQ,10.2167,103.9667,3.0,Asia/Ho_Chi_Minh,1957-01-01,2022-01-01,24370.11811501239
25062,Nha Trang,VN,KH,48877,VVNT,12.25,109.2,10.0,Asia/Ho_Chi_Minh,1953-01-01,2022-01-01,35291.940204358856
25071,Cuyo,PH,PLW,98630,RPLO,10.85,121.0333,3.0,Asia/Manila,1989-01-01,1997-01-01,17070.887185650663
25074,Tagbilaran,PH,BOH,98644,RPVT,9.6,123.85,7.0,Asia/Manila,1974-01-01,2021-01-01,68717.40110281244
25226,Puerto Limon,CR,L,78767,MRLM,10.0,-83.05,5.0,America/Costa_Rica,1949-01-01,2022-01-01,5475.281287520135
25233,Cartagena / Rafael Nunez,CO,BOL,80022,SKCG,10.45,-75.5167,1.0,America/Bogota,1964-01-01,2022-01-01,72806.5458941753
25235,Valledupar / Alfonso Lopez,CO,CES,80036,SKVP,10.4333,-73.25,138.0,America/Bogota,1978-01-01,2021-01-01,55406.134217457744
25239,Barquisimeto,VE,K,80410,SVBM,10.0667,-69.3167,613.0,America/Caracas,1959-01-01,2021-01-01,35461.13770151973
25244,Barcelona,VE,B,80419,SVBC,10.1167,-64.6833,7.0,America/Caracas,1954-01-01,2020-01-01,37022.78805728595
25246,Maturin,VE,N,80435,SVMT,9.75,-63.1833,65.0,America/Caracas,1975-01-01,2014-01-01,34292.52663432429
25294,Boke,GN,BOK,61816,GUOK,10.9333,-14.3167,69.0,Africa/Conakry,1945-01-01,1996-01-01,35358.921554626046
25296,Kindia,GN,KND,61818,GUID,10.05,-12.8667,458.0,Africa/Conakry,1945-01-01,2021-01-01,15619.00322432574
25298,Faranah / Badala,GN,FRN,61833,GUFH,10.0333,-10.75,458.0,Africa/Conakry,1976-01-01,2003-01-01,27624.28942911687
25300,Kankan,GN,KNK,61829,GUXD,10.3833,-9.3,377.0,Africa/Conakry,1944-01-01,1996-01-01,53800.512072561454
25305,Gaoua,BF,SO,65522,DFOG,10.3333,-3.1833,333.0,Africa/Ouagadougou,1945-01-01,2022-01-01,42142.85622135287
25307,Wa,GH,UW,65404,DGLW,10.05,-2.5,323.0,Africa/Accra,1997-01-01,2021-01-01,55030.161457521484
25311,Natitingou,BJ,AK,65319,DBBN,10.3167,1.3833,460.0,Africa/PortoNovo,1945-01-01,2022-01-01,76132.91768172792
25326,Bousso,TD,CB,64705,FTTS,10.4833,16.7167,334.0,Africa/Ndjamena,1953-01-01,1978-01-01,62040.397324756246
25329,Am-Timan,TD,SA,64754,FTTN,11.0333,20.2833,433.0,Africa/Ndjamena,1952-01-01,2013-01-01,31141.916881114696
25415,Ho Chi Minh,VN,HC,48900,VVTS,10.8167,106.6667,19.0,Asia/Ho_Chi_Minh,1949-01-01,2022-01-01,41710.614401840285
25433,Mactan,PH,CEB,98646,RPMT,10.3,123.9667,23.0,Asia/Manila,1965-01-01,2022-01-01,33557.009557866644
25435,Surigao,PH,SUN,98653,RPWS,9.8,125.5,54.0,Asia/Manila,1949-01-01,2021-01-01,59112.39662114463
25587,San Andres Isla / Sesquicentenario,CO,SAP,80001,SKSP,12.5833,-81.7167,1.0,America/Bogota,1962-01-01,2022-01-01,55593.352300809136
25593,Barranquilla / Ernestocortissoz,CO,ATL,80028,SKBQ,10.8833,-74.7833,14.0,America/Bogota,1941-01-01,2022-01-01,26983.035620826737
25595,Riohacha / Almirante Padilla,CO,GJR,80035,SKRH,11.5333,-72.9333,4.0,America/Bogota,1978-01-01,2021-01-01,52400.15846193764
25596,Maracaibo-La Chinita,VE,V,80407,SVMC,10.5667,-71.7333,66.0,America/Caracas,1950-01-01,2020-01-01,56303.247356325184
25601,Caracas / Maiquetia Aerop. Intl. Simon Bolivar,VE,A,80415,SVMI,10.6,-66.9833,43.0,America/Caracas,1973-01-01,2021-01-01,44515.357647338154
25655,Labe,GN,LAB,61809,GULB,11.3167,-12.3,1025.0,Africa/Conakry,1945-01-01,1997-01-01,48075.32872647631
25660,Bougouni,ML,SK,61296,GABG,11.4167,-7.5,350.0,Africa/Bamako,1961-01-01,2022-01-01,71562.5541177672
25662,Sikasso,ML,SK,61297,GASK,11.35,-5.6833,374.0,Africa/Bamako,1957-01-01,2021-01-01,52040.08460536305
25663,Bobo-Dioulasso,BF,HB,65510,DFOO,11.1667,-4.3167,460.0,Africa/Ouagadougou,1949-01-01,2021-01-01,39215.90646488086
25667,Navrongo,GH,UE,65401,DGLN,10.9,-1.1,201.0,Africa/Accra,2009-01-01,2017-01-01,15582.840698387534
25671,Kandi,BJ,BO,65306,DBBK,11.1333,2.9333,290.0,Africa/PortoNovo,1949-01-01,2022-01-01,16513.04864465872
25672,Gaya,NE,DS,61099,DRRG,11.8833,3.45,202.0,Africa/Niamey,1971-01-01,2022-01-01,28252.626475892917
25679,Maiduguri,NG,BO,65082,DNMA,11.85,13.0833,354.0,Africa/Lagos,1943-01-01,2010-01-01,18982.31904587018
25686,Mongo,TD,GU,64758,FTTM,12.1833,18.6833,427.0,Africa/Ndjamena,1950-01-01,2012-01-01,40014.19211692393
25692,Nyala,SD,SF,62790,HSNL,12.05,24.8833,67.0,Africa/Khartoum,1961-01-01,2021-01-01,96223.95836372547
25707,Combolcha,ET,CN,63333,HADC,11.0833,39.7167,1864.0,Africa/Addis_Ababa,1952-01-01,2021-01-01,32275.999691177767
25773,Phnom-Penh / Pochentong,KH,KL,48991,VDPP,11.55,104.85,10.0,Asia/Phnom_Penh,1949-01-01,2022-01-01,63306.90527882499
25793,Tacloban,PH,LEY,98550,RPVA,11.25,125.0,2.0,Asia/Manila,1944-01-01,2021-01-01,27798.731661139722
25941,Managua A. C. Sandino,NI,MN,78741,MNMG,12.15,-86.1667,50.0,America/Managua,1942-01-01,2022-01-01,24632.323019417327
25942,Juigalpa,NI,CT,78735,MNJU,12.1,-85.3667,90.0,America/Managua,1979-01-01,2022-01-01,41398.02023196039
26011,Bissau Aeroport,GW,BS,61766,GGOV,11.8833,-15.65,39.0,Africa/Bissau,1961-01-01,2021-01-01,40226.46312418034
26012,Bafata,GW,BA,61781,GGBF,12.1667,-14.6667,42.0,Africa/Bissau,1976-01-01,1998-01-01,40705.49464036222
26014,Kedougou,SN,TA,61699,GOTK,12.5667,-12.2167,178.0,Africa/Dakar,1967-01-01,2021-01-01,53605.70137571554
26016,Kenieba,ML,KY,61285,GAKA,12.85,-11.2333,132.0,Africa/Bamako,1961-01-01,2022-01-01,30290.309772211564
26019,Bamako / Senou,ML,BKO,61291,GABS,12.5333,-7.95,380.0,Africa/Bamako,1975-01-01,2022-01-01,52177.18034960348
26021,Koutiala,ML,SK,61293,GAKO,12.3833,-5.4667,365.0,Africa/Bamako,1961-01-01,2022-01-01,66253.23743849547
26024,Boromo,BF,BO,65516,DFCO,11.75,-2.9333,270.0,Africa/Ouagadougou,1961-01-01,2022-01-01,28730.603882536758
26025,Ouagadougou,BF,CT,65503,DFFD,12.35,-1.5167,316.0,Africa/Ouagadougou,1949-01-01,2021-01-01,65377.40645615249
26027,Fada N'Gourma,BF,ES,65507,DFEF,12.0333,0.3667,308.0,Africa/Ouagadougou,1945-01-01,2022-01-01,40053.198149245785
26035,Kano,NG,KN,65046,DNKN,12.05,8.5333,476.0,Africa/Lagos,1943-01-01,2022-01-01,51059.52474971718
26038,Maine-Soroa,NE,DF,61096,DRZM,13.2333,11.9833,338.0,Africa/Niamey,1937-01-01,2021-01-01,26004.739105146487
26042,Ndjamena,TD,CB,64700,FTTJ,12.1333,15.0333,295.0,Africa/Ndjamena,1949-01-01,2021-01-01,15258.164079911066
26044,Bokoro,TD,CB,64708,FTTK,12.3833,17.05,300.0,Africa/Ndjamena,1961-01-01,1999-01-01,42966.06855904471
26049,Geneina,SD,WF,62770,HSGN,13.4833,22.45,805.0,Africa/Khartoum,1943-01-01,2021-01-01,72528.8272819498
26069,Djibouti,DJ,J,63125,HFFF,11.55,43.15,13.0,Africa/Djibouti,1964-01-01,2005-01-01,52634.430827394746
26114,Port Blair,IN,AN,43333,VEPB,11.6667,92.7167,73.0,Asia/Kolkata,1901-01-01,2021-01-01,86356.70106416079
26366,Dakar / Yoff,SN,DA,61641,GOOY,14.7333,-17.5,27.0,Africa/Dakar,1943-01-01,2022-01-01,61376.29659060589
26367,Banjul / Yundum,GM,WE,61701,GBYD,13.35,-16.8,36.0,Africa/Banjul,1949-01-01,2021-01-01,44536.56645466801
26370,Ziguinchor,SN,ZI,61695,GOGG,12.55,-16.2667,26.0,Africa/Dakar,1950-01-01,2021-01-01,57794.691251652584
26371,Kolda,SN,KO,61698,GOGK,12.8833,-14.9667,10.0,Africa/Dakar,1963-01-01,2021-01-01,13468.89621958612
26372,Tambacounda,SN,TA,61687,GOTT,13.7667,-13.6833,49.0,Africa/Dakar,1950-01-01,2021-01-01,42915.0474007125
26376,Kita,ML,KY,61270,GAKT,13.0667,-9.4667,333.0,Africa/Bamako,1961-01-01,2022-01-01,51098.91126484346
26379,Segou,ML,SG,61272,GASG,13.4,-6.15,288.0,Africa/Bamako,1957-01-01,2022-01-01,47349.54374982426
26381,San,ML,SG,61277,GASN,13.3333,-4.8333,283.0,Africa/Bamako,1961-01-01,2022-01-01,41222.56270245105
26384,Ouahigouya,BF,NO,65502,DFCC,13.5667,-2.4167,337.0,Africa/Ouagadougou,1963-01-01,2022-01-01,65927.47480892787
26388,Niamey-Aero,NE,NI,61052,DRRN,13.4833,2.1667,223.0,Africa/Niamey,1940-01-01,2021-01-01,56688.649645623635
26393,Maradi,NE,MA,61080,DRRM,13.4667,7.0833,372.0,Africa/Niamey,1945-01-01,2021-01-01,52672.1479472936
26400,Bol-Berim,TD,LA,64702,FTTL,13.4333,14.7333,291.0,Africa/Ndjamena,1969-01-01,2005-01-01,56168.21611781217
26404,Ati,TD,BA,64751,FTTI,13.2167,18.3167,333.0,Africa/Ndjamena,1953-01-01,2012-01-01,41916.02522877612
26406,Abeche,TD,OU,64756,FTTC,13.85,20.85,545.0,Africa/Ndjamena,1949-01-01,2020-01-01,23243.979160976993
26411,El Fasher,SD,ND,62760,HSFS,13.6167,25.3333,733.0,Africa/Khartoum,1943-01-01,2021-01-01,55783.85162073092
26416,El Obeid,SD,NK,62771,HSOB,13.1667,30.2333,574.0,Africa/Khartoum,1949-01-01,2021-01-01,31338.166349576666
26423,Gondar,ET,CN,63331,HAGN,12.5333,37.4333,1985.0,Africa/Addis_Ababa,1952-01-01,2021-01-01,70007.6356044676
26449,Masirah,OM,SH,41288,OOMA,20.6667,58.9,19.0,Asia/Muscat,1943-01-01,2021-01-01,38490.79126405822
26461,Mangalore / Bajpe,IN,KA,43284,VOML,12.9167,74.8833,102.0,Asia/Kolkata,1956-01-01,2022-01-01,15675.311792033566
26465,Vellore,IN,TN,43303,VOVR,12.9167,79.15,213.0,Asia/Kolkata,1901-01-01,2020-01-01,18708.353036337026
26466,Madras / Minambakkam,IN,TN,43279,VOMM,13.0,80.1833,10.0,Asia/Kolkata,1901-01-01,2022-01-01,19859.63951555599
26488,Chanthaburi,TH,CT,48480,VTBC,12.6,102.1167,3.0,Asia/Bangkok,1949-01-01,2021-01-01,46242.9691849733
26496,Quy Nhon,VN,BH,48870,VVQN,13.7667,109.2167,6.0,Asia/Ho_Chi_Minh,1957-01-01,2022-01-01,34930.80102112671
26535,"Saipan Island, Saipan International Airport",US,SA,91232,PGSN,15.1167,145.7333,66.0,Pacific/Saipan,1944-01-01,2022-01-01,31440.20164946323
26656,San Salvador / Ilopango,SV,SS,78663,MSSS,13.7,-89.1167,616.0,America/El_Salvador,1956-01-01,2022-01-01,35658.47224181993
26658,Tegucigalpa,HN,FM,78720,MHTG,14.05,-87.2167,994.0,America/Tegucigalpa,1951-01-01,2022-01-01,24029.666366473317
26729,Kaolack,SN,KA,61679,GOOK,14.1333,-16.0667,6.0,Africa/Dakar,1963-01-01,2021-01-01,16475.98388942327
26733,Kayes,ML,KY,61257,GAKY,14.4333,-11.4333,47.0,Africa/Bamako,1949-01-01,2022-01-01,67102.50743149205
26741,Mopti,ML,MP,61265,GAMB,14.5167,-4.1,276.0,Africa/Bamako,1949-01-01,2021-01-01,54805.66397603624
26744,Dori,BF,SEN,65501,DFEE,14.0333,-0.0333,276.0,Africa/Ouagadougou,1961-01-01,2022-01-01,5159.168370310618
26746,Tillabery,NE,TL,61036,DRRL,14.2,1.45,209.0,Africa/Niamey,1933-01-01,2021-01-01,53383.02552568962
26750,Birni-N'Konni,NE,TH,61075,DRRB,13.8,5.25,272.0,Africa/Niamey,1938-01-01,2021-01-01,34967.768852635214
26753,Zinder,NE,ZI,61090,DRZR,13.7833,8.9833,452.0,Africa/Niamey,1906-01-01,2021-01-01,24163.275181144818
26760,Mao,TD,KA,64701,FTTU,14.1167,15.3167,355.0,Africa/Ndjamena,1952-01-01,2014-01-01,36542.30869711009
26844,Kanchanaburi,TH,KN,48450,VTBG,14.0167,99.5333,28.0,Asia/Bangkok,1951-01-01,2021-01-01,57566.63780405394
26846,Prachin Buri,TH,PB,48430,VTBI,14.05,101.3667,5.0,Asia/Bangkok,1951-01-01,2021-01-01,39948.44427964681
26869,Virac,PH,CAT,98446,RPUV,13.5833,124.2333,39.0,Asia/Manila,1959-01-01,2021-01-01,52741.36971151156
27016,La Mesa San Pedro Sula,HN,CR,78708,MHLM,15.45,-87.9333,31.0,America/Tegucigalpa,1954-01-01,2021-01-01,50546.87646550363
27020,Puerto Lempira,HN,GD,78711,MHPL,15.2167,-83.8,13.0,America/Tegucigalpa,1967-01-01,2020-01-01,32273.625183331667
27026,Kingston / Norman Manley,JM,KIN,78397,MKJP,17.9333,-76.7833,3.0,America/Jamaica,1942-01-01,2022-01-01,24091.003055793444
27088,Diourbel,SN,DI,61666,GOOD,14.65,-16.2333,7.0,Africa/Dakar,1963-01-01,2021-01-01,46298.412450906275
27089,Linguere,SN,LO,61627,GOOG,15.3833,-15.1167,20.0,Africa/Dakar,1933-01-01,2021-01-01,44422.68916288651
27090,Matam,SN,SL,61630,GOSM,15.65,-13.25,15.0,Africa/Dakar,1964-01-01,2021-01-01,47222.10887432192
27095,Nioro Du Sahel,ML,KY,61230,GANR,15.2333,-9.35,235.0,Africa/Bamako,1961-01-01,2022-01-01,45657.34500024456
27108,Tahoua,NE,TH,61043,DRRT,14.9,5.25,386.0,Africa/Niamey,1937-01-01,2022-01-01,29068.595347133367
27135,Khartoum,SD,KRT,62721,HSSS,15.6,32.55,382.0,Africa/Khartoum,1942-01-01,2022-01-01,65547.15383912859
27160,Salalah,OM,JA,41316,OOSA,17.0333,54.0833,20.0,Asia/Muscat,1943-01-01,2022-01-01,9599.868875396198
27200,Yangon,MM,YG,48097,VYYY,16.7667,96.1667,14.0,Asia/Rangoon,1949-01-01,2022-01-01,31425.86739405221
27206,Nakhon Ratchasima,TH,NR,48431,VTUN,14.9667,102.0833,187.0,Asia/Bangkok,1949-01-01,2021-01-01,9683.52043515878
27370,"Tuxtla Gutierrez, Chis.",MX,CHP,76843,MMTG,16.75,-93.1167,528.0,America/Merida,1973-01-01,2022-01-01,30446.15085705569
27371,"Comitan, Chis.",MX,CHP,76848,MMCO,16.25,-92.1333,1646.0,America/Merida,1989-01-01,2022-01-01,31233.35334556605
27376,La Ceiba Airport,HN,AT,78705,MHLC,15.7333,-86.8667,3.0,America/Tegucigalpa,1971-01-01,2022-01-01,32904.97574390295
27384,Montego Bay / Sangster,JM,JAM,78388,MKJS,18.5,-77.9167,1.0,America/Jamaica,1962-01-01,2022-01-01,56285.053830825775
27391,Barahona,DO,BH,78482,MDBH,18.2,-71.1,3.0,America/Santo_Domingo,1973-01-01,2021-01-01,24622.78251313346
27446,Saint-Louis,SN,SL,61600,GOSS,16.05,-16.45,4.0,Africa/Dakar,1949-01-01,2021-01-01,48413.60280444553
27470,Agadez,NE,AG,61024,DRZA,16.9667,7.9833,501.0,Africa/Niamey,1937-01-01,2021-01-01,4106.6703165525505
27481,Faya,TD,BE,64753,FTTY,18.0,19.1667,235.0,Africa/Ndjamena,1949-01-01,2020-01-01,17628.96775560926
27497,Shendi,SD,ASH,62700,HSND,16.7,33.4333,360.0,Africa/Khartoum,1969-01-01,1975-01-01,56913.242307549306
27538,Belgaum / Sambra,IN,KA,43198,VABM,15.85,74.6167,758.0,Asia/Kolkata,1953-01-01,2021-01-01,44249.175643299386
27563,Nakhon Sawan,TH,NS,48400,VTPN,15.8,100.1667,34.0,Asia/Bangkok,1949-01-01,2021-01-01,28502.18985044863
27567,Roi Et,TH,RE,48405,VTUR,16.05,103.6833,140.0,Asia/Bangkok,1951-01-01,2021-01-01,34300.58969711691
27568,Mukdahan,TH,MD,48383,VTUB,16.5333,104.7167,138.0,Asia/Bangkok,1951-01-01,2021-01-01,66565.73986552129
27569,Saravane,LA,SL,48952,VLSV,15.6833,106.4333,168.0,Asia/Vientiane,1993-01-01,2021-01-01,58210.99748579734
27571,Da Nang,VN,DA,48855,VVDN,16.0333,108.1833,7.0,Asia/Ho_Chi_Minh,1949-01-01,2022-01-01,19937.685336089744
27723,"Chilpancingo, Gro.",MX,GRO,76762,MMCH,17.55,-99.5,1865.0,America/Mexico_City,1989-01-01,2022-01-01,72847.47858798997
27734,Belize / Phillip Goldston Intl. Airport,BZ,BZ,78583,MZBZ,17.5333,-88.3,5.0,America/Belize,1961-01-01,2021-01-01,60845.90926963866
27799,Sal,CV,SL,08594,GVAC,16.7333,-22.95,54.0,Atlantic/Cape_Verde,1963-01-01,2021-01-01,30129.19316774729
27807,Podor,SN,SL,61612,GOSP,16.65,-14.9667,6.0,Africa/Dakar,1857-01-01,2021-01-01,39079.27972097964
27833,Bilma,NE,AG,61017,DRRI,18.6833,12.9167,355.0,Africa/Niamey,1937-01-01,2021-01-01,36290.11947868015
27850,Dongola,SD,ASH,62650,HSDN,19.1667,30.4833,226.0,Africa/Khartoum,1968-01-01,2021-01-01,54064.03834823913
27896,Kolhapur,IN,MM,43157,VAKP,16.7,74.2333,569.0,Asia/Kolkata,1901-01-01,2021-01-01,41583.849597011584
27903,Vijayawada / Gannavaram,IN,AP,43181,VOBZ,16.5333,80.8,21.0,Asia/Kolkata,1951-01-01,2022-01-01,56093.396585486895
27921,Tak,TH,TK,48376,VTPT,16.8833,99.15,121.0,Asia/Bangkok,1954-01-01,2021-01-01,20566.056020660184
27927,Seno,LA,SV,48948,VLIS,16.6667,105.0,0.0,Asia/Vientiane,1954-01-01,2021-01-01,37061.269050631796
27928,Dong Hoi,VN,QB,48848,VVDH,17.5167,106.5833,8.0,Asia/Ho_Chi_Minh,1976-01-01,2022-01-01,69535.81729525904
27940,Vigan,PH,ILS,98222,RPUQ,17.5667,120.3833,31.0,Asia/Manila,1988-01-01,2021-01-01,75013.17681660224
27943,Baguio,PH,BEN,98328,RPUB,16.4167,120.6,1500.0,Asia/Manila,1954-01-01,2021-01-01,77598.78158904487
27944,Tuguegarao,PH,CAG,98233,RPUT,17.6167,121.7333,61.0,Asia/Manila,1974-01-01,2021-01-01,51124.81673666535
28086,"Coatzacoalcos, Ver.",MX,VER,76741,MMMT,18.15,-94.4167,23.0,America/Mexico_City,1954-01-01,2021-01-01,47100.447150946755
28162,Nouakchott,MR,TR,61442,GQNN,18.1,-15.95,2.0,Africa/Bamako,1945-01-01,2021-01-01,12312.038649673155
28246,Porbandar,IN,GJ,42830,VAPR,21.65,69.6667,5.0,Asia/Kolkata,1961-01-01,2021-01-01,99964.17665563915
28257,Sholapur,IN,MM,43117,VASL,17.6667,75.9,477.0,Asia/Kolkata,1901-01-01,2021-01-01,38543.27481074151
28272,Sittwe,MM,RK,48062,VYSW,20.1333,92.8833,4.0,Asia/Rangoon,1945-01-01,2022-01-01,19190.217165982176
28281,Phrae,TH,PR,48330,VTCP,18.1667,100.1667,161.0,Asia/Bangkok,1952-01-01,2021-01-01,25574.91605461378
28283,Vientiane,LA,NH,48940,VLVT,17.95,102.5667,171.0,Asia/Vientiane,1949-01-01,2021-01-01,60195.79902951801
28301,Laoag,PH,ILN,98223,RPLI,18.1833,120.5333,4.0,Asia/Manila,1945-01-01,2022-01-01,53373.948977236134
28312,Minamidaitojima,JP,ON,47945,ROMD,25.8333,131.2333,16.0,Asia/Tokyo,1942-01-01,2022-01-01,29799.509873332303
28360,"Sand Island, Henderson Field Airport",US,HI,91066,PMDY,28.2167,-177.3667,4.0,Pacific/Midway,1945-01-01,2022-01-01,43291.68017190884
28437,Colima,MX,COL,76658,MMIA,19.2667,-103.5833,723.0,America/Mexico_City,1989-01-01,2022-01-01,68075.84477492396
28441,"Cuernavaca, Mor.",MX,MOR,76726,MMCB,18.8833,-99.2333,1618.0,America/Mexico_City,1998-01-01,2021-01-01,27757.03838516911
28442,"Puebla, Pue.",MX,PUE,76685,MMPB,19.05,-98.1667,2179.0,America/Mexico_City,1988-01-01,2022-01-01,18384.50791398058
28450,"Campeche, Camp.",MX,CAM,76695,MMCP,19.85,-90.55,5.0,America/Merida,1991-01-01,2022-01-01,49911.768528561865
28451,"Chetumal, Q. Roo",MX,ROO,76750,MMCM,18.4833,-88.3,9.0,America/Merida,1949-01-01,2022-01-01,93455.9689194765
28475,C. Amalie / St. Thomas Airport,VI,W,78543,TIST,18.3333,-64.9833,7.0,America/St_Thomas,1953-01-01,2022-01-01,74154.52908721883
28520,Nouadhibou,MR,DN,61415,GQPP,20.9333,-17.0333,5.0,Africa/Bamako,1949-01-01,2021-01-01,8183.069822948567
28613,Bombay / Santacruz,IN,MM,43003,VABB,19.1167,72.85,8.0,Asia/Kolkata,1949-01-01,2022-01-01,20418.69342945949
28637,Mae Hong Son,TH,KH,48300,VTCH,19.3,97.8333,267.0,Asia/Bangkok,1951-01-01,2021-01-01,37674.96752337615
28642,Sayaboury,LA,XA,48938,VLSB,19.2333,101.7333,326.0,Asia/Vientiane,1969-01-01,2021-01-01,38185.215388561366
28661,Aparri,PH,CAG,98232,RPUA,18.3667,121.6333,2.0,Asia/Manila,1949-01-01,2022-01-01,80317.642947157
28669,Miyakojima,JP,ON,47927,ROMY,24.7833,125.2833,40.0,Asia/Tokyo,1938-01-01,2022-01-01,76200.27267511515
28773,"Ciudad Constitucion, B. C. S.",MX,BCS,76402,MMDA,25.0,-111.6667,48.0,America/Hermosillo,1995-01-01,2021-01-01,33588.90827926606
28797,"Zamora, Mich.",MX,MIC,76662,MMZM,19.9833,-102.3167,1562.0,America/Mexico_City,1998-01-01,2021-01-01,33145.49088629426
28799,"Queretaro, Qro.",MX,QUE,76625,MMQT,20.6,-100.3833,1813.0,America/Mexico_City,1995-01-01,2022-01-01,59714.001969902725
28801,Tulancingo,MX,HID,76634,MMTL,20.0833,-98.3667,2181.0,America/Mexico_City,1991-01-01,2022-01-01,39409.92680740831
28886,Atar,MR,AD,61421,GQPA,20.5167,-13.0667,226.0,Africa/Nouakchott,1943-01-01,2020-01-01,54186.15406112329
28999,Chiang Rai,TH,CR,48303,VTCR,19.9167,99.8333,394.0,Asia/Bangkok,1951-01-01,2021-01-01,19732.028574371274
29000,Ban Houayxay / Houeisay / Ban Houei Sai / Ban Tinpha,LA,BK,48926,VLHS,20.25,100.4333,421.0,Asia/Vientiane,1974-01-01,1975-01-01,65371.758559207614
29001,Luang-Prabang,LA,LP,48930,VLLB,19.8833,102.1333,305.0,Asia/Vientiane,1954-01-01,2021-01-01,19040.268046685742
29009,Haikou,CN,HA,59758,ZGHK,20.0333,110.35,15.0,Asia/Chongqing,1951-01-01,2022-01-01,36754.28474779997
29101,"Kaunakakai, Molokai Airport",US,HI,91186,PHMK,21.15,-157.1,138.0,Pacific/Honolulu,1949-01-01,2022-01-01,19643.12592020108
29151,"Tepic, Nay.",MX,NAY,76556,MMEP,21.5167,-104.9,922.0,America/Mazatlan,1968-01-01,2021-01-01,54723.79915642232
29160,Tuxpan. Ver.,MX,VER,76640,MMTX,20.95,-97.4,28.0,America/Mexico_City,1973-01-01,2022-01-01,41901.19223162637
29268,Djanet,DZ,ILL,60670,DAAJ,24.55,9.4667,1054.0,Africa/Algiers,1966-01-01,2021-01-01,68730.54061431745
29337,Nagpur Sonegaon,IN,MM,42867,VANP,21.1,79.05,308.0,Asia/Kolkata,1943-01-01,2022-01-01,12270.534722978928
29371,Taipa,MO,MA,45011,VMMC,22.1667,113.5667,114.0,Asia/Macau,1952-01-01,2022-01-01,61262.78333887065
29379,Itbayat,PH,BTN,98132,RPLT,20.8,121.85,123.0,Asia/Manila,1992-01-01,2021-01-01,27154.46927425102
29458,Lihue Airport,US,HI,91165,PHLI,21.9833,-159.3333,45.0,Pacific/Honolulu,1950-01-01,2022-01-01,34414.7616605625
29515,"Aguascalientes, Ags.",MX,AGU,76571,MMAS,21.8833,-102.3,1874.0,America/Mexico_City,1983-01-01,2022-01-01,33553.00580787228
29516,"San Luis Potosi, S. L. P.",MX,SLP,76539,MMSP,22.15,-100.9833,1870.0,America/Mexico_City,1973-01-01,2022-01-01,16767.774336516923
29655,Jeddah King Abdul Aziz International Airport,SA,ML,41024,OEJN,21.7,39.1833,15.0,Asia/Riyadh,1978-01-01,2022-01-01,38349.32156439424
29659,Muwaih,SA,ML,41006,OEMH,22.4333,41.75,0.0,Asia/Riyadh,1995-01-01,1999-01-01,54622.97894692216
29688,Rajkot,IN,GJ,42737,VARK,22.3,70.7833,134.0,Asia/Kolkata,1901-01-01,2021-01-01,40135.572498424044
29689,Bhaunagar,IN,GJ,42838,VABV,21.75,72.2,5.0,Asia/Kolkata,1901-01-01,2021-01-01,34622.035144811016
29693,Khandwa,IN,MP,42855,VAKD,21.8333,76.3667,317.0,Asia/Kolkata,1901-01-01,1970-01-01,42125.60066115412
29711,Mandalay,MM,MD,48042,VBRM,21.9833,96.1,74.0,Asia/Rangoon,1949-01-01,2021-01-01,10476.309435315325
29970,Tindouf,DZ,TIN,60656,DAOF,27.6667,-8.1333,431.0,Africa/Algiers,1943-01-01,2022-01-01,39310.849631971905
29997,Kufra,LY,KU,62271,HLKF,24.2167,23.3,417.0,Africa/Tripoli,1949-01-01,2021-01-01,38829.62827713989
30009,Asswan,EG,ASW,62414,HESN,23.9667,32.7833,200.0,Africa/Cairo,1957-01-01,2022-01-01,22324.795468699114
30014,Yenbo,SA,MD,40439,OEYN,24.15,38.0667,8.0,Asia/Riyadh,1974-01-01,2022-01-01,18001.408770698166
30038,Jiwani,PK,B,41756,OPJI,25.0667,61.8,56.0,Asia/Karachi,1944-01-01,2021-01-01,21471.503030876087
30049,Ahmadabad,IN,GJ,42647,VAAH,23.0667,72.6333,55.0,Asia/Kolkata,1901-01-01,2022-01-01,38250.39071516057
30053,Bhopal / Bairagarh,IN,MP,42667,VABP,23.2833,77.35,523.0,Asia/Kolkata,1951-01-01,2022-01-01,47676.30353970597
30056,Jabalpur,IN,MP,42675,VAJB,23.2,79.95,391.0,Asia/Kolkata,1901-01-01,2020-01-01,22819.403130509483
30061,M. O. Ranchi,IN,BR,42701,VERC,23.3167,85.3167,652.0,Asia/Kolkata,1956-01-01,2022-01-01,47837.70228276764
30084,Nanning,CN,GX,59431,ZGNN,22.8167,108.35,73.0,Asia/Chongqing,1944-01-01,2022-01-01,41237.76958661639
30089,Guangzhou,CN,GD,59287,ZGGG,23.1667,113.3333,8.0,Asia/Chongqing,1945-01-01,2022-01-01,38807.06025798145
30093,Shantou,CN,GD,59316,ZGOW,23.4,116.6833,3.0,Asia/Shanghai,1951-01-01,2022-01-01,55008.672481723224
30227,"Culiacan, Sin.",MX,SIN,76412,MMCL,24.8167,-107.4,39.0,America/Mazatlan,1973-01-01,2021-01-01,45197.34060075837
30254,Key West Airport,US,FL,72201,KEYW,24.55,-81.1,1.0,America/New_York,1948-01-01,2022-01-01,61991.51844587326
30257,Nassau Airport,BS,NW,78073,MYNN,25.05,-77.4667,3.0,America/Nassau,1955-01-01,2021-01-01,47350.48278131158
30311,Hierro / Aeropuerto,ES,CN,60001,GCHI,27.8167,-17.8833,32.0,Europe/Madrid,1973-01-01,2022-01-01,23386.424245805825
30350,Sebha,LY,SB,62124,HLLS,27.0167,14.45,435.0,Africa/Tripoli,1949-01-01,2013-01-01,44619.25524299009
30374,Madinah,SA,MD,40430,OEMA,24.55,39.7,654.0,Asia/Riyadh,1956-01-01,2022-01-01,58490.50108431852
30405,Bhuj-Rudramata,IN,GJ,42634,VABJ,23.25,69.6667,78.0,Asia/Kolkata,1955-01-01,2021-01-01,90043.58350260604
30426,Agartala,IN,TR,42724,VEAT,23.8833,91.25,15.0,Asia/Kolkata,1901-01-01,2021-01-01,28528.90786217435
30427,Kailashahar,IN,TR,42618,VEKR,24.3167,92.0,27.0,Asia/Kolkata,1945-01-01,2020-01-01,35215.433268331835
30429,Imphal Tulihal,IN,MN,42623,VEIM,24.7667,93.9,780.0,Asia/Kolkata,1945-01-01,2022-01-01,27833.93112176841
30453,Xiamen,CN,FJ,59134,ZSAM,24.4833,118.0833,139.0,Asia/Shanghai,1954-01-01,2022-01-01,54400.11761114011
30590,"Torreon, Coah.",MX,COA,76382,MMTC,25.5333,-103.45,1124.0,America/Monterrey,1949-01-01,2021-01-01,68728.96536728385
30701,Illizi,DZ,ILL,60640,DAAP,26.5,8.4167,558.0,Africa/Algiers,1986-01-01,2021-01-01,69303.96812239113
30730,Wejh,SA,TB,40400,OEWJ,26.2,36.4667,20.0,Asia/Riyadh,1967-01-01,2022-01-01,51637.11528109202
30736,Gassim,SA,QS,40405,OEGS,26.3,43.7667,648.0,Asia/Riyadh,1967-01-01,2022-01-01,40682.24542363422
30762,Hyderabad Airport,PK,S,41764,OPKD,25.3833,68.4167,40.0,Asia/Karachi,1945-01-01,2022-01-01,59787.06579297715
30770,Kota Aerodrome,IN,RJ,42452,VIKO,25.15,75.85,273.0,Asia/Kolkata,1961-01-01,2021-01-01,22503.928755868223
30775,Satna,IN,MP,42571,VIST,24.5667,80.8333,315.0,Asia/Kolkata,1901-01-01,2021-01-01,51035.269552114565
30776,Allahabad / Bamhrauli,IN,UP,42475,VIAL,25.45,81.7333,97.0,Asia/Kolkata,1942-01-01,2014-01-01,56775.83290839291
30779,Gaya,IN,BR,42591,VEGY,24.75,84.95,110.0,Asia/Kolkata,1901-01-01,2022-01-01,28252.626475892917
30782,Malda,IN,WB,42503,VEMH,25.0333,88.1333,26.0,Asia/Kolkata,1901-01-01,2021-01-01,13932.767705483293
30786,Sylhet,BD,SYL,41891,VGSY,24.9,91.8833,34.0,Asia/Dhaka,1944-01-01,2021-01-01,16188.531769852616
30791,Myitkyina,MM,KC,48008,VBMK,25.3667,97.4,145.0,Asia/Rangoon,1944-01-01,2022-01-01,57294.82857472299
30797,Kunming,CN,YN,56778,ZPPP,25.0167,102.6833,1892.0,Asia/Chongqing,1942-01-01,2022-01-01,31967.823904374807
30804,Guilin,CN,GX,57957,ZGKL,25.3333,110.3,166.0,Asia/Chongqing,1943-01-01,2022-01-01,47802.5603513371
30809,Ganzhou,CN,JX,57993,ZSGZ,25.85,114.95,125.0,Asia/Shanghai,1951-01-01,2022-01-01,17412.625257696476
30940,"Loreto, B. C. S.",MX,BCS,76305,MMLT,26.0167,-111.35,15.0,America/Hermosillo,2002-01-01,2021-01-01,35026.22987718663
30951,"Monclova, Coah.",MX,COA,76342,MMMV,26.8833,-101.4167,615.0,America/Monterrey,1952-01-01,2021-01-01,43296.43600602414
30973,Fort Lauderdale,US,FL,74783,KFLL,26.0726,-80.1527,3.0,America/New_York,1945-01-01,2022-01-01,17260.493817974573
30987,Bermuda,BM,SC,78016,TXKF,32.3667,-64.6833,6.0,Atlantic/Bermuda,1942-01-01,2022-01-01,50506.602196784195
31037,Gran Canaria - Canary Islands,ES,CN,60030,GCLP,27.9333,-15.3833,23.0,Europe/Madrid,1957-01-01,2022-01-01,38367.42009130449
31049,Adrar,DZ,ADR,60620,DAUA,27.8833,-0.2833,263.0,Africa/Algiers,1966-01-01,2021-01-01,30705.9274875371
31094,Hail,SA,HL,40394,OEHL,27.4333,41.6833,1015.0,Asia/Riyadh,1967-01-01,2022-01-01,57463.9044163597
31103,Dhahran,SA,SH,40416,OEDR,26.2667,50.15,26.0,Asia/Riyadh,1946-01-01,2022-01-01,33221.739888705175
31121,Nawabshah,PK,S,41749,OPNH,26.25,68.3667,37.0,Asia/Karachi,1958-01-01,2021-01-01,45967.526250086805
31126,Jodhpur,IN,RJ,42339,VIJO,26.3,73.0167,217.0,Asia/Kolkata,1901-01-01,2021-01-01,33400.09795874876
31131,Gwalior,IN,MP,42361,VIGR,26.2333,78.25,205.0,Asia/Kolkata,1940-01-01,2021-01-01,35999.9900311204
31136,Varanasi / Babatpur,IN,UP,42479,VIBN,25.45,82.8667,81.0,Asia/Kolkata,1951-01-01,2021-01-01,62598.005248058245
31141,Siliguri,IN,WB,42398,VEBD,26.6333,88.3167,126.0,Asia/Kolkata,1901-01-01,1958-01-01,77170.66290841204
31159,Guiyang,CN,GZ,57816,ZUGY,26.5833,106.7167,1074.0,Asia/Chongqing,1945-01-01,2022-01-01,54200.061343098925
31172,Fuzhou,CN,FJ,58847,ZSFZ,26.0833,119.2833,85.0,Asia/Shanghai,1953-01-01,2022-01-01,29780.410056627545
31179,Kumejima,JP,ON,47929,ROKJ,26.3333,126.8,4.0,Asia/Tokyo,1959-01-01,2022-01-01,42094.30317359438
31379,Santa Maria Acores,PT,AZ,08515,LPAZ,36.9667,-25.1667,100.0,Atlantic/Azores,1944-01-01,2022-01-01,15262.863322036712
31422,In Amenas,DZ,ILL,60611,DAUZ,28.05,9.6333,562.0,Africa/Algiers,1958-01-01,2021-01-01,36420.83212349689
31459,Al Qaysumah,SA,SH,40373,OEPA,28.3167,46.1167,358.0,Asia/Riyadh,1974-01-01,2022-01-01,37027.21189094893
31463,Bahrain International Airport,BH,MUH,41150,OBBI,26.2667,50.65,2.0,Asia/Bahrain,1944-01-01,2022-01-01,88650.29459668869
31469,Bandarabbass,IR,HRM,40875,OIKB,27.2167,56.3667,10.0,Asia/Tehran,1985-01-01,2022-01-01,67155.5440025079
31472,Iranshahr,IR,SBL,40879,OIZI,27.2,60.7,591.0,Asia/Tehran,1992-01-01,2021-01-01,37100.28887917223
31476,Panjgur,PK,B,41739,OPPG,26.9667,64.1,980.0,Asia/Karachi,1959-01-01,2021-01-01,10578.235800546765
31488,Jaipur / Sanganer,IN,RJ,42348,VIJP,26.8167,75.8,385.0,Asia/Kolkata,1958-01-01,2022-01-01,28437.707174096446
31495,Gorakhpur,IN,UP,42379,VEGK,26.75,83.3667,76.0,Asia/Kolkata,1902-01-01,2021-01-01,45778.08105247623
31506,North Lakhimpur,IN,AS,42309,VELR,27.2333,94.1167,101.0,Asia/Kolkata,1901-01-01,2021-01-01,28396.82751300984
31541,Okinoerabu,JP,KS,47942,RJKB,27.4333,128.7,27.0,Asia/Tokyo,1970-01-01,2021-01-01,56580.90347049221
31670,"Piedras Negras, Coah.",MX,COA,76243,MMPG,28.7,-100.5167,250.0,America/Monterrey,1955-01-01,2021-01-01,91078.42368868108
31685,Apalachicola Municipal Airport,US,FL,72220,KAAF,29.7167,-85.0167,6.0,America/New_York,1931-01-01,2022-01-01,31542.661707208918
31690,Melbourne International,US,FL,72204,KMLB,28.1,-80.65,10.0,America/New_York,2000-01-01,2022-01-01,36101.8569422577
31757,Fuerteventura / Aeropuerto,ES,CN,60035,GCFV,28.45,-13.8667,22.0,Europe/Madrid,1966-01-01,2022-01-01,51713.94141072484
31807,Tabuk,SA,TB,40375,OETB,28.3667,36.6,778.0,Asia/Riyadh,1967-01-01,2022-01-01,56565.11505827142
31848,New Delhi / Palam,IN,DL,42181,VIDP,28.5667,77.1167,220.0,Asia/Kolkata,1959-01-01,2022-01-01,64041.90157792024
31850,Bareilly,IN,UP,42189,VIBY,28.3667,79.4,167.0,Asia/Kolkata,1901-01-01,2021-01-01,56565.11505827229
31856,Kathmandu Airport,NP,BA,44454,VNKT,27.7,85.3667,1337.0,Asia/Katmandu,1971-01-01,2022-01-01,49117.74396808832
31866,Pasighat,IN,AR,42220,VEPG,28.1,95.3833,155.0,Asia/Kolkata,1916-01-01,2020-01-01,39223.7551207037
31887,Nanchang,CN,JX,58606,ZSCN,28.6,115.9167,50.0,Asia/Shanghai,1951-01-01,2022-01-01,45212.52241203205
32017,"Hermosillo, Son.",MX,SON,76160,MMHO,29.0667,-110.95,211.0,America/Hermosillo,1949-01-01,2021-01-01,8867.789568371232
32028,Del Rio International  Airport,US,TX,72261,KDRT,29.3667,-100.9167,304.0,America/Chicago,1946-01-01,2021-01-01,41569.35105998754
32035,Scholes Field,US,TX,72242,KGLS,29.2667,-94.8667,2.0,America/Chicago,1946-01-01,2022-01-01,32358.717647225196
32105,La Palma / Aeropuerto,ES,CN,60005,GCLA,28.6167,-17.75,29.0,Atlantic/Canary,1967-01-01,2022-01-01,49090.44158375181
32116,Lanzarote / Aeropuerto,ES,CN,60040,GCRR,28.95,-13.6,14.0,Europe/Madrid,1966-01-01,2022-01-01,39305.88854502664
32129,Timimoun,DZ,ADR,60607,DAUT,29.25,0.2833,312.0,Africa/Algiers,1974-01-01,2021-01-01,39115.63481010155
32133,El Golea,DZ,GHA,60590,DAUE,30.5667,2.8667,397.0,Africa/Algiers,1892-01-01,2021-01-01,49835.10535367098
32169,Al-Jouf,SA,JF,40361,OESK,29.7833,40.1,689.0,Asia/Riyadh,1978-01-01,2022-01-01,25952.817475722404
32172,Rafha,SA,HS,40362,OERF,29.6167,43.4833,449.0,Asia/Riyadh,1977-01-01,2022-01-01,63173.67454372829
32178,Kuwait International Airport,KW,KU,40582,OKBK,29.2167,47.9833,55.0,Asia/Kuwait,1958-01-01,2022-01-01,24150.49912857831
32182,Shiraz,IR,FAR,40848,OISS,29.5333,52.5833,1486.0,Asia/Tehran,1951-01-01,2022-01-01,65656.57657458453
32190,Zahedan,IR,SBL,40856,OIZH,29.4667,60.8833,1370.0,Asia/Tehran,1951-01-01,2022-01-01,53115.74847441523
32199,Jacobabad,PK,S,41715,OPJA,28.3,68.4667,55.0,Asia/Karachi,1952-01-01,2021-01-01,93630.05644238119
32205,Hissar,IN,HR,42131,VIHR,29.1667,75.7333,216.0,Asia/Kolkata,1914-01-01,2021-01-01,31863.059478462525
32212,Jumla,NP,KA,44424,VNJL,29.2833,82.1667,2300.0,Asia/Katmandu,1986-01-01,1988-01-01,35418.303726629165
32221,Lhasa,CN,XZ,55591,ZULS,29.6667,91.1333,3650.0,Asia/Urumqi,1955-01-01,2022-01-01,39228.360444996055
32236,Chongqing,CN,CQ,57516,ZUCK,29.5167,106.4833,351.0,Asia/Chongqing,1944-01-01,2022-01-01,71165.77823669386
32381,"Nueva Casas Grandes, Chih.",MX,CHH,76122,MMNC,30.4167,-107.9167,1467.0,America/Monterrey,2006-01-01,2021-01-01,47021.27165311812
32402,Pensacola / Pleasant Grove,US,FL,72222,KNPA,30.3533,-87.318,9.0,America/Indiana/Tell_City,1945-01-01,2022-01-01,49776.7007403903
32482,Ouarzazate,MA,SM,60265,GMMZ,30.9333,-6.9,1139.0,Africa/Casablanca,1961-01-01,2022-01-01,12079.56879884506
32498,Ghadames,LY,GD,62103,HLTD,30.1333,9.5,346.0,Africa/Tripoli,1961-01-01,2021-01-01,50347.65807308695
32516,Mersa Matruh,EG,MAT,62306,HEMM,31.3333,27.2167,25.0,Africa/Cairo,1920-01-01,2021-01-01,42410.37327679546
32525,Ma'An,JO,MN,40310,OJMN,30.1667,35.7833,1069.0,Asia/Amman,1966-01-01,2022-01-01,27898.35884352858
32531,Arar,SA,HS,40357,OERR,30.9,41.1333,555.0,Asia/Riyadh,1978-01-01,2022-01-01,16888.864301330043
32546,Kerman,IR,KRB,40841,OIKK,30.25,56.9667,1748.0,Asia/Tehran,1951-01-01,2022-01-01,27982.610819497473
32551,Zaranj,AF,NIM,40986,OAZG,31.0,61.85,478.0,Asia/Kabul,1978-01-01,1990-01-01,14296.897185506437
32555,Quetta Airport,PK,B,41660,OPQT,30.25,66.8833,1587.0,Asia/Karachi,1977-01-01,2021-01-01,29979.02053146501
32560,Multan,PK,P,41675,OPMT,30.2,71.4333,122.0,Asia/Karachi,1949-01-01,2022-01-01,47245.04090905131
32602,Wuhan,CN,HU,57494,ZHHH,30.6167,114.1333,23.0,Asia/Shanghai,1951-01-01,2022-01-01,44481.66932909355
32609,Hangzhou,CN,ZJ,58457,ZSHC,30.2333,120.1667,43.0,Asia/Shanghai,1951-01-01,2022-01-01,30496.90737343288
32618,Yakushima,JP,KS,47836,RJFC,30.3833,130.6667,36.0,Asia/Tokyo,1953-01-01,2022-01-01,53317.06342095024
32748,Kimble County Airport,US,TX,74740,KJCT,30.5167,-99.7667,533.0,America/Chicago,1948-01-01,2022-01-01,58180.71649048141
32836,Essaouira,MA,MRK,60220,GMMI,31.5167,-9.7833,15.0,Africa/Casablanca,1966-01-01,2021-01-01,57513.49919381012
32840,Marrakech,MA,MK,60230,GMMX,31.6167,-8.0333,468.0,Africa/Casablanca,1943-01-01,2022-01-01,42737.01597935503
32845,Bechar,DZ,BEC,60571,DAOR,31.6167,-2.2333,773.0,Africa/Algiers,1957-01-01,2021-01-01,47985.01054825039
32853,Ouargla,DZ,OUA,60580,DAUU,31.9167,5.4,141.0,Africa/Algiers,1957-01-01,2021-01-01,38856.68602467699
32854,Hassi-Messaoud,DZ,OUA,60581,DAUH,31.6667,6.15,142.0,Africa/Algiers,1966-01-01,2022-01-01,39677.92740327884
32878,Alexandria / Nouzha,EG,IDR,62318,HEAX,31.2,29.95,-2.0,Africa/Cairo,1949-01-01,2021-01-01,22742.82297405862
32897,Ahwaz,IR,KZT,40811,OIAW,31.3333,48.6667,20.0,Asia/Tehran,1990-01-01,2022-01-01,48776.89371925345
32902,Yazd,IR,YA,40821,OIYY,31.9,54.4,1238.0,Asia/Tehran,1957-01-01,2022-01-01,39343.98623742773
32917,Zhob,PK,B,41620,OPZB,31.35,69.4667,1405.0,Asia/Karachi,1959-01-01,2021-01-01,59042.555288777854
32919,Dera Ismail Khan,PK,N,41624,OPDI,31.8167,70.9167,172.0,Asia/Karachi,1949-01-01,2021-01-01,21846.10996869172
32967,Nanjing,CN,JS,58238,ZSNJ,32.0,118.8,12.0,Asia/Shanghai,1951-01-01,2022-01-01,18859.72647983419
32969,Shanghai / Hongqiao,CN,SH,58367,ZSSS,31.1667,121.4333,7.0,Asia/Shanghai,1951-01-01,2022-01-01,45235.019873736506
33096,Tucson International Airport,US,AZ,72274,KTUS,32.1333,-110.95,805.0,America/Phoenix,1946-01-01,2022-01-01,15553.080804245172
33102,Guadalupe Pass,US,TX,72262,KGDP,31.8333,-104.8167,1663.0,America/Chicago,1948-01-01,2022-01-01,25355.51160922152
33109,"Stephenville, Clark Field Municipal Airport",US,TX,72260,KSEP,32.2167,-98.1833,403.0,America/Chicago,1918-01-01,2022-01-01,29642.46915386005
33117,Jackson Airport,US,MS,72235,KJAN,32.3167,-90.0667,105.0,America/Chicago,1942-01-01,2022-01-01,35770.801919132486
33126,Savannah Airport,US,GA,72207,KSAV,32.1167,-81.0333,16.0,America/New_York,1948-01-01,2022-01-01,13350.511137946223
33192,Porto Santo,PT,MD,08524,LPPS,33.0667,-16.35,97.0,Atlantic/Madeira,1973-01-01,2022-01-01,33459.55896132794
33210,Ghardaia,DZ,GHA,60566,DAUG,32.3833,3.8167,450.0,Africa/Algiers,1967-01-01,2021-01-01,45978.98102997255
33226,Benina,LY,BA,62053,HLLB,32.1,20.2667,131.0,Africa/Tripoli,1943-01-01,2022-01-01,27485.39849390928
33242,Ben-Gurion International Airport,IL,C,40180,LLBG,32.0,34.9,40.0,Asia/Jerusalem,1943-01-01,2022-01-01,9429.864248217205
33244,H-5'Safawi,JO,MF,40260,OJHF,32.2,37.1333,668.0,Asia/Amman,1966-01-01,2021-01-01,25538.83911908239
33246,Turaif,SA,HS,40356,OETR,31.6833,38.7333,813.0,Asia/Riyadh,1974-01-01,2022-01-01,43298.953283214716
33258,Shahre-Kord,IR,CM,40798,OIFS,32.3333,50.85,2078.0,Asia/Tehran,1995-01-01,2022-01-01,39659.59384291712
33259,Esfahan,IR,EFH,40800,OIFM,32.4667,51.7167,1590.0,Asia/Tehran,1948-01-01,2022-01-01,58336.00234499128
33265,Birjand,IR,KJ,40809,OIMB,32.8667,59.2,1491.0,Asia/Tehran,1976-01-01,2022-01-01,23834.67113447672
33272,Kajaki / Cha?d?r,AF,HEL,40976,OAKJ,32.1667,65.1,1000.0,Asia/Kabul,1978-01-01,1980-01-01,20793.049871767496
33281,Lahore City,PK,P,41640,OPLH,31.55,74.3333,214.0,Asia/Karachi,1949-01-01,2021-01-01,59130.6053082424
33282,Amritsar,IN,PB,42071,VIAR,31.6333,74.8667,229.0,Asia/Kolkata,1959-01-01,2022-01-01,42676.107288577616
33324,Hefei,CN,AH,58321,ZSOF,31.8667,117.2333,36.0,Asia/Shanghai,1952-01-01,2022-01-01,26540.480624130178
33450,"El Centro, Naval Air Facility",US,CA,72281,KNJK,32.8167,-115.65,-13.0,America/Los_Angeles,1945-01-01,2022-01-01,38509.44491951628
33458,Silver City / Grant,US,NM,72272,KSVC,32.6333,-108.15,1659.0,America/Denver,1948-01-01,2022-01-01,43117.29136606764
33469,Dallas/Ft. Worth International  Airport,US,TX,72259,KDFW,32.9,-97.0333,184.0,America/Chicago,1948-01-01,2022-01-01,11545.461562281796
33486,Charleston Airport,US,SC,72208,KCHS,32.9,-80.0333,14.0,America/New_York,1937-01-01,2022-01-01,11545.461562281796
33558,Nouasseur,MA,CO,60156,GMMN,33.3667,-7.5833,200.0,Africa/Casablanca,1942-01-01,2022-01-01,56270.73511727794
33571,Touggourt,DZ,OUA,60555,DAUK,33.1167,6.1333,85.0,Africa/Algiers,1975-01-01,2021-01-01,17964.232648548666
33603,Damascus Int. Airport,SY,DI,40080,OSDI,33.4167,36.5167,608.0,Asia/Damascus,1969-01-01,2021-01-01,64565.07756663383
33610,Baghdad,IQ,BG,40650,ORBB,33.2333,44.2333,34.0,Asia/Baghdad,1949-01-01,2021-01-01,33838.89933469201
33806,"Nawcwpns Point Mugu, Ca",US,CA,72391,KNTD,34.1167,-119.1167,4.0,America/Los_Angeles,1946-01-01,2022-01-01,16851.195649402172
33827,Wichita Falls Sheppard Afb,US,TX,72351,KSPS,33.9833,-98.4928,309.0,America/Chicago,1897-01-01,2022-01-01,45471.00985338199
33837,Tupelo Regional Airport,US,MS,72332,KTUP,34.2667,-88.1,105.0,America/Chicago,1962-01-01,2022-01-01,31051.129715627125
33916,Casablanca,MA,CBL,60155,GMMC,33.5667,-7.6667,62.0,Africa/Casablanca,1949-01-01,2021-01-01,57185.83261359608
33918,Rabat-Sale,MA,RSA,60135,GMME,34.05,-6.7667,84.0,Africa/Casablanca,1943-01-01,2022-01-01,22207.581194328613
33921,Taza,MA,TH,60127,GMFZ,34.2167,-4.0,509.0,Africa/Casablanca,2021-01-01,2021-01-01,24095.940603875595
33923,Oujda,MA,OR,60115,GMFO,34.7833,-1.9333,468.0,Africa/Casablanca,1910-01-01,2022-01-01,87313.74000964749
33927,Laghouat,DZ,LAG,60545,DAUL,33.7667,2.9333,765.0,Africa/Algiers,1888-01-01,2021-01-01,26662.44922475592
33930,Biskra,DZ,BIS,60525,DAUB,34.8,5.7333,87.0,Africa/Algiers,1880-01-01,2021-01-01,32956.61484314934
33931,El Oued,DZ,EOU,60559,DAUO,33.5,6.1167,63.0,Africa/Algiers,1970-01-01,2021-01-01,56634.7064536296
33934,Gafsa,TN,GF,60745,DTTF,34.4167,8.8167,313.0,Africa/Tunis,1964-01-01,2022-01-01,49305.61877921448
33935,Gabes,TN,GB,60765,DTTG,33.8833,10.1,4.0,Africa/Tunis,1887-01-01,2021-01-01,15921.216916922018
33959,Larnaca Airport,CY,LA,17609,LCLK,34.8833,33.6333,2.0,Asia/Nicosia,1916-01-01,2022-01-01,35855.37747294251
33972,Kermanshah,IR,KRM,40766,OICC,34.2667,47.1167,1320.0,Asia/Tehran,1951-01-01,2022-01-01,31540.914951126615
33974,Arak,IR,MKZ,40769,OIHR,34.1,49.4,1720.0,Asia/Tehran,1943-01-01,2022-01-01,38493.17451643149
33976,Kashan,IR,EFH,40785,OIFK,33.9833,51.45,982.0,Asia/Tehran,1992-01-01,2021-01-01,41528.72869538612
34038,Zhengzhou,CN,HE,57083,ZHCC,34.7167,113.65,111.0,Asia/Shanghai,1951-01-01,2022-01-01,44857.39750157159
34164,Santa Maria Public Airport,US,CA,72394,KSMX,34.9,-120.4667,79.0,America/Los_Angeles,1948-01-01,2022-01-01,43964.92671843326
34165,Sandberg,US,CA,72383,KSDB,34.75,-118.7167,1379.0,America/Los_Angeles,1934-01-01,2022-01-01,37956.202747997646
34173,Winslow Municipal Airport,US,AZ,72374,KINW,35.0333,-110.7167,1505.0,America/Phoenix,1898-01-01,2022-01-01,26063.63892656414
34194,Memphis International Airport,US,TN,72334,KMEM,35.0333,-89.9833,102.0,America/Chicago,1940-01-01,2022-01-01,4002.9429510144055
34199,Lovell Field,US,TN,72324,KCHA,35.0333,-85.2,208.0,America/New_York,1938-01-01,2022-01-01,18585.977694832643
34276,Kenitra,MA,GB,60120,GMMY,34.3,-6.6,5.0,Africa/Casablanca,1943-01-01,2021-01-01,86007.28604808408
34278,Tanger Aerodrome,MA,TO,60101,GMTT,35.7333,-5.9,19.0,Africa/Casablanca,1912-01-01,2022-01-01,30994.488689758953
34279,Tetuan / Sania Ramel,MA,TO,60318,GMTN,35.5833,-5.3333,10.0,Africa/Casablanca,1957-01-01,2022-01-01,71567.27317919613
34287,Djelfa,DZ,DJE,60535,DAFI,34.6833,3.25,1144.0,Africa/Algiers,1973-01-01,2021-01-01,41960.269548739365
34292,Tebessa,DZ,TEB,60475,DABS,35.4833,8.1333,813.0,Africa/Algiers,1961-01-01,2022-01-01,55087.103205732004
34298,Luqa,MT,MT,16597,LMML,35.85,14.4833,91.0,Europe/Malta,1949-01-01,2022-01-01,46605.06843083571
34307,Souda Airport,GR,LI,16746,LGSA,35.4833,24.1167,146.0,Europe/Athens,1958-01-01,2022-01-01,54775.56324726977
34319,Lattakia,SY,LA,40022,OSLK,35.5333,35.7667,7.0,Asia/Damascus,1928-01-01,2020-01-01,86476.08094729659
34331,Sanandaj,IR,KRD,40747,OICS,35.3333,47.0,1373.0,Asia/Tehran,1978-01-01,2021-01-01,37061.269050632145
34337,Semnan,IR,SMN,40757,OIIS,35.55,53.3833,1171.0,Asia/Tehran,1978-01-01,2021-01-01,70362.60598994563
34363,Hotan,CN,XJ,51828,ZWTN,37.1333,79.9333,1375.0,Asia/Kashgar,1953-01-01,2022-01-01,15960.053503805873
34405,Qingdao,CN,SD,54857,ZSQD,36.0667,120.3333,77.0,Asia/Shanghai,1956-01-01,2022-01-01,30874.550857969516
34523,Lemoore Naval Air Station,US,CA,74702,KNLC,36.3333,-119.95,71.0,America/Los_Angeles,1961-01-01,2022-01-01,37332.06793382052
34526,Naws China Lake,US,CA,74612,KNID,35.6833,-117.7,696.0,America/Los_Angeles,1944-01-01,2022-01-01,72258.85424781467
34527,McCarran International Airport,US,NV,72386,KLAS,36.1167,-115.2667,663.0,America/Los_Angeles,1948-01-01,2022-01-01,67182.72401646173
34539,Clayton Municipal Airpark,US,NM,72360,KCAO,36.45,-103.15,1513.0,America/Denver,1896-01-01,2022-01-01,91198.2304762396
34540,Dalhart / Rehm,US,TX,74736,KDHT,36.0226,-102.5473,1217.0,America/Chicago,1949-01-01,2022-01-01,40795.851646099174
34550,Harrison / Francis,US,AR,72345,KHRO,36.2615,-93.1547,416.0,America/Chicago,1946-01-01,2022-01-01,32226.19160887727
34558,Crossville / Howard Springs,US,TN,72325,KCSV,35.9513,-85.085,573.0,America/Chicago,1954-01-01,2022-01-01,9371.715756062578
34563,Piedmont Triad International  Airport,US,NC,72317,KGSO,36.1,-79.95,282.0,America/New_York,1928-01-01,2022-01-01,11993.698733707455
34564,Raleigh-Durham International  Airport,US,NC,72306,KRDU,35.9,-78.7667,133.0,America/New_York,1944-01-01,2022-01-01,23762.772418861765
34635,Faro / Aeroporto,PT,FA,08554,LPFR,37.0167,-7.9667,7.0,Europe/Lisbon,1973-01-01,2022-01-01,3491.6010512192024
34639,Malaga / Aeropuerto,ES,AN,08482,LEMG,36.6667,-4.4833,16.0,Europe/Madrid,1942-01-01,2022-01-01,85848.57445373326
34640,Melilla,ES,ML,60338,GEML,35.2833,-2.95,47.0,Europe/Madrid,1961-01-01,2022-01-01,79821.38063967937
34644,Chlef,DZ,CHL,60425,DAOI,36.2167,1.3333,143.0,Africa/Algiers,1966-01-01,2022-01-01,38433.46121908429
34649,Batna,DZ,BAT,60468,DABT,35.55,6.1833,1052.0,Africa/Algiers,1975-01-01,2021-01-01,52699.33190679751
34652,Jendouba,TN,JE,60725,DTTN,36.4833,8.8,143.0,Africa/Tunis,1943-01-01,2022-01-01,56654.67752155064
34653,Kairouan,TN,KR,60735,DTTK,35.6667,10.1,60.0,Africa/Tunis,1964-01-01,2021-01-01,38141.896129881854
34674,Antalya,TR,ANT,17300,LTAI,36.7,30.7333,50.0,Europe/Istanbul,1949-01-01,2022-01-01,40938.144277586805
34680,Aleppo International Airport,SY,HL,40007,OSAP,36.1833,37.2,393.0,Asia/Damascus,1955-01-01,2021-01-01,27173.064212977966
34691,Zanjan,IR,ZAN,40729,OITZ,36.6833,48.4833,1663.0,Asia/Tehran,1990-01-01,2021-01-01,55586.18410890817
34693,Ghazvin,IR,ZAN,40731,OIIK,36.25,50.0,1278.0,Asia/Tehran,1992-01-01,2022-01-01,27798.731661140075
34694,Tehran-Mehrabad,IR,TEH,40754,OIII,35.6833,51.35,1204.0,Asia/Tehran,1943-01-01,2022-01-01,47280.37376249499
34702,Mashhad,IR,KV,40745,OIMM,36.2667,59.6333,989.0,Asia/Tehran,1949-01-01,2022-01-01,44316.65904323368
34745,Xining,CN,QH,52866,ZLXN,36.6167,101.7667,2262.0,Asia/Chongqing,1954-01-01,2022-01-01,47412.49514894219
34752,Yan An,CN,SA,53845,ZLYA,36.6,109.5,959.0,Asia/Chongqing,1951-01-01,2022-01-01,62929.90133966678
34856,Eureka,US,CA,72594,KEKA,40.8,-124.1667,13.0,America/Los_Angeles,1941-01-01,2022-01-01,1750.7439377384396
34883,Fresno Air Terminal,US,CA,72389,KFAT,36.7833,-119.7167,101.0,America/Los_Angeles,1942-01-01,2022-01-01,68139.06352810602
34884,Bishop Airport,US,CA,72480,KBIH,37.3667,-118.3667,1256.0,America/Los_Angeles,1895-01-01,2022-01-01,52133.791212244985
34896,San Luis Valley Regional,US,CO,72462,KALS,37.4333,-105.8667,2297.0,America/Denver,1948-01-01,2022-01-01,49605.57799570432
34902,"Woodward, West Woodward Airport",US,OK,74641,KWWR,36.4333,-99.5167,667.0,America/Chicago,1904-01-01,2022-01-01,76331.49715772702
34909,Springfield-Branson National,US,MO,72440,KSGF,37.2333,-93.05,386.0,America/Chicago,1940-01-01,2022-01-01,26317.87663989894
34922,Roanoke Regional Airport,US,VA,72411,KROA,37.3167,-79.9667,358.0,America/New_York,1948-01-01,2022-01-01,35338.86164736686
34931,Atlantic City International,US,NJ,72407,KACY,39.4667,-74.0833,23.0,America/New_York,1947-01-01,2022-01-01,52388.26421189899
34975,Ponta Delgada / Nordela Acores,PT,AZ,08512,LPPD,37.7333,-25.7,71.0,Atlantic/Azores,1949-01-01,2022-01-01,39660.623706305865
34996,Jerez De La Fronteraaeropuerto,ES,AN,08451,LEJR,36.75,-6.0667,27.0,Europe/Madrid,1946-01-01,2022-01-01,28424.802616882873
34998,Granada / Aeropuerto,ES,AN,08419,LEGR,37.1833,-3.7833,567.0,Europe/Madrid,1972-01-01,2022-01-01,28015.34643060933
34999,Almeria / Aeropuerto,ES,AN,08487,LEAM,36.85,-2.3833,15.0,Europe/Madrid,1968-01-01,2022-01-01,37935.5858780022
35001,Murcia / San Javier,ES,MU,08433,LELC,37.7833,-0.8,5.0,Europe/Madrid,1927-01-01,2022-01-01,88873.00731508885
35009,Skikda,DZ,SKI,60355,DABP,36.9333,6.95,7.0,Africa/Algiers,1966-01-01,2022-01-01,8645.242675149486
35010,Annaba,DZ,ETA,60360,DABB,36.8333,7.8167,4.0,Africa/Algiers,1957-01-01,2022-01-01,24680.71692548159
35012,Tunis-Carthage,TN,AR,60715,DTTA,36.8333,10.2333,3.0,Africa/Tunis,1943-01-01,2022-01-01,27816.661515444463
35038,Iskenderun,TR,HTY,17370,LTAK,36.5833,36.1667,3.0,Europe/Istanbul,1964-01-01,2021-01-01,48654.60829418428
35039,Gaziantep,TR,GAZ,17260,LTAJ,37.0833,37.3667,701.0,Europe/Istanbul,1982-01-01,2022-01-01,33838.99863914586
35041,Urfa,TR,SAN,17270,LTCH,37.1333,38.7667,547.0,Europe/Istanbul,1949-01-01,2022-01-01,25459.440196176423
35043,Kamishli,SY,HA,40001,OSKL,37.05,41.2167,455.0,Asia/Damascus,1957-01-01,2021-01-01,20024.8265379973
35047,Orumieh,IR,WEZ,40712,OITR,37.5333,45.0833,1297.0,Asia/Tehran,1949-01-01,2022-01-01,52408.68212256521
35059,Bojnourd,IR,KS,40723,OIMN,37.4667,57.3333,1074.0,Asia/Tehran,1992-01-01,2022-01-01,59696.96284891591
35069,Termez,UZ,SU,38927,UTST,37.2333,67.2667,302.0,Asia/Samarkand,1936-01-01,2022-01-01,35102.52137081501
35118,Jinan,CN,SD,54823,ZSTN,36.6833,116.9833,58.0,Asia/Shanghai,1951-01-01,2022-01-01,24921.89009584596
35240,Stockton Metropolitan Airport,US,CA,72492,KSCK,37.9,-121.2333,9.0,America/Los_Angeles,1941-01-01,2022-01-01,23283.126476996138
35269,Rolla / Vichy,US,MO,72442,KVIH,38.1274,-91.7695,350.0,America/Chicago,1948-01-01,2022-01-01,24655.499813745722
35280,Raleigh County Mem Airport,US,WV,72412,KBKW,37.8,-81.1167,763.0,America/New_York,1963-01-01,2022-01-01,24483.049034832115
35334,Lajes Acores,PT,AZ,08509,LPLA,38.7667,-27.1,52.0,Atlantic/Azores,1947-01-01,2022-01-01,27347.697391889593
35355,Sevilla / San Pablo,ES,AN,08391,LEZL,37.4167,-5.9,34.0,Europe/Madrid,1951-01-01,2022-01-01,65453.84067629993
35356,Cordoba / Aeropuerto,ES,AN,08410,LEBA,37.85,-4.85,90.0,Europe/Madrid,1955-01-01,2022-01-01,21243.80861880837
35359,Murcia / Alcantarilla,ES,MU,08429,LERI,37.95,-1.2333,75.0,Europe/Madrid,1940-01-01,2022-01-01,67432.68686290632
35361,Alicante / El Altet,ES,VC,08360,LEAL,38.2833,-0.55,43.0,Europe/Madrid,1973-01-01,2022-01-01,57496.68640226492
35362,Ibiza / Es Codola,ES,IB,08373,LEIB,38.8667,1.3833,7.0,Europe/Madrid,1944-01-01,2022-01-01,36316.38762650551
35373,Trapani / Birgi,IT,SC,16429,LICT,37.9167,12.5,7.0,Europe/Rome,1961-01-01,2022-01-01,44804.10208115822
35376,Messina,IT,SC,16420,LICF,38.2,15.55,59.0,Europe/Rome,1957-01-01,2021-01-01,53016.44164323306
35392,Isparta,TR,ISP,17240,LTBM,37.75,30.55,997.0,Europe/Istanbul,1929-01-01,2021-01-01,48299.089562990775
35393,Konya,TR,KON,17244,LTAN,37.9667,32.55,1032.0,Europe/Istanbul,1949-01-01,2022-01-01,39612.60867469055
35401,Diyarbakir,TR,DIY,17280,LTCC,37.8833,40.1833,686.0,Europe/Istanbul,1949-01-01,2022-01-01,20658.22599318774
35404,Van,TR,VAN,17170,LTCI,38.45,43.3167,1667.0,Europe/Istanbul,1938-01-01,2022-01-01,57176.05713992967
35407,Tabriz,IR,EAZ,40706,OITT,38.0833,46.2833,1367.0,Asia/Tehran,1951-01-01,2022-01-01,26482.103805488543
35419,Ashgabat Keshi,TM,AL,38880,UTAA,37.9667,58.3333,210.0,Asia/Ashgabat,1936-01-01,2022-01-01,29445.036825391882
35466,Yinchuan,CN,NX,53614,ZLIC,38.4833,106.2167,1112.0,Asia/Chongqing,1951-01-01,2022-01-01,56975.40063233151
35473,Taiyuan,CN,SX,53772,ZBYN,37.7833,112.55,779.0,Asia/Shanghai,1951-01-01,2022-01-01,46259.52225809893
35605,Ely Airport (Yelland Field),US,NV,72486,KELY,39.3,-114.85,1907.0,America/Los_Angeles,1888-01-01,2022-01-01,35778.38440177572
35625,Topeka Billard Municipal Airport,US,KS,72456,KTOP,39.0667,-95.1333,269.0,America/Chicago,1946-01-01,2022-01-01,13695.672665833536
35635,Cincinnati/Northern Ky International,US,KY,72421,KCVG,39.05,-84.6667,273.0,America/New_York,1948-01-01,2022-01-01,29323.702365400888
35640,Jennings Randolph Field,US,WV,72417,KEKN,38.8833,-79.85,606.0,America/New_York,1926-01-01,2022-01-01,18348.94459891226
35668,Cape Race,CA,NL,71800,CWRA,46.66,-53.08,26.0,America/St_Johns,1920-01-01,2022-01-01,38293.002517726345
35718,Albacete / Los Llanos,ES,CM,08280,LEAB,38.95,-1.85,702.0,Europe/Madrid,1901-01-01,2022-01-01,14108.442326579205
35719,Valencia / Aeropuerto,ES,VC,08284,LEVC,39.5,-0.4667,69.0,Europe/Madrid,1973-01-01,2022-01-01,72109.863507405
35723,Palma De Mallorca / Son San Juan,ES,IB,08306,LEPA,39.55,2.7333,4.0,Europe/Madrid,1972-01-01,2022-01-01,65323.91293705834
35724,Menorca / Mahon,ES,IB,08314,LEMH,39.8667,4.2333,87.0,Europe/Madrid,1949-01-01,2022-01-01,24807.025198744534
35729,Cagliari / Elmas,IT,SD,16560,LIEE,39.25,9.0667,4.0,Europe/Rome,1943-01-01,2022-01-01,28387.919315978877
35732,Ustica,IT,SC,16400,LICU,38.7,13.1833,250.0,Europe/Rome,1957-01-01,2021-01-01,36942.511433928325
35739,Kerkyra Airport,GR,LI,16641,LGKR,39.6167,19.9167,2.0,Europe/Athens,1949-01-01,2022-01-01,68947.39891826383
35749,Usak,TR,USK,17188,LTBO,38.6667,29.4167,919.0,Europe/Istanbul,1963-01-01,2021-01-01,51732.7456410098
35751,Afyon,TR,AFY,17190,LTAH,38.75,30.5333,1034.0,Europe/Istanbul,1949-01-01,2021-01-01,49040.69816629464
35757,Sivas,TR,SIV,17090,LTAR,39.75,37.0167,1285.0,Europe/Istanbul,1929-01-01,2022-01-01,27835.236900058757
35759,Elazig,TR,ELA,17202,LTCA,38.6,39.2833,902.0,Europe/Istanbul,1973-01-01,2022-01-01,50803.5532945844
35784,Chardzhev,TM,LE,38687,UTAV,39.0833,63.6,193.0,Asia/Ashgabat,1894-01-01,2022-01-01,35765.694668319826
35785,Karshi,UZ,QA,38812,KQSC,38.8,65.7167,376.0,Asia/Samarkand,1966-01-01,2021-01-01,33099.80062308115
35795,Kashi,CN,XJ,51709,ZWSH,39.4667,75.9833,1291.0,Asia/Kashgar,1951-01-01,2022-01-01,51914.60138554956
35818,Jiuquan,CN,GS,52533,ZLJQ,39.7667,98.4833,1478.0,Asia/Chongqing,1946-01-01,2022-01-01,48718.841315253
35841,Dalian,CN,LN,54662,ZYTL,38.9,121.6333,97.0,Asia/Shanghai,1951-01-01,2022-01-01,33603.66278642916
35845,Pyongyang,KP,PYO,47058,ZKPY,39.0333,125.7833,36.0,Asia/Pyongyang,1958-01-01,2022-01-01,19084.309036123177
35904,Adak Island Airport,US,AK,70454,PADK,51.8667,-176.6333,6.0,America/Adak,1942-01-01,2022-01-01,29185.104837275216
35956,Red Bluff Municipal Airport,US,CA,72591,KRBL,40.15,-122.25,106.0,America/Los_Angeles,1892-01-01,2022-01-01,65958.43878090725
35960,Lovelock / Granite Point,US,NV,72580,KLOL,40.0664,-118.5652,1191.0,America/Los_Angeles,1981-01-01,2022-01-01,37747.44532171889
35969,Roosevelt,US,UT,74420,KU67,40.3,-109.9833,1553.0,America/Denver,1948-01-01,2022-01-01,33388.6609580039
35985,Rosecrans Memorial Airport,US,MO,72449,KSTJ,39.7667,-94.0833,252.0,America/Chicago,1948-01-01,2022-01-01,26897.840718848125
35997,Port Columbus International  Airport,US,OH,72428,KCMH,40.0,-82.05,248.0,America/New_York,1945-01-01,2022-01-01,4259.012727116374
36006,LaGuardia Airport,US,NY,72503,KLGA,40.7833,-73.05,7.0,America/New_York,1939-01-01,2022-01-01,87201.85402549425
36082,Mallorca / Malorca / Port de Pollen√ßa,ES,IB,08307,LEPO,39.9,3.1,7.0,Europe/Madrid,1989-01-01,1992-01-01,14010.926276452787
36089,Capo Bellavista,IT,SD,16550,LIEB,39.9333,9.7167,138.0,Europe/Rome,1951-01-01,2021-01-01,25256.841545382737
36091,Ponza,IT,LZ,16280,LIQZ,40.9167,12.95,184.0,Europe/Rome,1966-01-01,2022-01-01,10169.719830628099
36094,Capo Palinuro,IT,SA,16310,LIQK,40.0167,15.2833,184.0,Europe/Rome,1964-01-01,2021-01-01,24199.955619801174
36096,Marina Di Ginosa,IT,PU,16325,LIBH,40.4333,16.8833,2.0,Europe/Rome,1967-01-01,2021-01-01,49189.13608232445
36102,Thessaloniki Airport,GR,LI,16622,LGTS,40.5167,22.9667,8.0,Europe/Athens,1949-01-01,2022-01-01,57523.86341074506
36105,Canakkale,TR,CKL,17112,LTBH,40.1333,26.4,3.0,Europe/Istanbul,1949-01-01,2021-01-01,37125.97332324257
36108,Bursa,TR,BRS,17116,LTBE,40.1833,29.0667,101.0,Europe/Istanbul,1949-01-01,2022-01-01,21157.034027023692
36118,Erzincan,TR,EZC,17092,LTCD,39.7333,39.5,1156.0,Europe/Istanbul,1949-01-01,2022-01-01,51965.81352787073
36120,Erzurum,TR,EZR,17096,LTCE,39.9167,41.2667,1756.0,Europe/Istanbul,1949-01-01,2022-01-01,24546.11211890396
36144,Navoi,UZ,NW,38567,UTSA,40.1333,65.35,0.0,Asia/Samarkand,1936-01-01,2022-01-01,33268.3409653203
36146,Samarkand,UZ,SA,38696,UTSS,39.5667,66.95,724.0,Asia/Samarkand,1936-01-01,2022-01-01,48369.82270924035
36147,Dzizak,UZ,JI,38579,UTED,40.1167,67.8333,345.0,Asia/Samarkand,1942-01-01,2021-01-01,19226.81585664183
36189,Hohhot,CN,NM,53463,ZBHH,40.8167,111.6833,1065.0,Asia/Chongqing,1951-01-01,2022-01-01,33522.34885073064
36195,Beijing,CN,BJ,54511,ZBAA,39.9333,116.2833,55.0,Asia/Shanghai,1945-01-01,2022-01-01,25256.841545380925
36208,Kimchaek,KP,HAB,47025,ZKKC,40.6667,129.2,19.0,Asia/Pyongyang,1958-01-01,2021-01-01,40702.09698646936
36319,Winnemucca Municipal Airport,US,NV,72583,KWMC,40.9,-117.8,1312.0,America/Los_Angeles,1877-01-01,2022-01-01,20143.7814208851
36335,Sidney Municipal Airport,US,NE,72561,KSNY,41.1,-102.9833,1315.0,America/Denver,1948-01-01,2022-01-01,11207.32933234206
36337,North Platte Regional Airport,US,NE,72562,KLBF,41.1167,-100.6667,847.0,America/Chicago,1948-01-01,2022-01-01,30811.516545217284
36341,Lincoln Municipal Airport,US,NE,72551,KLNK,40.8333,-96.7647,372.0,America/Chicago,1942-01-01,2022-01-01,27101.541353933866
36347,Burlington / Congers Mobile Home Park,US,IA,72542,KBRL,40.7832,-91.1255,213.0,America/Chicago,1897-01-01,2022-01-01,26314.188280386574
36353,Fort Wayne International,US,IN,72533,KFWA,41.0,-85.0333,248.0,America/Indiana/Indianapolis,1939-01-01,2022-01-01,2794.5318675508156
36365,Sikorsky Memorial Airport,US,CT,72504,KBDR,41.1667,-73.1333,3.0,America/New_York,1943-01-01,2022-01-01,21642.824339450577
36432,Salamanca / Matacan,ES,CL,08202,LESA,40.95,-5.5,793.0,Europe/Madrid,1945-01-01,2022-01-01,42342.38479255734
36439,Reus / Aeropuerto,ES,CT,08175,LERS,41.15,1.1667,71.0,Europe/Madrid,1945-01-01,2022-01-01,21759.036091290367
36440,Barcelona / Aeropuerto,ES,CT,08181,LEBL,41.2833,2.0667,4.0,Europe/Madrid,1924-01-01,2022-01-01,31992.851052213304
36452,Grazzanise,IT,CM,16253,LIRM,41.05,14.0667,9.0,Europe/Rome,1944-01-01,2022-01-01,7887.871246215606
36456,Brindisi,IT,PU,16320,LIBR,40.65,17.95,15.0,Europe/Rome,1943-01-01,2022-01-01,39144.95908947626
36472,Kastamonu,TR,KAS,17074,LTAL,41.3667,33.7667,799.0,Europe/Istanbul,1930-01-01,2021-01-01,45208.35262331626
36481,Kars,TR,KRS,17098,LTCF,40.6,43.0833,1775.0,Europe/Istanbul,1966-01-01,2022-01-01,45027.24831686118
36510,Namangan,UZ,NG,38611,UTFN,40.9833,71.5833,476.0,Asia/Tashkent,1936-01-01,2022-01-01,35023.072056886034
36530,Hami,CN,XJ,52203,ZWHM,42.8167,93.5167,739.0,Asia/Urumqi,1951-01-01,2022-01-01,44325.80496578189
36584,Kushiro,JP,HK,47418,RJCS,42.9833,144.4,32.0,Asia/Tokyo,1889-01-01,2021-01-01,48835.53679408312
36674,Rogue Valley International  Airport,US,OR,72597,KMFR,42.3833,-122.8833,406.0,America/Los_Angeles,1928-01-01,2022-01-01,43691.92340611429
36689,Rawlins / Sinclair,US,WY,72669,KRWL,41.8056,-107.1999,2078.0,America/Denver,1951-01-01,2022-01-01,27220.54727568283
36709,Chicago O‚Äôhare Airport,US,IL,72530,KORD,41.9833,-87.9167,204.0,America/Chicago,1946-01-01,2022-01-01,7130.357693075584
36717,Erie International Airport,US,PA,72526,KERI,42.0833,-80.1833,223.0,America/New_York,1926-01-01,2022-01-01,17745.9734284502
36722,Binghamton Regional Airport,US,NY,72515,KBGM,42.2,-75.15,499.0,America/New_York,1951-01-01,2022-01-01,25450.48485825546
36724,Bradley International Airport,US,CT,72508,KBDL,41.9333,-72.6833,53.0,America/New_York,1942-01-01,2022-01-01,27214.001857101637
36725,Worcester / West Tatnuck,US,MA,72510,KORH,42.2673,-71.8757,308.0,America/New_York,1948-01-01,2022-01-01,31440.085150940828
36788,Vigo / Peinador,ES,GA,08045,LEVX,42.2167,-8.6333,264.0,Europe/Madrid,1956-01-01,2022-01-01,38674.08212099371
36790,Braganca,PT,BN,08575,LPBG,41.8,-6.7333,691.0,Europe/Lisbon,1941-01-01,2021-01-01,31333.541365720455
36792,Valladolid / Villanubla,ES,CL,08140,LEVD,41.7167,-4.85,849.0,Europe/Madrid,1936-01-01,2022-01-01,33862.470516912625
36793,Burgos / Villafria,ES,CL,08075,LEBG,42.3667,-3.6333,894.0,Europe/Madrid,1943-01-01,2022-01-01,50749.5118218858
36796,Zaragoza / Aeropuerto,ES,AR,08160,LEZG,41.6667,-1.0167,263.0,Europe/Madrid,1941-01-01,2022-01-01,37087.08643396713
36800,Gerona / Costa Brava,ES,CT,08184,LEGE,41.9,2.7667,143.0,Europe/Madrid,1973-01-01,2022-01-01,22268.52076359237
36805,Ajaccio,FR,H,07761,LFKJ,41.9167,8.8,6.0,Europe/Paris,1944-01-01,2022-01-01,18954.854694581798
36812,Termoli,IT,ML,16232,LIBT,42.0,15.0,16.0,Europe/Rome,1988-01-01,2021-01-01,0.0
36817,Kukes,AL,KU,13610,LAKU,42.0333,20.4167,354.0,Europe/Tirane,2007-01-01,2008-01-01,34623.08189391696
36828,Zonguldak,TR,ZON,17022,LTAS,41.45,31.8,136.0,Europe/Istanbul,1957-01-01,2021-01-01,63369.48190721176
36857,Dashkhovuz,TM,DA,38392,UTAT,41.75,59.8167,88.0,Asia/Ashgabat,1936-01-01,2022-01-01,31671.67267900641
36861,Tamdy,UZ,NW,38413,UTSM,41.7333,64.6167,238.0,Asia/Samarkand,1932-01-01,2021-01-01,43438.135760037
36921,Shenyang / Fengt'ien / Mukden / Luoguantun,CN,LN,54342,ZYYY,41.7333,123.5167,43.0,Asia/Shanghai,1951-01-01,2022-01-01,49810.55335269092
37037,Burns Municipal Airport,US,OR,72683,KBNO,43.6,-118.95,1263.0,America/Los_Angeles,1973-01-01,2022-01-01,44658.61867206563
37043,Pocatello Regional Airport,US,ID,72578,KPIH,42.9167,-112.6,1356.0,America/Boise,1939-01-01,2022-01-01,33843.3247330679
37047,Lander Hunt Field,US,WY,72576,KLND,42.8167,-108.7333,1703.0,America/Denver,1948-01-01,2022-01-01,29786.446436071397
37049,Natrona County International  Airport,US,WY,72569,KCPR,42.9,-106.4667,1630.0,America/Denver,1940-01-01,2022-01-01,39578.27619814313
37055,"Miller Field - Valentine, Ne",US,NE,72567,KVTN,42.8667,-100.55,789.0,America/Chicago,1948-01-01,2022-01-01,39519.78845521463
37056,"Winner, Bob Wiley Field Airport",US,SD,72656,KSFD,43.3833,-99.8333,619.0,America/Chicago,1893-01-01,2022-01-01,44712.19907100857
37067,Madison Dane County Rgnl,US,WI,72641,KMSN,43.1333,-89.0167,263.0,America/Chicago,1939-01-01,2022-01-01,14884.236674495958
37068,Gen Mitchell International Airport,US,WI,72640,KMKE,42.955,-87.9044,211.0,America/Chicago,1938-01-01,2022-01-01,9247.931376440545
37069,Muskegon County Airport,US,MI,72636,KMKG,43.1667,-86.2333,191.0,America/Detroit,1896-01-01,2022-01-01,26506.08846113308
37073,Flint Bishop International  Airport,US,MI,72637,KFNT,42.9667,-83.0833,238.0,America/Detroit,1948-01-01,2022-01-01,7721.734741884172
37080,Syracuse Hancock International  Airport,US,NY,72519,KSYR,43.1167,-76.1,125.0,America/New_York,1938-01-01,2022-01-01,15310.013160379407
37092,Western Head,CA,NS,71411,CWWE,43.99,-64.66,10.0,America/Halifax,1959-01-01,2022-01-01,27220.55153219925
37146,Santiago / Labacolla,ES,GA,08042,LEST,42.9,-8.4333,370.0,Europe/Madrid,1943-01-01,2022-01-01,36977.272812088326
37151,Leon / Virgen Del Camino,ES,CL,08055,LELN,42.5833,-5.65,926.0,Europe/Madrid,1938-01-01,2022-01-01,70427.0840053159
37152,Santander / Parayas,ES,S,08021,LEXJ,43.4333,-3.8167,6.0,Europe/Madrid,1953-01-01,2022-01-01,50418.423283246186
37153,Vitoria,ES,PV,08080,LEVT,42.8833,-2.7167,513.0,Europe/Madrid,1973-01-01,2022-01-01,26460.902300387683
37156,Tarbes Ossun Lourdes,FR,N,07621,LFBT,43.1833,0.0,379.0,Europe/Paris,1973-01-01,2022-01-01,20382.03005394796
37157,St-Girons,FR,N,07627,LFCG,43.0,1.1,414.0,Europe/Paris,1973-01-01,2022-01-01,8132.281640187033
37167,Grosseto,IT,TC,16206,LIRS,42.75,11.0667,5.0,Europe/Rome,1964-01-01,2022-01-01,28325.100241978518
37179,Sofia Observ.,BG,SF,15614,LBSF,42.65,23.3833,586.0,Europe/Sofia,1954-01-01,2022-01-01,49917.76045823491
37184,Varna,BG,VN,15552,LBWN,43.2,27.9167,41.0,Europe/Sofia,1957-01-01,2022-01-01,23244.624476167337
37195,Adler,RU,KD,37171,URSS,43.4333,39.9,16.0,Europe/Moscow,1959-01-01,2022-01-01,87408.86697992949
37233,Almaty,KZ,ALA,36870,UAAA,43.2333,76.9333,847.0,Asia/Almaty,1915-01-01,2022-01-01,26500.682524160988
37237,Yining,CN,XJ,51431,ZWYN,43.95,81.3333,663.0,Asia/Kashgar,1951-01-01,2022-01-01,27244.179267227817
37282,Changchun,CN,JL,54161,ZYCC,43.9,125.2167,238.0,Asia/Harbin,1951-01-01,2022-01-01,20605.527495262006
37288,Vladivostok,RU,PRI,31960,UHWW,43.1167,131.9333,184.0,Asia/Vladivostok,1911-01-01,2022-01-01,14062.523616108507
37399,Boise Air Terminal,US,ID,72681,KBOI,43.5667,-116.2333,871.0,America/Boise,1931-01-01,2022-01-01,51692.87388842465
37412,Rapid City Regional Airport,US,SD,72662,KRAP,44.05,-103.05,976.0,America/Denver,1948-01-01,2022-01-01,6847.7785107338905
37449,Yarmouth Airport,CA,NS,71603,CYQI,43.83,-66.09,43.0,America/Halifax,1949-01-01,2022-01-01,20231.164289130556
37459,Saint-Pierre,PM,PM,71805,LFVP,46.7667,-56.1667,3.0,Europe/Paris,1952-01-01,2022-01-01,28870.123965618535
37508,Asturias / Aviles,ES,O,08011,LEAS,43.55,-6.0333,127.0,Europe/Madrid,1968-01-01,2022-01-01,50109.09461213869
37512,Bilbao / Sondica,ES,PV,08025,LEBB,43.3,-2.9333,42.0,Europe/Madrid,1947-01-01,2022-01-01,78021.21977643704
37522,Nice,FR,U,07690,LFMN,43.65,7.2,4.0,Europe/Paris,1945-01-01,2022-01-01,42095.73542377674
37528,Rimini,IT,ER,16149,LIPR,44.0333,12.6167,12.0,Europe/Rome,1967-01-01,2022-01-01,30873.210618776582
37580,Kzyl-Orda,KZ,KZY,38062,UAOO,44.85,65.5,129.0,Asia/Aqtobe,1961-01-01,2022-01-01,42752.4707342107
37661,Juzhno-Kuril'Sk,RU,SAK,32165,UHSM,44.0167,145.8667,40.0,Asia/Magadan,1947-01-01,2021-01-01,10821.276041725883
37751,Salem McNary Field,US,OR,72694,KSLE,44.9,-123.0,64.0,America/Los_Angeles,1892-01-01,2022-01-01,11119.49266445589
37761,Dillon / Bishop Place,US,MT,72770,KDLN,45.2554,-112.5525,1599.0,America/Denver,1940-01-01,2022-01-01,45155.277962680004
37767,Sheridan County Airport,US,WY,72666,KSHR,44.7667,-106.9667,1226.0,America/Denver,1948-01-01,2022-01-01,26074.105330651102
37775,Aberdeen Regional Airport,US,SD,72659,KABR,45.45,-98.4167,397.0,America/Chicago,1893-01-01,2022-01-01,59739.27023382308
37790,Alpena County Regional Airport,US,MI,72639,KAPN,45.0833,-83.5667,210.0,America/Detroit,1916-01-01,2022-01-01,35281.67273228724
37802,Newport,US,VT,72612,K9B2,44.9333,-72.2,233.0,America/New_York,1930-01-01,2022-01-01,17394.86516675988
37805,Bangor / Martells Mobile Home Court,US,ME,72607,KBGR,44.8074,-68.8281,59.0,America/New_York,1953-01-01,2022-01-01,25336.62949116078
37809,Greenwood Airport,CA,NS,71397,CYZX,44.98,-64.92,28.0,America/Halifax,1942-01-01,2022-01-01,6672.730206529254
37873,Bordeaux / Merignac,FR,B,07510,LFBD,44.8333,-0.7,49.0,Europe/Paris,1901-01-01,2022-01-01,30026.67360665481
37882,Torino / Bric Della Croce,IT,PM,16061,LIMK,45.0333,7.7333,709.0,Europe/Rome,1975-01-01,2022-01-01,21288.13120707833
37885,Verona / Villafranca,IT,VN,16090,LIPX,45.3833,10.8667,67.0,Europe/Rome,1951-01-01,2022-01-01,43882.393463598266
37916,Stavropol,RU,STA,34949,URMT,45.1167,42.0833,0.0,Europe/Volgograd,1966-01-01,2022-01-01,14532.655101013508
37969,Altai,MN,GA,44277,ZMAT,46.4,96.25,2182.0,Asia/Ulaanbaator,1960-01-01,2022-01-01,48461.19877252104
38104,Port Of Astoria Airport,US,OR,72791,KAST,46.15,-123.8833,3.0,America/Los_Angeles,1953-01-01,2022-01-01,18953.424408194394
38116,Lewiston Nez Perce Co Airport,US,ID,72783,KLWS,46.3667,-117.0167,438.0,America/Los_Angeles,1948-01-01,2022-01-01,40795.44325676389
38120,Butte / Valley Vista Mobile Home Community,US,MT,72774,KBTM,45.9548,-112.4975,1692.0,America/Denver,1894-01-01,2022-01-01,38770.913768847706
38127,Miles City,US,MT,74230,KMLS,46.4333,-105.8833,801.0,America/Denver,1937-01-01,2022-01-01,49010.24049825926
38146,Escanaba,US,MI,72648,KESC,45.75,-87.0333,180.0,America/Detroit,1948-01-01,2022-01-01,27918.01240952743
38234,Limoges,FR,HV,07434,LFBL,45.8667,1.1833,396.0,Europe/Paris,1973-01-01,2022-01-01,20509.682496723515
38236,Clermont-Ferrand,FR,C,07460,LFLC,45.7833,3.1667,332.0,Europe/Paris,1973-01-01,2022-01-01,27332.444817379077
38242,Lugano,CH,TI,06770,LSZA,46.0,8.9667,273.0,Europe/Zurich,1901-01-01,2022-01-01,2572.1747832562905
38245,Treviso / Istrana,IT,VN,16098,LIPS,45.6833,12.1,45.0,Europe/Rome,1967-01-01,2022-01-01,36057.33836499624
38246,Udine / Rivolto,IT,FV,16045,LIPI,45.9833,13.0333,51.0,Europe/Rome,1973-01-01,2022-01-01,3172.7531778324055
38251,Pecs / Pogany,HU,BA,12942,LHPP,46.1,18.2333,201.0,Europe/Budapest,1901-01-01,2022-01-01,21161.29141102626
38253,Szeged,HU,CS,12982,LHUD,46.25,20.1,82.0,Europe/Budapest,1961-01-01,2022-01-01,28847.244749860507
38264,Odesa,UA,OD,33837,UKOO,46.4333,30.7667,42.0,Europe/Simferopol,1894-01-01,2022-01-01,51415.76466880935
38270,Kerch,UA,KR,33983,UKFK,45.4,36.4167,46.0,Europe/Simferopol,1936-01-01,2021-01-01,80641.70305829245
38277,Elista,RU,KL,34861,URWI,46.3667,44.3333,150.0,Europe/Volgograd,1927-01-01,2022-01-01,48176.89771255601
38356,Qiqihar,CN,HL,50745,ZYQQ,47.3833,123.9167,148.0,Asia/Harbin,1951-01-01,2022-01-01,43083.27994707541
38464,Quillayute State Airport,US,WA,72797,KUIL,47.9333,-124.5667,59.0,America/Los_Angeles,1966-01-01,2022-01-01,33101.593801310424
38469,Olympia Airport,US,WA,72792,KOLM,46.9667,-122.9,63.0,America/Los_Angeles,1941-01-01,2022-01-01,8441.302908584026
38477,Missoula International Airport,US,MT,72773,KMSO,46.9167,-114.1,976.0,America/Denver,1948-01-01,2022-01-01,11974.694822695967
38489,Dickinson / Eland,US,ND,72763,KDIK,46.7973,-102.8019,790.0,America/Denver,1948-01-01,2022-01-01,27102.724907963428
38495,Hector International Airport,US,ND,72753,KFAR,46.9333,-96.8167,274.0,America/Chicago,1891-01-01,2022-01-01,15763.017251261832
38503,Hancock Houghton Cty. Memo,US,MI,72744,KCMX,47.1667,-88.4833,334.0,America/Detroit,1948-01-01,2022-01-01,41020.514852632645
38505,Marquette,US,MI,72743,KMQT,46.5333,-87.55,434.0,America/Detroit,1857-01-01,2022-01-01,13624.232866529053
38508,Sault Ste. Marie Muni,US,MI,72734,KANJ,46.4833,-84.35,218.0,America/Detroit,1931-01-01,2022-01-01,63342.63482948492
38524,Caribou Municipal Airport,US,ME,72712,KCAR,46.8667,-68.0167,191.0,America/New_York,1939-01-01,2022-01-01,14876.423116173482
38592,Poitiers,FR,T,07335,LFBI,46.5833,0.3167,129.0,Europe/Paris,1973-01-01,2022-01-01,52232.393633540094
38593,Tours,FR,F,07240,LFOT,47.45,0.7167,108.0,Europe/Paris,1973-01-01,2022-01-01,54419.0902008242
38654,Aralskoe More,KZ,KZY,35746,UATA,46.7833,61.65,56.0,Asia/Aqtobe,1905-01-01,2021-01-01,35888.07094089702
38735,Yuzhno-Sakhalinsk,RU,SAK,32150,UHSS,46.95,142.7167,31.0,Asia/Magadan,1947-01-01,2022-01-01,22201.436601653342
38837,Glacier Park International  Airport,US,MT,72779,KGPI,48.3,-114.2667,906.0,America/Denver,1896-01-01,2022-01-01,38784.78891028411
38844,Glasgow International Airport,US,MT,72768,KGGW,48.2167,-106.6167,699.0,America/Denver,1943-01-01,2022-01-01,37289.77395909344
38873,Val-D'Or,CA,QC,71725,CYVO,48.06,-77.79,339.0,America/Toronto,1951-01-01,2022-01-01,16981.239718915163
38875,Parent,CA,QC,71726,CWPK,47.92,-74.62,445.0,America/Toronto,1943-01-01,2022-01-01,29660.739680647133
38887,Miscou Island,CA,NB,71719,CWMI,48.01,-64.49,4.0,America/Moncton,1957-01-01,2022-01-01,36471.28455520208
38899,St. John's International Airport,CA,NL,71801,CYYT,47.62,-52.75,140.0,America/St_Johns,1942-01-01,2022-01-01,70158.69344678879
38949,Rennes,FR,E,07130,LFRN,48.0667,-1.7333,37.0,Europe/Paris,1944-01-01,2022-01-01,21172.23149805137
38955,Troyes,FR,G,07168,LFQB,48.3333,4.0167,118.0,Europe/Paris,1975-01-01,2022-01-01,37081.95775725606
38972,Miskolc,HU,BZ,12772,LHMC,48.0833,20.7667,232.0,Europe/Budapest,1950-01-01,2022-01-01,19662.72998767211
39019,Zhezkazgan,KZ,KAR,35671,UAKD,47.8,67.7167,345.0,Asia/Qyzylorda,1959-01-01,2022-01-01,30669.225864334476
39204,Rockglen,CA,SK,71135,CWKO,49.17,-105.98,917.0,America/Regina,1971-01-01,2022-01-01,18959.1677797083
39211,Pilot Mound,CA,MB,71148,CWPO,49.19,-98.9,470.0,America/Winnipeg,1957-01-01,2022-01-01,22346.50079193528
39219,Upsala,CA,ON,71435,CWDV,49.03,-90.47,488.0,America/Nipigon,1973-01-01,2022-01-01,34438.26436786636
39227,Kapuskasing Airport,CA,ON,71831,CYYU,49.41,-82.47,226.0,America/Toronto,1937-01-01,2022-01-01,59674.01131720894
39254,Badger,CA,NL,71400,CWDI,48.97,-56.07,103.0,America/St_Johns,1973-01-01,2022-01-01,6100.839021572696
39310,Caen,FR,P,07027,LFRK,49.1833,-0.45,78.0,Europe/Paris,1973-01-01,2022-01-01,38589.01270711908
39317,Saarbruecken / Ensheim,DE,SL,10708,EDDR,49.2167,7.1167,322.0,Europe/Berlin,1951-01-01,2022-01-01,25549.465871405522
39322,Regensburg,DE,BY,10776,EDNR,49.05,12.1,366.0,Europe/Berlin,1879-01-01,2022-01-01,9169.241744496287
39327,Brno / Turany,CZ,JM,11723,LKTB,49.15,16.7,241.0,Europe/Prague,1939-01-01,2022-01-01,27490.212460216266
39328,Piestany,SK,TA,11826,LKPP,48.6167,17.8333,163.0,Europe/Prague,1973-01-01,2021-01-01,44334.78044659255
39354,Volgograd,RU,VG,34560,URWW,48.7833,44.3667,145.0,Europe/Volgograd,1937-01-01,2022-01-01,36046.2901953929
39445,Habarovsk,RU,KHA,31735,UHHH,48.5167,135.1667,72.0,Asia/Sakhalin,1948-01-01,2022-01-01,55112.24573614199
39450,Sovetskaja Gavan,RU,KHA,31770,UHKG,48.9667,140.3,22.0,Asia/Sakhalin,1913-01-01,2021-01-01,22203.359102135906
39561,Swift Current CDA,CA,SK,71446,CWVC,50.27,-107.73,825.0,America/Swift_Current,1959-01-01,2022-01-01,35660.667399931124
39579,Armstrong,CA,ON,71841,CYYW,50.29,-88.91,322.0,America/Toronto,1938-01-01,2022-01-01,32878.086958939166
39589,Moosonee Ua,CA,ON,71836,CYMO,51.27,-80.65,10.0,America/Nipigon,1932-01-01,2022-01-01,38700.40859530418
39597,Chute-Des-Passes,CA,QC,71522,CWDT,49.84,-71.17,398.0,America/Toronto,1960-01-01,2022-01-01,21555.900604552913
39609,Cape Whittle,CA,QC,71374,CWQW,50.16,-60.06,7.0,America/Blanc-Sablon,1963-01-01,2022-01-01,18299.07686565929
39671,Abbeville,FR,S,07005,LFOI,50.1333,1.8333,74.0,Europe/Paris,1940-01-01,2022-01-01,19007.09034433206
39683,Praha / Ruzyne,CZ,ST,11518,LKPR,50.1,14.25,365.0,Europe/Prague,1940-01-01,2022-01-01,21030.171355577088
39689,Krakow,PL,ML,12566,EPKK,50.0833,19.8,237.0,Europe/Warsaw,1973-01-01,2022-01-01,17023.093315734226
39693,L'Viv,UA,LV,33393,UKLL,49.8167,23.95,319.0,Europe/Uzhgorod,1936-01-01,2022-01-01,20694.138976882758
39705,Kharkiv,UA,KK,34300,UKHH,49.9667,36.1333,154.0,Europe/Zaporozhye,1936-01-01,2022-01-01,10224.885745274598
39726,Aktjubinsk,KZ,AKT,35229,UATT,50.2833,57.15,227.0,Asia/Aqtobe,1904-01-01,2022-01-01,33265.777260416486
39742,Karaganda,KZ,KAR,35394,UAKK,49.8,73.15,553.0,Asia/Almaty,1932-01-01,2022-01-01,24698.065439077054
39748,Semipalatinsk,KZ,VOS,36177,UASS,50.4167,80.3,196.0,Asia/Almaty,1901-01-01,2022-01-01,51016.75017929572
39805,Troickoe,RU,KHA,31655,UHHO,49.45,136.5667,29.0,Asia/Sakhalin,1936-01-01,2021-01-01,73481.61394284354
39901,Port Hardy Airport,CA,BC,71109,CYZT,50.68,-127.37,22.0,America/Vancouver,1944-01-01,2022-01-01,44057.85328110611
39929,Mccreary,CA,MB,71149,CWOO,50.71,-99.53,351.0,America/Winnipeg,1971-01-01,2022-01-01,49233.4570797582
39994,Prins Christian Sund,GL,KU,04390,BGPC,60.05,-43.1667,88.0,America/Godthab,1943-01-01,2022-01-01,10801.782370499459
40019,Cork Airport,IE,M,03955,EICK,51.85,-8.4833,153.0,Europe/Dublin,1964-01-01,2022-01-01,39161.120080819535
40039,Erfurt / Bindersleben,DE,TH,10554,EDDE,50.9833,10.9667,315.0,Europe/Berlin,1935-01-01,2022-01-01,2979.9772640425062
40045,Wroclaw Copernicus Airport,PL,DO,12424,EPWR,51.1,16.8833,120.0,Europe/Warsaw,1940-01-01,2022-01-01,13790.883327335243
40063,Sumy,UA,SM,33275,UKHS,50.85,34.6667,180.0,Europe/Kiev,1936-01-01,2021-01-01,28704.269245890955
40074,Saratov,RU,SAR,34172,UWSS,51.5667,46.0333,156.0,Europe/Samara,1936-01-01,2019-01-01,63056.70867641498
40079,Uralsk,KZ,ZAP,35108,UARR,51.25,51.2833,36.0,Asia/Oral,1900-01-01,2022-01-01,34112.48537007346
40242,Kodiak Airport,US,AK,70350,PADQ,57.75,-152.4833,22.0,America/Juneau,1945-01-01,2022-01-01,39867.628939356524
40258,McInnes Island,CA,BC,71897,CWMS,52.26,-128.72,26.0,America/Vancouver,1954-01-01,2022-01-01,34657.1274643655
40283,Wynyard,CA,SK,71865,CWYO,51.77,-104.2,560.0,America/Regina,1996-01-01,2022-01-01,29025.789013599828
40382,Aberporth,GB,WLS,03502,EGUC,52.1333,-4.5667,133.0,Europe/London,1973-01-01,2022-01-01,33120.56177748971
40388,Wattisham,GB,ENG,03590,EGUW,52.1167,0.9667,87.0,Europe/London,1973-01-01,2022-01-01,13174.654525130729
40408,Warszawa-Okecie,PL,MZ,12375,EPWA,52.1667,20.9667,106.0,Europe/Warsaw,1953-01-01,2022-01-01,18675.33149985129
40418,Gomel',BY,HO,33041,UMGG,52.4,30.95,127.0,Europe/Minsk,1960-01-01,2022-01-01,44608.31067857827
40491,Irkutsk,RU,IR,30710,UIII,52.2667,104.3167,513.0,Asia/Irkutsk,1882-01-01,2022-01-01,36697.56890177505
40496,Horinsk,RU,BU,30739,UIUH,52.1667,109.7833,666.0,Asia/Irkutsk,1936-01-01,2021-01-01,23724.36890278618
40500,Chita,RU,CHI,30758,UIAA,52.0833,113.4833,685.0,Asia/Yakutsk,1890-01-01,2022-01-01,34328.31976665216
40623,Quesnel Airport,CA,BC,71103,CYQZ,53.0333,-122.5167,545.0,America/Vancouver,1977-01-01,2022-01-01,32540.663600605392
40633,Camrose,CA,AB,71254,CWRV,53.05,-112.82,739.0,America/Edmonton,1946-01-01,2022-01-01,13260.234494550741
40644,Hudson Bay,CA,SK,71868,CYHB,52.82,-102.32,358.0,America/Regina,1943-01-01,2022-01-01,29344.04456595521
40685,Goose Airport,CA,NL,71816,CYYR,53.32,-60.42,49.0,America/Goose_Bay,1941-01-01,2022-01-01,45278.92637378939
40751,De Kooy,NL,NH,06235,EHKD,52.9167,4.7833,0.0,Europe/Amsterdam,1851-01-01,2022-01-01,17218.817630349073
40757,Luechow,DE,NI,10253,EDHC,52.9667,11.1333,17.0,Europe/Berlin,1931-01-01,2022-01-01,9661.432169558582
40769,Bialystok,PL,PL,12295,EPBK,53.1,23.1667,148.0,Europe/Warsaw,1953-01-01,2021-01-01,15741.561919538848
40791,Penza,RU,PNZ,27962,UWPP,53.1167,45.0167,174.0,Europe/Volgograd,1936-01-01,2021-01-01,13024.351321946917
40830,Barnaul,RU,AL,29838,UNBB,53.4333,83.5167,252.0,Asia/Barnaul,1957-01-01,2022-01-01,57938.41106563903
40879,Ekimchan,RU,AMU,31329,UHBP,53.0667,132.9833,543.0,Asia/Yakutsk,1914-01-01,2021-01-01,7500.295756682425
40886,Nikolaevsk-Na-Amure,RU,KHA,31369,UHNN,53.15,140.7,68.0,Asia/Sakhalin,1881-01-01,2021-01-01,26073.47975249928
41003,The Pas Airport,CA,MB,71867,CYQD,53.97,-101.09,271.0,America/Winnipeg,1943-01-01,2022-01-01,6764.177883431183
41096,Connaught Airport,IE,C,03973,EIKN,53.9,-8.8167,203.0,Europe/Dublin,1929-01-01,2021-01-01,16355.862141522703
41099,Dublin Airport,IE,L,03969,EIDW,53.4333,-6.25,68.0,Europe/Dublin,1867-01-01,2022-01-01,65126.00009435243
41112,Norderney,DE,NI,10113,EDWY,53.7167,7.15,11.0,Europe/Berlin,1936-01-01,2022-01-01,33001.72618909904
41124,Elblag,PL,WM,12160,EPEL,54.1667,19.4333,40.0,Europe/Warsaw,1939-01-01,2022-01-01,33799.30612123585
41132,Minsk,BY,MA,26850,UMMS,53.9333,27.6333,234.0,Europe/Minsk,1891-01-01,2022-01-01,25106.687483913433
41150,Saransk,RU,MO,27760,UWPS,54.1333,45.2333,0.0,Europe/Moscow,1936-01-01,2022-01-01,21247.643183457858
41301,Cold Bay Airport,US,AK,70316,PACD,55.2167,-162.7333,30.0,America/Juneau,1942-01-01,2022-01-01,29468.34256510661
41321,Sitka Airport,US,AK,70371,PASI,57.05,-135.3667,6.0,America/Juneau,1944-01-01,2022-01-01,22878.61655427955
41337,Smithers,CA,BC,71950,CYYD,54.83,-127.18,523.0,America/Vancouver,1957-01-01,2022-01-01,22128.741437705026
41403,Hopedale,CA,NL,71900,CWHO,55.45,-60.22,12.0,America/Goose_Bay,1942-01-01,2022-01-01,51946.500593068544
41409,Cartwright Airport,CA,NL,71818,CWCA,53.68,-57.04,14.0,America/Goose_Bay,1934-01-01,2022-01-01,35679.02481642331
41458,Belfast / Aldergrove Airport,GB,NIR,03917,EGAA,54.65,-6.2167,81.0,Europe/London,1949-01-01,2022-01-01,41319.58817789788
41478,Roenne,DK,HS,06190,EKRN,55.0667,14.75,16.0,Europe/Copenhagen,1976-01-01,2022-01-01,17573.21190317682
41494,Vitebsk,BY,VI,26666,UMII,55.1667,30.2167,176.0,Europe/Minsk,1936-01-01,2021-01-01,23104.380123383726
41550,Kemerovo,RU,KEM,29642,UNEE,55.2333,86.1167,262.0,Asia/Krasnoyarsk,1961-01-01,2022-01-01,26982.42602578743
41562,Nizhneudinsk,RU,IRK,29698,UINN,54.8833,99.0333,410.0,Asia/Irkutsk,1940-01-01,2021-01-01,13149.600193467159
41626,Ust'Kamchatsk,RU,KAM,32408,UHPK,56.2167,162.7167,27.0,Asia/Kamchatka,1952-01-01,2022-01-01,29819.050939229615
41646,St Paul Island Airport,US,AK,70308,PASN,57.1667,-170.2167,19.0,America/Adak,1915-01-01,2022-01-01,22694.643925221822
41681,Yakutat Airport,US,AK,70361,PAYA,59.5,-139.6667,10.0,America/Juneau,1917-01-01,2022-01-01,58648.47097007014
41691,Wrangell,US,AK,70387,PAWG,56.4833,-132.3667,13.0,America/Juneau,1917-01-01,2017-01-01,58321.70568809614
41816,Tiree,GB,SCT,03100,EGPU,56.5,-6.8833,12.0,Europe/London,1937-01-01,2022-01-01,56062.90915048958
41843,Palanga,LT,KP,26502,EYPA,55.9667,21.1,10.0,Europe/Vilnius,1998-01-01,2022-01-01,7239.251319487237
41853,Velikie Luki,RU,PSK,26477,ULOL,56.35,30.6167,98.0,Europe/Moscow,1881-01-01,2021-01-01,45579.653729016616
41924,Bratsk,RU,IRK,30309,UIBB,56.2833,101.75,489.0,Asia/Irkutsk,1901-01-01,2022-01-01,35102.91724819003
42049,Petersburg,US,AK,70386,PAPG,56.8167,-132.9667,0.0,America/Juneau,1924-01-01,2022-01-01,20482.045482562033
42080,Lynn Lake,CA,MB,71078,CYYL,56.86,-101.08,357.0,America/Winnipeg,1977-01-01,2022-01-01,16306.49310079467
42112,Kuujjuaq Airport,CA,QC,71906,CYVP,58.09,-68.42,40.0,America/Toronto,1941-01-01,2022-01-01,26666.143607580147
42192,Aalborg,DK,ND,06030,EKYT,57.1,9.85,3.0,Europe/Copenhagen,1940-01-01,2022-01-01,14350.723444895766
42217,Tver,RU,TVE,27402,UUEM,56.9,35.8833,137.0,Europe/Moscow,1936-01-01,2022-01-01,13180.537591670405
42223,Ivanovo,RU,IVA,27347,UUBI,56.95,40.9667,0.0,Europe/Moscow,1958-01-01,2022-01-01,5914.664819893416
42291,Kirensk,RU,IRK,30230,UIKK,57.7667,108.0667,258.0,Asia/Irkutsk,1892-01-01,2021-01-01,26239.72601857635
42306,Cul'Man,RU,SA,30393,UELL,56.8333,124.8667,859.0,Asia/Yakutsk,1936-01-01,2021-01-01,20225.040785567904
42336,Ust-Hajrjuzovo,RU,KOR,32287,UHPU,57.0667,156.8333,8.0,Asia/Kamchatka,1932-01-01,2021-01-01,12519.76396784968
42407,Juneau International Airport,US,AK,70381,PAJN,58.35,-134.5667,6.0,America/Juneau,1936-01-01,2022-01-01,51173.83008008149
42555,Jonkoping Airport,SE,F,02550,ESGJ,57.7667,14.0833,226.0,Europe/Stockholm,1951-01-01,2022-01-01,26405.018096130676
42556,Linkoping Malmen Airport,SE,OG,02562,ESCF,58.4,15.5167,93.0,Europe/Stockholm,1858-01-01,2022-01-01,53804.136313196774
42559,Visby Airport,SE,I,02590,ESSV,57.6667,18.35,51.0,Europe/Stockholm,1859-01-01,2022-01-01,42459.63886605263
42623,Kolpasevo,RU,TOM,29231,UNLL,58.3167,82.95,76.0,Asia/Krasnoyarsk,1936-01-01,2021-01-01,35337.374848048115
42632,Enisejsk,RU,KY,29263,UNII,58.45,92.15,78.0,Asia/Krasnoyarsk,1884-01-01,2021-01-01,61767.11636270955
42653,Mama,RU,IRK,30157,UIKM,58.3167,112.8667,224.0,Asia/Irkutsk,1938-01-01,2021-01-01,36073.19376043781
42746,Iliamna Airport,US,AK,70340,PAIL,59.75,-154.9167,63.0,America/Juneau,1920-01-01,2021-01-01,28184.74925982498
42751,Seward,US,AK,70277,PAWD,60.1167,-149.45,9.0,America/Juneau,1908-01-01,2022-01-01,28144.626144582377
42792,Uranium City,CA,SK,71076,CWDC,59.57,-108.48,318.0,America/Regina,1953-01-01,2022-01-01,54841.468599378306
42896,Kirkwall Airport,GB,SCT,03017,EGPA,58.95,-2.9,21.0,Europe/London,1973-01-01,2022-01-01,7984.766386542612
42939,Vologda,RU,VLG,27037,ULWW,59.3167,39.9167,131.0,Europe/Moscow,1937-01-01,2021-01-01,35534.14392449126
42996,Bogucany,RU,KYA,29282,UNKB,58.3833,97.45,134.0,Asia/Krasnoyarsk,1930-01-01,2021-01-01,73337.65689070427
43050,Magadan,RU,MAG,25913,UHMM,59.55,150.7833,118.0,Asia/Magadan,1936-01-01,2022-01-01,51486.87396384027
43107,Homer / Municipal,US,AK,70341,PAHD,59.6333,-151.5,24.0,America/Juneau,1932-01-01,2022-01-01,49436.190258034236
43121,Haines Junction,CA,YT,71505,CWHT,60.77,-137.58,595.0,America/Whitehorse,1944-01-01,2022-01-01,34211.37639203623
43124,Skagway Airport,US,AK,70362,PAGY,59.4667,-135.3167,13.0,America/Juneau,1898-01-01,2022-01-01,61899.43882005772
43142,Hay River Airport,CA,NT,71935,CYHY,60.84,-115.78,165.0,America/Yellowknife,1943-01-01,2022-01-01,94180.97807928102
43145,Fort Smith Airport,CA,NT,71934,CYSM,60.02,-111.96,205.0,America/Yellowknife,1942-01-01,2022-01-01,3144.5919979600767
43156,Ennadai Lake,CA,NU,71923,CWJC,61.13,-100.88,353.0,America/Rankin_Inlet,1957-01-01,2021-01-01,15831.40890856218
43288,St. Peterburg,RU,LEN,26063,ULLI,59.9667,30.3,4.0,Europe/Moscow,1881-01-01,2022-01-01,17093.484613294477
43301,Tot'Ma,RU,VLG,27051,ULWT,59.8833,42.75,134.0,Europe/Moscow,1883-01-01,2021-01-01,19033.171721117138
43360,Vanavara,RU,EVE,24908,UNIW,60.3333,102.2667,260.0,Asia/Krasnoyarsk,1932-01-01,2021-01-01,39889.65462837861
43373,Lensk,RU,SA,24923,UERL,60.7167,114.8833,243.0,Asia/Yakutsk,1940-01-01,2021-01-01,32129.062653842295
43378,Olekminsk,RU,SA,24944,UEMO,60.4,120.4167,226.0,Asia/Yakutsk,1882-01-01,2022-01-01,50085.13333518068
43456,Bethel Airport,US,AK,70219,PABE,60.7833,-161.8333,37.0,America/Juneau,1923-01-01,2022-01-01,25727.85615830257
43466,Kenai Municipal Airport,US,AK,70259,PAEN,60.5833,-151.2333,28.0,America/Juneau,1899-01-01,2022-01-01,48033.05342817708
43468,Anchorage Ted Stevens Airport,US,AK,70273,PANC,61.1667,-150.0333,44.0,America/Juneau,1951-01-01,2022-01-01,18622.463136183953
43473,Merle K. Smith Airport,US,AK,70296,PACV,60.5,-145.4833,13.0,America/Juneau,1909-01-01,2022-01-01,61486.18326055122
43494,Yohin,CA,NT,71020,CXYH,61.24,-123.74,204.0,America/Inuvik,1957-01-01,2015-01-01,30118.957359048614
43665,Kotlas,RU,ARK,22887,ULAK,61.2333,46.7167,56.0,Europe/Moscow,1936-01-01,2021-01-01,30074.94166660583
43671,Ust'- Kulom,RU,KO,23803,UUYT,61.6833,53.6833,139.0,Europe/Moscow,1936-01-01,2021-01-01,38939.609214863405
43685,Hanty-Mansijsk,RU,KHM,23933,USHH,61.0167,69.0333,40.0,Asia/Yekaterinburg,1892-01-01,2022-01-01,2582.4692016885315
43824,Puntilla,US,AK,70249,PAPT,62.1,-152.75,560.0,America/Juneau,1942-01-01,2022-01-01,17129.062815023204
43831,Gulkana Airport,US,AK,70271,PAGK,62.15,-145.45,481.0,America/Juneau,1909-01-01,2021-01-01,28763.11727585165
43919,Brevoort Island,CA,NU,71097,CWOB,63.34,-64.15,376.0,America/Pangnirtung,1959-01-01,2022-01-01,38548.46827449727
43964,Akurnes,IS,AL,04082,BIHN,64.3,-15.2167,17.0,Atlantic/Reykjavik,1961-01-01,2022-01-01,34973.780867858404
44028,Syktyvkar,RU,KO,23804,UUYY,61.7167,50.8333,119.0,Europe/Moscow,1888-01-01,2022-01-01,32692.171249048566
44106,Jakutsk,RU,SA,24959,UEEE,62.0167,129.7167,103.0,Asia/Yakutsk,1888-01-01,2022-01-01,14901.16100477811
44118,Northway Airport,US,AK,70291,PAOR,62.9667,141.9333,523.0,America/Juneau,1942-01-01,2022-01-01,5006.099795188416
44181,McGrath Airport,US,AK,70231,PAMC,62.95,-155.6,103.0,America/Juneau,1939-01-01,2021-01-01,30820.29256637582
44216,Whati,CA,NT,71163,CWMT,63.13,-117.24,271.0,America/Edmonton,1974-01-01,2022-01-01,18843.811980516413
44279,Godthaab / Nuuk,GL,SE,04250,BGGH,64.1667,-51.75,80.0,America/Godthab,1958-01-01,2021-01-01,22163.180523640578
44453,Njurba,RU,SA,24639,UENN,63.2833,118.3333,129.0,Asia/Yakutsk,1936-01-01,2022-01-01,35674.80940536338
44487,Sejmchan,RU,MAG,25703,UHMS,62.9167,152.4167,207.0,Asia/Magadan,1936-01-01,2021-01-01,23012.007450584013
44528,Nome Airport,US,AK,70200,PAOM,64.5167,-165.4333,11.0,America/Juneau,1900-01-01,2022-01-01,57533.85684267922
44538,Galena Airport,US,AK,70222,PAGA,64.7333,-156.9333,46.0,America/Nome,1953-01-01,2021-01-01,29822.51568213033
44542,Minchumina Airport,US,AK,70246,PAMH,63.8667,-152.3,208.0,America/Juneau,1945-01-01,2022-01-01,20846.175280688207
44548,Allen Army Airfield,US,AK,70267,PABI,64.0,-145.7167,389.0,America/Juneau,1917-01-01,2022-01-01,13809.347275684653
44596,Baker Lake Airport,CA,NU,71926,CYBK,64.3,-96.08,19.0,America/Rankin_Inlet,1946-01-01,2022-01-01,33583.20003003562
44608,Coral Harbour Airport,CA,NU,71915,CYZS,64.19,-83.36,62.0,America/Atikokan,1933-01-01,2021-01-01,82420.42498177626
44672,Keflavikurflugvollur,IS,SU,04018,BIKF,63.9667,-22.6,52.0,Atlantic/Reykjavik,1943-01-01,2022-01-01,19857.716188314058
44673,Reykjavik,IS,NE,04030,BIRK,64.1333,-21.9,54.0,Atlantic/Reykjavik,1941-01-01,2022-01-01,15599.586999369376
44735,Arhangel'Sk,RU,VO,22550,ULAA,64.5,40.7333,13.0,Europe/Moscow,1881-01-01,2022-01-01,65922.96229984927
44770,Tarko-Sale,RU,YAN,23552,USDS,64.9167,77.8167,27.0,Asia/Yekaterinburg,1936-01-01,2021-01-01,12657.949751325457
44863,Markovo,RU,CHU,25551,UHMO,64.6833,170.4167,33.0,Asia/Anadyr,1894-01-01,2021-01-01,40349.98071510725
44871,Anadyr,RU,CHU,25563,UHMA,64.7833,177.5667,62.0,Asia/Anadyr,1898-01-01,2022-01-01,31600.43479113579
44901,Tanana Calhoun Memorial Airport,US,AK,70178,PATA,65.1667,-152.1,72.0,America/Juneau,1901-01-01,2022-01-01,19118.997654668692
44905,Nenana Municipal Airport,US,AK,70260,PANN,64.55,-149.0667,110.0,America/Juneau,1916-01-01,2022-01-01,50137.44178192632
44906,Fairbanks Airport,US,AK,70261,PAFA,64.8,-147.8667,132.0,America/Juneau,1929-01-01,2022-01-01,23110.729790147394
44987,Pangnirtung,CA,NU,71826,CWXP,66.14,-65.71,23.0,America/Pangnirtung,1949-01-01,2022-01-01,20332.76063359642
44995,Cape Dyer,CA,NU,71094,CWFD,66.65,-61.38,725.0,America/Pangnirtung,1958-01-01,2022-01-01,42321.6981418366
45016,Tasiilaq,GL,SE,04360,BGAM,65.6,-37.6333,50.0,America/Godthab,1894-01-01,2021-01-01,47514.75346645238
45025,Stykkisholmur,IS,VL,04013,BIST,65.0833,-22.7333,8.0,Atlantic/Reykjavik,1949-01-01,2021-01-01,15568.605666481291
45083,Suomussalmi,FI,OU,02879,EFSU,64.9,29.0167,223.0,Europe/Helsinki,1987-01-01,1994-01-01,11147.25555237808
45099,Lesukonskoe,RU,ARK,22573,ULAL,64.9,45.7667,66.0,Europe/Moscow,1962-01-01,2021-01-01,15629.791514098617
45110,Pechora,RU,KO,23418,UUYP,65.1167,57.1,56.0,Europe/Moscow,1943-01-01,2021-01-01,13797.649576628603
45140,Turuhansk,RU,KYA,23472,UOTT,65.7833,87.9333,32.0,Asia/Krasnoyarsk,1957-01-01,2022-01-01,24285.628592681725
45204,Zyrjanka,RU,SA,25400,UESU,65.7333,150.9,43.0,Asia/Magadan,1936-01-01,2021-01-01,30002.138746721743
45284,Fort Good Hope CS,CA,NT,71491,CYGH,66.24,-128.64,82.0,America/Inuvik,1946-01-01,2022-01-01,31221.515455674962
45442,Kuusamo,FI,OU,02869,EFKS,65.9667,29.1833,262.0,Europe/Helsinki,1959-01-01,2022-01-01,9084.403299750658
45479,Salehard,RU,YAN,23330,USDD,66.5333,66.6667,16.0,Asia/Yekaterinburg,1882-01-01,2022-01-01,53914.5156180568
45534,Zhigansk,RU,SA,24343,UEVV,66.7667,123.4,93.0,Asia/Yakutsk,1936-01-01,2021-01-01,31271.35147756947
45608,Wien Memorial Airport,US,AK,70133,PAOT,66.8833,-162.6,3.0,America/Nome,1897-01-01,2022-01-01,21722.410393551407
45620,Bettles Airport,US,AK,70174,PABT,66.9,-151.5167,196.0,America/Juneau,1945-01-01,2022-01-01,23798.59554297434
45656,Kugluktuk Airport,CA,NU,71938,CYCO,67.82,-115.14,23.0,America/Cambridge_Bay,1944-01-01,2022-01-01,20853.67293190981
45671,Hat Island,CA,NU,71084,CWIL,68.32,-100.09,36.0,America/Cambridge_Bay,1959-01-01,2021-01-01,35776.60243750266
45694,Rowley Island,CA,NU,71088,CWRX,69.08,-79.03,41.0,America/Iqaluit,1957-01-01,2022-01-01,8975.27284003854
45695,Longstaff Bluff,CA,NU,71091,CWLX,68.9,-75.14,161.0,America/Iqaluit,1958-01-01,2022-01-01,12446.195722903863
45700,Dewar Lakes,CA,NU,71092,CWUW,68.65,-71.17,527.0,America/Iqaluit,1958-01-01,2021-01-01,39512.64004133523
45708,Broughton Island,CA,NU,71096,CWVD,67.54,-63.79,584.0,America/Pangnirtung,1958-01-01,2022-01-01,60719.260795096445
45835,Vorkuta,RU,KO,23226,UUYW,67.4833,64.0167,180.0,Europe/Moscow,1946-01-01,2021-01-01,53745.30847599615
45997,"Inuvik, N. W. T.",CA,NT,71957,CYEV,68.3,-133.4833,59.0,America/Inuvik,1957-01-01,2022-01-01,38894.84968000573
46037,Shepherd Bay Airport,CA,NU,71911,CYUS,68.82,-93.43,43.0,America/Cambridge_Bay,1957-01-01,2022-01-01,26393.381865661206
46062,Cape Hooper,CA,NU,71093,CWUP,68.47,-66.8,390.0,America/Pangnirtung,1957-01-01,2022-01-01,52908.1196950113
46241,Olenek,RU,SA,24125,UERO,68.5,112.4333,220.0,Asia/Yakutsk,1936-01-01,2021-01-01,58275.008962852065
46292,Cherskij,RU,SA,25123,UESS,68.75,161.2833,32.0,Asia/Magadan,1940-01-01,2021-01-01,30027.681922827313
46352,Shingle Point Airport,CA,YT,71968,CYUA,68.95,-137.22,49.0,America/Whitehorse,1957-01-01,2022-01-01,10389.449639144226
46408,"Hall Beach, N. W. T.",CA,NU,71081,CYUX,68.7833,-81.25,8.0,America/Iqaluit,1957-01-01,2022-01-01,26092.843857674576
46463,Cape Tobin,GL,SE,04340,BGKT,70.4167,-21.9667,41.0,America/Scoresbysund,1949-01-01,1990-01-01,46351.88375808371
46522,Murmansk,RU,MUR,22113,ULMM,68.9667,33.05,51.0,Europe/Moscow,1936-01-01,2022-01-01,4205.528299237197
46688,Wainwright Airport,US,AK,70030,PAWI,70.6333,-160.0333,9.0,America/Nome,1935-01-01,2022-01-01,40793.326906612536
46705,Barter Island Airport,US,AK,70086,PABA,70.1333,-143.5667,2.0,America/Juneau,1947-01-01,2022-01-01,22124.946359097237
46710,Herschel Island,CA,YT,71501,CWJN,69.57,-138.91,1.0,America/Dawson,1974-01-01,2021-01-01,47938.69015122296
46723,Cape Parry Airport,CA,NT,71948,CZUE,70.17,-124.72,87.0,America/Inuvik,1957-01-01,2022-01-01,21674.812967094967
46993,Chokurdah,RU,SA,21946,UESO,70.6167,147.8833,61.0,Asia/Magadan,1944-01-01,2021-01-01,42833.931561004945
47050,Post Rogers Memorial Airport,US,AK,70026,PABR,71.2833,-156.7667,13.0,America/Juneau,1901-01-01,2022-01-01,32598.355147326507
47188,Scoresbysund,GL,SE,04339,BGSC,70.4833,-21.95,65.0,America/Scoresbysund,1941-01-01,2022-01-01,91729.60639906125
47308,Hatanga,RU,TAY,20891,UOHH,71.9833,102.4667,33.0,Asia/Krasnoyarsk,1928-01-01,2021-01-01,16150.595627306619
47643,Ostrov Dikson,RU,TAY,20674,UODD,73.5,80.4,47.0,Asia/Krasnoyarsk,1936-01-01,2021-01-01,56973.24116315285
47931,Bjornoya,NO,SJ,01028,ENBJ,74.5167,19.0167,16.0,Europe/Oslo,1910-01-01,2022-01-01,53742.72474089987
48186,Resolute Bay Airport,CA,NU,71924,CYRB,74.72,-94.97,68.0,America/Resolute,1947-01-01,2022-01-01,31146.766351458915
48216,Thule A. B.,GL,QS,04202,BGTL,76.5333,-68.75,77.0,America/Thule,1951-01-01,2022-01-01,52283.2687956085
48634,Danmarkshavn,GL,UO,04320,BGDH,76.7667,-18.6667,11.0,America/Godthab,1958-01-01,2022-01-01,27270.9764033508
49608,Isachsen,CA,NU,71074,CWIC,78.79,-103.55,58.0,America/Cambridge_Bay,1948-01-01,2021-01-01,25261.46628366535
49995,Eureka Airport,CA,NU,71917,CWEU,79.99,-85.81,83.0,America/Rankin_Inlet,1947-01-01,2021-01-01,15687.195749590555
